<?xml version="1.0" encoding="UTF-8"?>
<osm version="0.6" generator="Overpass API 0.7.56.1002 b121d216">
<note>The data included in this document is from www.openstreetmap.org. The data is made available under ODbL.</note>
<meta osm_base="2020-04-18T12:36:02Z" areas="2020-03-06T11:03:01Z"/>

  <node id="1537464582" lat="44.4170723" lon="7.4280646">
    <tag k="addr:city" v="Caraglio"/>
    <tag k="addr:housenumber" v="16"/>
    <tag k="addr:postcode" v="12023"/>
    <tag k="addr:street" v="Piazza Cavour"/>
    <tag k="delivery" v="yes"/>
    <tag k="email" v="calzature.giraudo@gmail.com"/>
    <tag k="name" v="Giraudo Calzature"/>
    <tag k="operator" v="Giraudo Mara"/>
    <tag k="payment:cash" v="yes"/>
    <tag k="phone" v="+39 0171 618995"/>
    <tag k="phone:mobile" v="+39 327 3139436"/>
    <tag k="ref:vatin" v="IT03687300040"/>
    <tag k="shop" v="shoes"/>
    <tag k="website" v="https://www.calzaturegiraudo.it/"/>
  </node>
  <node id="1537464595" lat="44.4172725" lon="7.4279102">
    <tag k="addr:city" v="Caraglio"/>
    <tag k="addr:housenumber" v="20"/>
    <tag k="addr:postcode" v="12023"/>
    <tag k="addr:street" v="Piazza Cavour"/>
    <tag k="amenity" v="pharmacy"/>
    <tag k="delivery" v="yes"/>
    <tag k="dispensing" v="yes"/>
    <tag k="name" v="Farmacia Cornelio"/>
    <tag k="opening_hours" v="Mo-Sa 08:30-12:30, 15:00-19:30; Su 08:30-12:20"/>
    <tag k="operator" v="Cornelio S.N.C."/>
    <tag k="phone" v="+39 0171 325202"/>
    <tag k="ref:msal" v="1087"/>
    <tag k="ref:vatin" v="IT01126410040"/>
  </node>
  <node id="1713467684" lat="44.3690009" lon="7.5177422">
    <tag k="addr:housenumber" v="100"/>
    <tag k="addr:street" v="Corso Alcide De Gasperi"/>
    <tag k="contact:email" v="info@albacattigarden.it"/>
    <tag k="contact:phone" v="+39 0171 493123"/>
    <tag k="delivery:covid19" v="yes"/>
    <tag k="name" v="Garden Alba-Catti"/>
    <tag k="shop" v="garden_centre"/>
  </node>
  <node id="1716770173" lat="44.3471167" lon="7.5102725">
    <tag k="addr:housenumber" v="29;31"/>
    <tag k="addr:street" v="Via Attilio Fontana"/>
    <tag k="amenity" v="restaurant"/>
    <tag k="brewery" v="Carlsberg;Grimbergen"/>
    <tag k="contact:facebook" v="https://www.facebook.com/Ristorante-Nikk%C5%8D-109636277123487/"/>
    <tag k="contact:mobile" v="+39 392 4670326"/>
    <tag k="cuisine" v="sushi;japanese"/>
    <tag k="delivery:covid19" v="yes"/>
    <tag k="description" v="Potete chiedere il menù e fare l'ordine direttamene su WhatsApp"/>
    <tag k="name" v="Nikko"/>
    <tag k="opening_hours" v="Tu-Su 12:00-15:00,19:00-23:30"/>
    <tag k="operator" v="Nikko di Zhao Zhijie"/>
    <tag k="phone" v="+39 0171 501962"/>
    <tag k="ref:vatin" v="IT03832770048"/>
  </node>
  <node id="1833052866" lat="44.6480426" lon="7.6098996">
    <tag k="amenity" v="restaurant"/>
    <tag k="contact:mobile" v="+39 348 6836677"/>
    <tag k="contact:phone" v="+39 0172 3116"/>
    <tag k="delivery:covid19" v="yes"/>
    <tag k="name" v="El Brandè"/>
    <tag k="website" v="https://www.elbrande.it/"/>
  </node>
  <node id="1833194099" lat="44.4913069" lon="7.5422389">
    <tag k="addr:city" v="Tarantasca"/>
    <tag k="addr:housenumber" v="29"/>
    <tag k="addr:postcode" v="12020"/>
    <tag k="addr:street" v="Via Circonvallazione"/>
    <tag k="amenity" v="restaurant"/>
    <tag k="cuisine" v="italian;fish;pizza"/>
    <tag k="delivery" v="yes"/>
    <tag k="name" v="Il Pianeta 2000 Ristorante Pizzeria"/>
    <tag k="phone" v="+39 0171 931858"/>
  </node>
  <node id="1893571565" lat="44.4952613" lon="7.5413183">
    <tag k="addr:city" v="Tarantasca"/>
    <tag k="addr:housenumber" v="12"/>
    <tag k="addr:postcode" v="12020"/>
    <tag k="addr:street" v="Via Luigi Pirandello"/>
    <tag k="delivery" v="yes"/>
    <tag k="name" v="Barbero Ferramenta di Fabrizio Barbero"/>
    <tag k="phone" v="+39 0171 931541"/>
    <tag k="shop" v="hardware"/>
  </node>
  <node id="1893571638" lat="44.4939272" lon="7.5449649">
    <tag k="addr:city" v="Tarantasca"/>
    <tag k="addr:housenumber" v="11"/>
    <tag k="addr:postcode" v="12020"/>
    <tag k="addr:street" v="Via Vittorio Veneto"/>
    <tag k="amenity" v="pharmacy"/>
    <tag k="delivery" v="yes"/>
    <tag k="dispensing" v="yes"/>
    <tag k="name" v="Farmacia Fanizza"/>
    <tag k="operator" v="Fanizza"/>
    <tag k="phone" v="+39 0171 931000"/>
    <tag k="ref:msal" v="1069"/>
    <tag k="ref:vatin" v="IT02034570040"/>
  </node>
  <node id="1893571640" lat="44.4941258" lon="7.5456762">
    <tag k="addr:city" v="Tarantasca"/>
    <tag k="addr:housenumber" v="8"/>
    <tag k="addr:postcode" v="12020"/>
    <tag k="addr:street" v="Via Centallo"/>
    <tag k="delivery" v="yes"/>
    <tag k="name" v="Alimentari Market di Barbara Lombardo"/>
    <tag k="phone" v="+39 339 4418950"/>
    <tag k="shop" v="convenience"/>
  </node>
  <node id="1893571641" lat="44.4942466" lon="7.5449612">
    <tag k="addr:city" v="Tarantasca"/>
    <tag k="addr:housenumber" v="3"/>
    <tag k="addr:postcode" v="12020"/>
    <tag k="addr:street" v="Via Vittorio Veneto"/>
    <tag k="delivery" v="yes"/>
    <tag k="name" v="L'Angolo del Pane Panetteria e Alimentari"/>
    <tag k="phone" v="+39 339 6811887"/>
    <tag k="shop" v="bakery"/>
  </node>
  <node id="1922721382" lat="44.3913904" lon="7.5484360">
    <tag k="addr:housenumber" v="2"/>
    <tag k="addr:street" v="Piazza Seminario"/>
    <tag k="amenity" v="restaurant"/>
    <tag k="cuisine" v="pizza"/>
    <tag k="delivery:covid19" v="yes"/>
    <tag k="diet:gluten_free" v="yes"/>
    <tag k="name" v="Capri"/>
    <tag k="opening_hours" v="Mo-Tu,Th-Su 12:00-14:10,19:00-24:00"/>
    <tag k="operator" v="Pizzeria Capri di Giordano Emilio e C."/>
    <tag k="phone" v="+39 0171 681904"/>
    <tag k="ref:vatin" v="IT00764810040"/>
    <tag k="website" v="https://www.pizzeriacapricuneo.it/"/>
  </node>
  <node id="1922721432" lat="44.3893100" lon="7.5464862">
    <tag k="addr:housenumber" v="2"/>
    <tag k="addr:street" v="Corso Marcello Soleri"/>
    <tag k="contact:phone" v="+39 0171 692466"/>
    <tag k="contact:website" v="http://www.pastificioboetti.it/"/>
    <tag k="delivery:covid19" v="yes"/>
    <tag k="name" v="Pastificio Boetti"/>
    <tag k="shop" v="pasta"/>
  </node>
  <node id="1922721564" lat="44.3915224" lon="7.5481737">
    <tag k="addr:housenumber" v="4"/>
    <tag k="addr:street" v="Via Seminario"/>
    <tag k="delivery:covid19" v="yes"/>
    <tag k="name" v="Macelleria Cavallo"/>
    <tag k="operator" v="Macellerie Fratelli Cavallo di Cavallo Mauro e C. s.n.c."/>
    <tag k="phone" v="+39 0171 693002"/>
    <tag k="ref:vatin" v="IT00662860048"/>
    <tag k="shop" v="butcher"/>
    <tag k="website" v="https://macelleriacuneo.it/"/>
  </node>
  <node id="1925933943" lat="44.3832517" lon="7.5404140">
    <tag k="addr:housenumber" v="24"/>
    <tag k="addr:street" v="Corso Annibale Santorre di Santarosa"/>
    <tag k="contact:facebook" v="https://www.facebook.com/Giocheria-Cuneo-893405140693390/"/>
    <tag k="contact:mobile" v="+39 349 4018605"/>
    <tag k="contact:phone" v="+39 0171 694233"/>
    <tag k="delivery:covid19" v="yes"/>
    <tag k="name" v="Giocheria"/>
    <tag k="shop" v="toys"/>
  </node>
  <node id="1932859597" lat="44.3793215" lon="7.5371446">
    <tag k="addr:housenumber" v="92"/>
    <tag k="addr:street" v="Corso Nizza"/>
    <tag k="amenity" v="restaurant"/>
    <tag k="contact:mobile" v="+39 339 4195587"/>
    <tag k="cuisine" v="chinese;japanese"/>
    <tag k="delivery:covid19" v="yes"/>
    <tag k="name" v="Cielo Azzurro"/>
    <tag k="opening_hours" v="Mo 18:00-24:00; Tu-Su 12:00-15:00,18:00-24:00"/>
    <tag k="phone" v="+39 0171 67345"/>
  </node>
  <node id="1932859601" lat="44.3656243" lon="7.5230803">
    <tag k="delivery" v="yes"/>
    <tag k="description" v="Consegne a domicilio su Cuneo città. Tutti i giorni dalle 12:30 alle 13:30."/>
    <tag k="name" v="Galfre"/>
    <tag k="phone" v="+39 0171 491758"/>
    <tag k="shop" v="bakery"/>
  </node>
  <node id="1932859603" lat="44.3786351" lon="7.5364142">
    <tag k="addr:housenumber" v="102"/>
    <tag k="addr:street" v="Corso Nizza"/>
    <tag k="amenity" v="restaurant"/>
    <tag k="contact:facebook" v="https://www.facebook.com/Pizzeria-Il-Portico-118344421556302/"/>
    <tag k="contact:instagram" v="https://www.instagram.com/pizzeria.ilportico/"/>
    <tag k="contact:mobile" v="+39 353 4062359"/>
    <tag k="contact:phone" v="+39 0171 697772"/>
    <tag k="cuisine" v="pizza"/>
    <tag k="delivery:covid19" v="yes"/>
    <tag k="name" v="Pizzeria Il Portico"/>
  </node>
  <node id="1965797379" lat="44.3957483" lon="7.4913901">
    <tag k="delivery" v="yes"/>
    <tag k="description" v="Offre il servizio di consegna gratuita della spesa in Cuneo città e zone limitrofe.  Inviare l'ordine il più possibile via e-mail completo di nome, cognome, indirizzo, telefono e modalità di pagamento preferita."/>
    <tag k="email" v="info@lafattoria1946.com"/>
    <tag k="name" v="La Fattoria"/>
    <tag k="opening_hours" v="Mo 08:50-12:50,16:10-19:30; Tu,We,Fr 08:50-12:20,16:00-19:30; Th 08:20-12:50; Sa 08:20-12:50,15:50-19:30"/>
    <tag k="phone" v="+39 0171 85107"/>
    <tag k="shop" v="convenience"/>
    <tag k="website" v="https://lafattoria1946.com/store/"/>
  </node>
  <node id="1970779039" lat="44.3808732" lon="7.5392157">
    <tag k="addr:housenumber" v="61a"/>
    <tag k="addr:street" v="Corso Nizza"/>
    <tag k="delivery" v="yes"/>
    <tag k="email" v="cuneo@prink.it"/>
    <tag k="name" v="Prink"/>
    <tag k="operator" v="Aleki SNC di Sala Alessio Gianelio &amp; C."/>
    <tag k="phone" v="+39 349 6410294"/>
    <tag k="shop" v="printer_ink"/>
  </node>
  <node id="1970779041" lat="44.3826145" lon="7.5410627">
    <tag k="addr:housenumber" v="39"/>
    <tag k="addr:street" v="Corso Nizza"/>
    <tag k="contact:phone" v="+39 0171 66616"/>
    <tag k="delivery:covid19" v="yes"/>
    <tag k="name" v="Il cucchiaio d'argento"/>
    <tag k="operator" v="Il Cucchiaio D'argento di Caglieri Angela e Aschero Enzo Snc"/>
    <tag k="shop" v="convenience"/>
  </node>
  <node id="2304669099" lat="44.3906584" lon="7.5496948">
    <tag k="addr:housenumber" v="18"/>
    <tag k="addr:postcode" v="12100"/>
    <tag k="addr:street" v="Via Savigliano"/>
    <tag k="amenity" v="restaurant"/>
    <tag k="contact:email" v="il.veliero@hotmail.com"/>
    <tag k="contact:mobile" v="+39 340 6799042"/>
    <tag k="cuisine" v="pizza"/>
    <tag k="delivery" v="yes"/>
    <tag k="name" v="Pizzeria Il Veliero"/>
  </node>
  <node id="2412584584" lat="44.3839017" lon="7.5425490">
    <tag k="addr:housenumber" v="3"/>
    <tag k="addr:street" v="Piazza Europa"/>
    <tag k="delivery" v="yes"/>
    <tag k="description" v="Consegna su Cuneo gratuita con un ordine minimo di €20. Altrimenti €2 a consegna. Spedizione 7 gg su 7 tra le 12:00 e le 20:00"/>
    <tag k="name" v="L'Ippogrifo"/>
    <tag k="payment:paypal" v="yes"/>
    <tag k="payment:satispay" v="yes"/>
    <tag k="payment:wire_transfer" v="yes"/>
    <tag k="phone" v="+39 0171 67331"/>
    <tag k="shop" v="books"/>
  </node>
  <node id="2412584621" lat="44.3940332" lon="7.5559091">
    <tag k="addr:housenumber" v="4"/>
    <tag k="addr:street" v="Piazzale Vecchia Stazione"/>
    <tag k="amenity" v="pub"/>
    <tag k="authorization" v="37"/>
    <tag k="contact:facebook" v="https://www.facebook.com/BirroviaCuneo/"/>
    <tag k="delivery" v="yes"/>
    <tag k="description" v="La Birrovia è un mondo di sapori, odori, sensazioni, cultura, svago, convivialità, arrivi e partenze. Fai capolino ed unisciti al viaggio!"/>
    <tag k="email" v="michelet1971@icloud.com"/>
    <tag k="internet_access" v="wlan"/>
    <tag k="internet_access:fee" v="no"/>
    <tag k="microbrewery" v="yes"/>
    <tag k="name" v="Birrovia Vecchia Stazione"/>
    <tag k="opening_hours" v="We, Th 17:00-01:00; Fr 17:00-02:00; Sa 18:00-03:00; Su 18:00-01:00"/>
    <tag k="operator" v="Buffet Stazione Cuneo Gesso"/>
    <tag k="outdoor_seating" v="yes"/>
    <tag k="phone:mobile" v="+39 340 8085227"/>
    <tag k="ref:vatin" v="IT03603880042"/>
    <tag k="tobacco" v="yes"/>
  </node>
  <node id="2634940001" lat="44.3899953" lon="7.5474621">
    <tag k="addr:city" v="Cuneo"/>
    <tag k="addr:housenumber" v="6"/>
    <tag k="addr:postcode" v="12100"/>
    <tag k="addr:street" v="Piazza Tancredi Galimberti"/>
    <tag k="amenity" v="bar"/>
    <tag k="brewery" v="yes"/>
    <tag k="contact:email" v="galicuneo@gmail.com"/>
    <tag k="contact:facebook" v="https://www.facebook.com/galicuneo/"/>
    <tag k="contact:mobile" v="+39 392 0339990"/>
    <tag k="contact:phone" v="+39 0171 699698"/>
    <tag k="cuisine" v="burger"/>
    <tag k="delivery:covid19" v="yes"/>
    <tag k="name" v="Galì"/>
    <tag k="opening_hours" v="Mo-Th,Su 07:00-24:00; Fr,Sa 07:00-02:00"/>
    <tag k="outdoor_seating" v="yes"/>
  </node>
  <node id="2634945051" lat="44.3873442" lon="7.5453672">
    <tag k="addr:housenumber" v="16"/>
    <tag k="addr:street" v="Corso Nizza"/>
    <tag k="amenity" v="bar"/>
    <tag k="contact:mobile" v="+39 333 4988405"/>
    <tag k="contact:phone" v="+39 0171 602014"/>
    <tag k="cuisine" v="ice_cream"/>
    <tag k="delivery" v="yes"/>
    <tag k="name" v="Il Corso"/>
    <tag k="operator" v="Bar Corso s.n.c. di Basso Marco Giuseppe &amp; C."/>
    <tag k="outdoor_seating" v="yes"/>
    <tag k="ref:vatin" v="IT02293100042"/>
    <tag k="wheelchair" v="yes"/>
  </node>
  <node id="2639877631" lat="44.3860349" lon="7.5439369">
    <tag k="addr:housenumber" v="40"/>
    <tag k="addr:street" v="Corso Dante Alighieri"/>
    <tag k="amenity" v="restaurant"/>
    <tag k="cuisine" v="pizza"/>
    <tag k="delivery" v="yes"/>
    <tag k="name" v="Pizzeria Vesuvio"/>
    <tag k="opening_hours" v="Tu,Th-Su 12:00-14:25,18:00-02:10"/>
    <tag k="phone" v="+39 0171 602061"/>
  </node>
  <node id="2956158078" lat="44.3912934" lon="7.5526704">
    <tag k="addr:housenumber" v="18"/>
    <tag k="addr:street" v="Lungogesso Papa Giovanni Ventitreesimo"/>
    <tag k="contact:email" v="info@labottegadellabicicletta.it"/>
    <tag k="contact:facebook" v="https://www.facebook.com/labottegadellabiciclettadal1902/"/>
    <tag k="contact:phone" v="+39 0171 66213"/>
    <tag k="contact:website" v="http://labottegadellabicicletta.it/"/>
    <tag k="delivery:covid19" v="yes"/>
    <tag k="name" v="La Bottega della Bicicletta"/>
    <tag k="service:bicycle:repair" v="yes"/>
    <tag k="service:bicycle:retail" v="yes"/>
    <tag k="shop" v="bicycle"/>
  </node>
  <node id="3110884075" lat="44.6476509" lon="7.6554485">
    <tag k="amenity" v="ice_cream"/>
    <tag k="delivery:covid19" v="yes"/>
    <tag k="name" v="La &quot;baraca del gelato&quot;"/>
    <tag k="phone" v="+39 379 1910431"/>
  </node>
  <node id="3441538565" lat="44.5157371" lon="7.4783675">
    <tag k="addr:city" v="Busca"/>
    <tag k="addr:housenumber" v="3"/>
    <tag k="addr:postcode" v="12022"/>
    <tag k="addr:street" v="Corso Papa Giovanni Ventitreesimo"/>
    <tag k="amenity" v="pharmacy"/>
    <tag k="delivery" v="yes"/>
    <tag k="dispensing" v="yes"/>
    <tag k="name" v="Farmacia San Lorenzo"/>
    <tag k="operator" v="S. Lorenzo"/>
    <tag k="phone" v="+39 0171 945255"/>
    <tag k="ref:msal" v="1091"/>
    <tag k="ref:vatin" v="IT02788950042"/>
    <tag k="source" v="Ministero della Salute"/>
    <tag k="source:start_date" v="2005-01-01"/>
  </node>
  <node id="3447242319" lat="44.4793641" lon="7.5054651">
    <tag k="addr:city" v="San Chiaffredo Tarantasca"/>
    <tag k="addr:housenumber" v="2a"/>
    <tag k="addr:postcode" v="12020"/>
    <tag k="addr:street" v="Via Laghi di Avigliana"/>
    <tag k="amenity" v="pharmacy"/>
    <tag k="delivery" v="yes"/>
    <tag k="dispensing" v="no"/>
    <tag k="name" v="Parafarmacia Dott.ssa Molineris"/>
    <tag k="operator" v="Parafarmacia Molineris Dott.ssa Sonia"/>
    <tag k="phone" v="+39 0171 937473"/>
    <tag k="ref:msal" v="006395"/>
    <tag k="ref:vatin" v="IT03330800040"/>
  </node>
  <node id="3449288500" lat="44.4773969" lon="7.5068936">
    <tag k="addr:city" v="San Chiaffredo Tarantasca"/>
    <tag k="addr:housenumber" v="18"/>
    <tag k="addr:street" v="Via Laghi di Avigliana"/>
    <tag k="agrarian" v="feed;seed"/>
    <tag k="delivery" v="yes"/>
    <tag k="name" v="El Granatin di Enzo Corrado"/>
    <tag k="shop" v="agrarian"/>
  </node>
  <node id="3449288504" lat="44.4775260" lon="7.5068138">
    <tag k="addr:city" v="Tarantasca"/>
    <tag k="addr:housenumber" v="18"/>
    <tag k="addr:street" v="Via Laghi di Avigliana"/>
    <tag k="delivery" v="yes"/>
    <tag k="name" v="Alimentari Tiziana Giuliano"/>
    <tag k="phone" v="+39 339 3105042"/>
    <tag k="shop" v="convenience"/>
  </node>
  <node id="3450446420" lat="44.4757521" lon="7.5079779">
    <tag k="addr:city" v="San Chiaffredo Tarantasca"/>
    <tag k="addr:housenumber" v="38"/>
    <tag k="addr:postcode" v="12020"/>
    <tag k="addr:street" v="Via Laghi di Avigliana"/>
    <tag k="amenity" v="restaurant"/>
    <tag k="cuisine" v="italian;pizza"/>
    <tag k="delivery" v="yes"/>
    <tag k="name" v="Saloon City"/>
    <tag k="operator" v="Lingua Alfio"/>
    <tag k="phone" v="+39 331 749 5727"/>
  </node>
  <node id="3474970217" lat="44.4192099" lon="7.4326748">
    <tag k="delivery" v="yes"/>
    <tag k="name" v="Sadonio Alimentari"/>
    <tag k="operator" v="Elio Sadonio"/>
    <tag k="phone" v="+39 333 2611175"/>
    <tag k="shop" v="convenience"/>
  </node>
  <node id="3474970249" lat="44.4194222" lon="7.4325171">
    <tag k="addr:housenumber" v="13"/>
    <tag k="addr:street" v="Piazza Martiri della Libertà"/>
    <tag k="amenity" v="restaurant"/>
    <tag k="contact:facebook" v="https://www.facebook.com/www.ristorantepizzeriatavernaparadiso.it/"/>
    <tag k="cuisine" v="pizza;italian"/>
    <tag k="delivery" v="yes"/>
    <tag k="email" v="info@tavernaparadiso.it"/>
    <tag k="name" v="Pizzeria Taverna Paradiso"/>
    <tag k="payment:american_express" v="yes"/>
    <tag k="payment:cash" v="yes"/>
    <tag k="payment:maestro" v="yes"/>
    <tag k="payment:mastercard" v="yes"/>
    <tag k="payment:visa" v="yes"/>
    <tag k="phone" v="+39 0171 817393"/>
    <tag k="phone:mobile" v="+39 329 4236709"/>
    <tag k="website" v="https://www.ristorantepizzeriatavernaparadiso.it/"/>
  </node>
  <node id="3481137901" lat="44.4178934" lon="7.4335779">
    <tag k="addr:city" v="Caraglio"/>
    <tag k="addr:housenumber" v="47"/>
    <tag k="addr:postcode" v="12023"/>
    <tag k="addr:street" v="Via Cesare Battisti"/>
    <tag k="delivery" v="yes"/>
    <tag k="name" v="Fiori di Pesco"/>
    <tag k="operator" v="Cinzia Ghibaudo"/>
    <tag k="phone" v="+39 0171 610300"/>
    <tag k="phone:mobile" v="+39 339 7227895"/>
    <tag k="shop" v="florist"/>
  </node>
  <node id="3489695698" lat="44.4353320" lon="7.4446234"/>
  <node id="3489695717" lat="44.4357536" lon="7.4456951"/>
  <node id="3489695718" lat="44.4357615" lon="7.4453858"/>
  <node id="3489695746" lat="44.4361256" lon="7.4448066"/>
  <node id="3489695897" lat="44.4367069" lon="7.4430360"/>
  <node id="3489695906" lat="44.4369458" lon="7.4462025"/>
  <node id="3489695914" lat="44.4378946" lon="7.4451889"/>
  <node id="3495657915" lat="44.4186333" lon="7.4312260">
    <tag k="addr:city" v="Caraglio"/>
    <tag k="addr:housenumber" v="166"/>
    <tag k="addr:postcode" v="12023"/>
    <tag k="addr:street" v="Via Roma"/>
    <tag k="contact:facebook" v="https://www.facebook.com/PasticceriaPaganessiCaraglio/"/>
    <tag k="delivery" v="yes"/>
    <tag k="email" v="pasticceria.paganessi@gmail.com"/>
    <tag k="name" v="Pasticceria Paganessi"/>
    <tag k="opening_hours" v="Tu 07:15-12:30,14:30-20:00; We 07:30-12:30,12:30-20:00; Th 07:30-12:30,14:30-20:00; Fr 07:30-12:30,14:30-20:00; Sa 07:30-13:00,15:30-20:00; Su 07:30-13:00"/>
    <tag k="payment:american_express" v="yes"/>
    <tag k="payment:cash" v="yes"/>
    <tag k="payment:maestro" v="yes"/>
    <tag k="payment:mastercard" v="yes"/>
    <tag k="payment:satispay" v="yes"/>
    <tag k="payment:visa" v="yes"/>
    <tag k="phone" v="+39 0171 618569"/>
    <tag k="phone:mobile" v="+39 339 6243453"/>
    <tag k="shop" v="pastry"/>
  </node>
  <node id="3496506663" lat="44.4171192" lon="7.4270728">
    <tag k="delivery" v="yes"/>
    <tag k="name" v="Macelleria Serra"/>
    <tag k="phone" v="+39 0171 619105"/>
    <tag k="shop" v="butcher"/>
  </node>
  <node id="3499281092" lat="44.4180420" lon="7.4303160">
    <tag k="addr:city" v="Caraglio"/>
    <tag k="addr:housenumber" v="157"/>
    <tag k="addr:postcode" v="12023"/>
    <tag k="addr:street" v="Via Roma"/>
    <tag k="amenity" v="pharmacy"/>
    <tag k="delivery" v="yes"/>
    <tag k="dispensing" v="yes"/>
    <tag k="name" v="Farmacia Di Marco"/>
    <tag k="operator" v="Farmacia di Di Marco Rosella e C. S.A.S."/>
    <tag k="phone:mobile" v="+39 340 7600326"/>
    <tag k="ref:msal" v="1086"/>
    <tag k="ref:vatin" v="IT02346710045"/>
  </node>
  <node id="3867332869" lat="44.3919899" lon="7.5530630">
    <tag k="addr:housenumber" v="14"/>
    <tag k="addr:street" v="Lungogesso Papa Giovanni Ventitreesimo"/>
    <tag k="amenity" v="restaurant"/>
    <tag k="cuisine" v="italian"/>
    <tag k="delivery:covid19" v="yes"/>
    <tag k="name" v="Osteria dei Colori"/>
    <tag k="opening_hours" v="Tu-Sa 19:05-01:45; Su 12:00-15:30"/>
    <tag k="payment:american_express" v="yes"/>
    <tag k="payment:cash" v="yes"/>
    <tag k="payment:maestro" v="yes"/>
    <tag k="payment:mastercard" v="yes"/>
    <tag k="payment:satispay" v="yes"/>
    <tag k="payment:visa" v="yes"/>
    <tag k="phone" v="+39 0171 403308"/>
  </node>
  <node id="3884561295" lat="44.3912962" lon="7.5634988">
    <tag k="addr:housenumber" v="10"/>
    <tag k="addr:postcode" v="12100"/>
    <tag k="addr:street" v="Via Savona"/>
    <tag k="amenity" v="cafe"/>
    <tag k="contact:email" v="matteo.gavu@hotmail.it"/>
    <tag k="contact:mobile" v="+39 349 6003543"/>
    <tag k="delivery:covid19" v="yes"/>
    <tag k="name" v="Bar barriera"/>
  </node>
  <node id="4160266589" lat="44.3858044" lon="7.5444019">
    <tag k="addr:housenumber" v="42"/>
    <tag k="addr:street" v="Corso Dante Alighieri"/>
    <tag k="amenity" v="restaurant"/>
    <tag k="contact:mobile" v="+39 373 8721447"/>
    <tag k="contact:phone" v="+39 0171 67260"/>
    <tag k="contact:website" v="https://www.pizzeriascugnizzo.it/"/>
    <tag k="cuisine" v="pizza"/>
    <tag k="delivery:covid19" v="yes"/>
    <tag k="name" v="Pizzeria Scugnizzo"/>
  </node>
  <node id="4196772617" lat="44.3794505" lon="7.5380763">
    <tag k="addr:housenumber" v="1"/>
    <tag k="addr:street" v="Via Paralup"/>
    <tag k="contact:email" v="annalisa.zavattaro@gmail.com"/>
    <tag k="contact:facebook" v="https://www.facebook.com/Idee-in-Testa-Cuneo-187811451349439/"/>
    <tag k="contact:instagram" v="https://www.instagram.com/_idee_in_testa_/"/>
    <tag k="contact:phone" v="+39 0171 690867"/>
    <tag k="delivery:covid19" v="yes"/>
    <tag k="name" v="Idee in Testa"/>
    <tag k="shop" v="hairdresser"/>
    <tag k="unisex" v="yes"/>
  </node>
  <node id="4472819038" lat="44.5147184" lon="7.4729824">
    <tag k="amenity" v="restaurant"/>
    <tag k="cuisine" v="pizza"/>
    <tag k="delivery" v="yes"/>
    <tag k="name" v="Pizza &amp; Fantasia"/>
    <tag k="phone" v="+39 0171 946013"/>
    <tag k="takeaway" v="yes"/>
  </node>
  <node id="4472819040" lat="44.5149929" lon="7.4745175">
    <tag k="addr:city" v="Busca"/>
    <tag k="addr:housenumber" v="114"/>
    <tag k="addr:postcode" v="12022"/>
    <tag k="addr:street" v="Via Umberto Primo"/>
    <tag k="amenity" v="pharmacy"/>
    <tag k="delivery" v="yes"/>
    <tag k="dispensing" v="yes"/>
    <tag k="email" v="farmaciaabratebusca@gmail.com"/>
    <tag k="name" v="Farmacia Abrate"/>
    <tag k="operator" v="Abrate Enrico"/>
    <tag k="phone" v="+39 0171 943923"/>
    <tag k="phone:mobile" v="+39 377 2318251"/>
    <tag k="ref:msal" v="1079"/>
    <tag k="ref:vatin" v="IT00196010045"/>
    <tag k="source" v="Ministero della Salute"/>
    <tag k="start_date" v="2007-04-01"/>
  </node>
  <node id="4473107900" lat="44.5150902" lon="7.4748565">
    <tag k="addr:city" v="Busca"/>
    <tag k="addr:housenumber" v="106"/>
    <tag k="addr:postcode" v="12022"/>
    <tag k="addr:street" v="Via Umberto Primo"/>
    <tag k="amenity" v="pharmacy"/>
    <tag k="delivery" v="yes"/>
    <tag k="dispensing" v="yes"/>
    <tag k="name" v="Farmacia Favro"/>
    <tag k="operator" v="Favro Paolo"/>
    <tag k="phone" v="+39 0171 945290"/>
    <tag k="ref:msal" v="1082"/>
    <tag k="ref:vatin" v="IT02962710048"/>
    <tag k="source" v="Ministero della Salute"/>
    <tag k="start_date" v="2010-09-01"/>
  </node>
  <node id="4635088458" lat="44.5430464" lon="7.4842147"/>
  <node id="4635088459" lat="44.5427768" lon="7.4843328"/>
  <node id="4635088460" lat="44.5424843" lon="7.4843730"/>
  <node id="4635088461" lat="44.5424251" lon="7.4839358"/>
  <node id="4635088462" lat="44.5424538" lon="7.4835898"/>
  <node id="4635088463" lat="44.5428762" lon="7.4834423"/>
  <node id="4721228431" lat="44.4233187" lon="7.5428578">
    <tag k="addr:city" v="Madonna dell'Olmo"/>
    <tag k="addr:housenumber" v="139ter"/>
    <tag k="addr:postcode" v="12100"/>
    <tag k="addr:street" v="Via Valle Po"/>
    <tag k="delivery" v="yes"/>
    <tag k="email" v="cidas_cuneo@virgilio.it"/>
    <tag k="name" v="Cidas"/>
    <tag k="opening_hours" v="Mo-Fr 09:00-12:30,15:00-19:00"/>
    <tag k="phone" v="+39 0171 411109"/>
    <tag k="shop" v="supermarket"/>
  </node>
  <node id="5397122021" lat="44.3857601" lon="7.5442727">
    <tag k="addr:housenumber" v="27"/>
    <tag k="addr:street" v="Corso Nizza"/>
    <tag k="delivery" v="yes"/>
    <tag k="email" v="info@albero.delpane.it"/>
    <tag k="name" v="L'albero del pane"/>
    <tag k="operator" v="Ateliers Nicolas Srl"/>
    <tag k="phone" v="+39 345 424 1416"/>
    <tag k="ref:vatin" v="IT03242590044"/>
    <tag k="shop" v="bakery"/>
    <tag k="website" v="https://albero.delpane.it"/>
  </node>
  <node id="5397122034" lat="44.3881856" lon="7.5488399">
    <tag k="addr:housenumber" v="5"/>
    <tag k="addr:street" v="Corso Giuseppe Garibaldi"/>
    <tag k="amenity" v="cafe"/>
    <tag k="cuisine" v="ice_cream"/>
    <tag k="delivery" v="yes"/>
    <tag k="description" v="Consegna per colombe pasquali, uova di cioccolato, pasticceria e gelato, vini. Servizio di prenotazione dalle 10 alle 17"/>
    <tag k="name" v="Bar Gelateria Rondò"/>
    <tag k="opening_hours" v="Mo-Sa 06:00-20:00; Su 07:00-12:30"/>
    <tag k="outdoor_seating" v="yes"/>
    <tag k="phone" v="+39 0171 693900"/>
    <tag k="phone:mobile" v="+39 335 5890688"/>
  </node>
  <node id="5402092336" lat="44.3775707" lon="7.5395501">
    <tag k="addr:city" v="Cuneo"/>
    <tag k="addr:housenumber" v="14"/>
    <tag k="addr:postcode" v="12100"/>
    <tag k="addr:street" v="Via Medaglie d'Oro"/>
    <tag k="amenity" v="restaurant"/>
    <tag k="contact:facebook" v="https://www.facebook.com/Pizza-Medaglie-Doro-1437767796484999/"/>
    <tag k="cuisine" v="pizza"/>
    <tag k="delivery" v="yes"/>
    <tag k="name" v="Pizzeria Medaglie d'Oro"/>
    <tag k="opening_hours" v="Mo 18:15-23:00; We 12:00-14:00,18:15-23:00; Th-Su 18:15-23:00"/>
    <tag k="phone" v="+39 345 4200669"/>
  </node>
  <node id="5402092370" lat="44.3817138" lon="7.5404782">
    <tag k="addr:housenumber" v="1"/>
    <tag k="addr:street" v="Via Luigi Negrelli"/>
    <tag k="delivery" v="yes"/>
    <tag k="email" v="centroacusticocn@libero.it"/>
    <tag k="name" v="Centro Acustico Piemontese"/>
    <tag k="operator" v="Centro Acustico Piemontese Snc"/>
    <tag k="phone" v="+39 0171 603072"/>
    <tag k="shop" v="hearing_aids"/>
  </node>
  <node id="5402092382" lat="44.3801459" lon="7.5380339">
    <tag k="addr:city" v="Cuneo"/>
    <tag k="addr:housenumber" v="80"/>
    <tag k="addr:postcode" v="12100"/>
    <tag k="addr:street" v="Corso Nizza"/>
    <tag k="delivery" v="yes"/>
    <tag k="delivery_point:access" v="yes"/>
    <tag k="name" v="L'Angolo alimentare"/>
    <tag k="phone" v="+39 0171 696139"/>
    <tag k="shop" v="convenience"/>
  </node>
  <node id="5402092414" lat="44.3664395" lon="7.5237964">
    <tag k="amenity" v="restaurant"/>
    <tag k="cuisine" v="pizza"/>
    <tag k="delivery" v="yes"/>
    <tag k="name" v="Pizzeria del Conte"/>
    <tag k="phone" v="+39 0171 344303"/>
  </node>
  <node id="5420548585" lat="44.3899647" lon="7.5776326">
    <tag k="addr:housenumber" v="81"/>
    <tag k="addr:street" v="Via Savona"/>
    <tag k="delivery" v="yes"/>
    <tag k="email" v="info@albero.delpane.it"/>
    <tag k="name" v="L'Albero del Pane"/>
    <tag k="phone" v="+39 0171 348240"/>
    <tag k="shop" v="bakery"/>
    <tag k="website" v="https://albero.delpane.it"/>
  </node>
  <node id="5484420225" lat="44.4599876" lon="7.6286101">
    <tag k="addr:city" v="Centallo"/>
    <tag k="addr:housenumber" v="197"/>
    <tag k="addr:place" v="Regione Pedaggio Sottano"/>
    <tag k="amenity" v="pub"/>
    <tag k="brewery" v="yes"/>
    <tag k="contact:email" v="info@birrificiotrunasse.it"/>
    <tag k="contact:mobile" v="+39 338 8616725"/>
    <tag k="contact:website" v="https://www.birrificiotrunasse.it/"/>
    <tag k="craft" v="brewery"/>
    <tag k="delivery:covid19" v="yes"/>
    <tag k="microbrewery" v="yes"/>
    <tag k="name" v="Birrificio Trunasse"/>
    <tag k="opening_hours" v="Tu-Fr 18:00-02:00; Sa 18:00-03:00; Su 18:00-01:00"/>
    <tag k="product" v="beer"/>
  </node>
  <node id="5839763105" lat="44.3825605" lon="7.4683690">
    <tag k="addr:housenumber" v="37"/>
    <tag k="addr:street" v="Via Roma"/>
    <tag k="amenity" v="pharmacy"/>
    <tag k="contact:facebook" v="https://www.facebook.com/alessiasottileparafarmacia/"/>
    <tag k="delivery" v="yes"/>
    <tag k="dispensing" v="no"/>
    <tag k="name" v="Parafarmacia Alessia Sottile"/>
    <tag k="operator" v="Parafarmacia Sottile"/>
    <tag k="phone" v="+39 0171 500692"/>
    <tag k="ref:msal" v="014370"/>
    <tag k="ref:vatin" v="IT03525710046"/>
  </node>
  <node id="5839870389" lat="44.4186901" lon="7.4331295">
    <tag k="delivery" v="yes"/>
    <tag k="name" v="Edicola Mandile Simona"/>
    <tag k="phone:mobile" v="+39 339 2531361"/>
    <tag k="shop" v="tobacco"/>
  </node>
  <node id="5843603120" lat="44.3308624" lon="7.4877099">
    <tag k="delivery" v="yes"/>
    <tag k="name" v="Borgomarket"/>
    <tag k="shop" v="convenience"/>
  </node>
  <node id="5967741748" lat="44.3800648" lon="7.5259808">
    <tag k="addr:street" v="Via Cascina Colombaro"/>
    <tag k="delivery" v="yes"/>
    <tag k="name" v="Sapore di Mare"/>
    <tag k="nohousenumber" v="yes"/>
    <tag k="shop" v="seafood"/>
    <tag k="website" v="https://www.saporedimare.it"/>
  </node>
  <node id="6015519457" lat="44.3907096" lon="7.5506688">
    <tag k="addr:housenumber" v="7"/>
    <tag k="addr:street" v="Via Peveragno"/>
    <tag k="alt_name" v="Sottosopra"/>
    <tag k="amenity" v="cafe"/>
    <tag k="contact:email" v="coffeespiritsacademy@gmail.com"/>
    <tag k="contact:mobile" v="+39 392 7158394;+39 345 0847193"/>
    <tag k="delivery:covid19" v="yes"/>
    <tag k="name" v="Coffee and Good Spirits"/>
  </node>
  <node id="6017261042" lat="44.3810800" lon="7.5450910">
    <tag k="addr:housenumber" v="63"/>
    <tag k="addr:street" v="Corso Annibale Santorre di Santarosa"/>
    <tag k="contact:email" v="ruotaliberacuneo@gmail.com"/>
    <tag k="contact:mobile" v="+39 334 2275938"/>
    <tag k="delivery:covid19" v="yes"/>
    <tag k="name" v="Ruota Libera"/>
    <tag k="shop" v="bicycle"/>
  </node>
  <node id="6018280867" lat="44.3938070" lon="7.5513196">
    <tag k="addr:housenumber" v="6"/>
    <tag k="addr:street" v="Via Santa Maria"/>
    <tag k="amenity" v="restaurant"/>
    <tag k="cuisine" v="japanese;sushi"/>
    <tag k="delivery" v="yes"/>
    <tag k="name" v="Kombu"/>
    <tag k="opening_hours" v="Mo 18:30-22:30; Tu-Sa 12:30-14:30,18:30-23:00; Su 18:30-23:00"/>
    <tag k="phone" v="+39 0171 605615"/>
    <tag k="takeaway" v="yes"/>
    <tag k="website" v="https://shop.kombusushi.com"/>
  </node>
  <node id="6028315708" lat="44.3882781" lon="7.5479339">
    <tag k="addr:housenumber" v="4"/>
    <tag k="addr:street" v="Corso Giuseppe Garibaldi"/>
    <tag k="amenity" v="cafe"/>
    <tag k="contact:email" v="sandiabistrot@gmail.com"/>
    <tag k="contact:facebook" v="https://www.facebook.com/sandiabistrot/"/>
    <tag k="contact:instagram" v="https://www.instagram.com/sandiabistrot/"/>
    <tag k="contact:phone" v="+39 0171 605374"/>
    <tag k="delivery:covid19" v="yes"/>
    <tag k="diet:vegan" v="yes"/>
    <tag k="diet:vegetarian" v="yes"/>
    <tag k="name" v="Sandía"/>
    <tag k="organic" v="yes"/>
  </node>
  <node id="6033563131" lat="44.3801215" lon="7.5385062">
    <tag k="addr:housenumber" v="71"/>
    <tag k="addr:street" v="Corso Nizza"/>
    <tag k="amenity" v="fast_food"/>
    <tag k="cuisine" v="kebab;pizza"/>
    <tag k="delivery" v="yes"/>
    <tag k="description" v="Consegna gratuita per ordini superiori a 9 Euro"/>
    <tag k="name" v="Med Casa del kebap"/>
    <tag k="opening_hours" v="12:00-23:59"/>
    <tag k="oven" v="gas_fired"/>
    <tag k="phone" v="+39 342 015 7593"/>
  </node>
  <node id="6034734222" lat="44.3895430" lon="7.5470124">
    <tag k="addr:housenumber" v="12"/>
    <tag k="addr:street" v="Piazza Tancredi Galimberti"/>
    <tag k="delivery" v="yes"/>
    <tag k="description" v="Per agevolare i clienti hanno attivato un servizio di prenotazione online per i prodotti di gastronomia: potete scaricare l'app dall'Apple Store e da Google Play oppure ordinare tramite il sito. Resta valida la telefonata diretta."/>
    <tag k="email" v="gastronomia@drogheriagiraudo.it"/>
    <tag k="name" v="Drogheria Giraudo"/>
    <tag k="opening_hours" v="Mo 16:00-19:30; Tu-Sa 09:00-13:00,16:00-19:00"/>
    <tag k="phone" v="+39 0171 692620"/>
    <tag k="shop" v="convenience"/>
    <tag k="website" v="http://www.gastronomiagiraudo.it"/>
  </node>
  <node id="6038593234" lat="44.3869137" lon="7.5449442">
    <tag k="addr:city" v="Cuneo"/>
    <tag k="addr:housenumber" v="22"/>
    <tag k="addr:street" v="Corso Nizza"/>
    <tag k="amenity" v="bar"/>
    <tag k="contact:mobile" v="+39 328 1412090"/>
    <tag k="contact:phone" v="+39 0171 64450"/>
    <tag k="cuisine" v="ice_cream"/>
    <tag k="delivery:covid19" v="yes"/>
    <tag k="name" v="Sillano"/>
  </node>
  <node id="6058231448" lat="44.3898260" lon="7.5491263">
    <tag k="addr:housenumber" v="1"/>
    <tag k="addr:street" v="Piazza Tancredi Galimberti"/>
    <tag k="contact:email" v="mondadori.cuneostore@gmail.com"/>
    <tag k="delivery" v="yes"/>
    <tag k="description" v="Scrivi una mail indicando i titoli desiderati e l'indirizzo per la spedizione.  PAGAMENTI: - SATISPAY sul numero di cellulare 331.6869763 -CARTA DOCENTE; -APP18; BONIFICO ord, IBAN: IT90H0845010201000000007502 - Banca Alpi Marittime - Ag. Cuneo 2"/>
    <tag k="name" v="Mondadori Bookstore"/>
    <tag k="shop" v="books"/>
  </node>
  <node id="6059792096" lat="44.3885576" lon="7.5473771">
    <tag k="addr:housenumber" v="15"/>
    <tag k="addr:street" v="Piazza Tancredi Galimberti"/>
    <tag k="contact:email" v="info@pasticceriacuneo.it"/>
    <tag k="contact:mobile" v="+39 340 6943982"/>
    <tag k="delivery:covid19" v="yes"/>
    <tag k="name" v="Pasticceria Cuneo"/>
    <tag k="shop" v="pastry"/>
  </node>
  <node id="6061695210" lat="44.3882111" lon="7.5492017">
    <tag k="addr:housenumber" v="7"/>
    <tag k="addr:street" v="Corso Giuseppe Garibaldi"/>
    <tag k="contact:email" v="cuneo@fiorito.net"/>
    <tag k="contact:phone" v="+39 0171 66650"/>
    <tag k="delivery" v="yes"/>
    <tag k="description" v="Consegniamo fiori e piante a domicilio a Cuneo e dintorni."/>
    <tag k="name" v="Fiorito Cuneo"/>
    <tag k="payment:cash" v="yes"/>
    <tag k="payment:credit_cards" v="yes"/>
    <tag k="payment:paypal" v="yes"/>
    <tag k="payment:satispay" v="yes"/>
    <tag k="shop" v="florist"/>
    <tag k="website" v="https://www.fioritoshop.it"/>
  </node>
  <node id="6068082705" lat="44.3890578" lon="7.5403061">
    <tag k="addr:housenumber" v="19"/>
    <tag k="addr:street" v="Corso Quattro Novembre"/>
    <tag k="brand" v="Carrefour Market"/>
    <tag k="brand:wikidata" v="Q2689639"/>
    <tag k="brand:wikipedia" v="fr:Carrefour Market"/>
    <tag k="delivery" v="yes"/>
    <tag k="description" v="Spesa online, gratis per OVER 65 fino al 12 aprile 2020"/>
    <tag k="name" v="Carrefour Market"/>
    <tag k="opening_hours" v="24/7"/>
    <tag k="shop" v="supermarket"/>
    <tag k="website" v="https://www.carrefour.it/?cat=spesa"/>
  </node>
  <node id="6068617025" lat="44.3901581" lon="7.5475874">
    <tag k="addr:housenumber" v="4f"/>
    <tag k="addr:street" v="Piazza Tancredi Galimberti"/>
    <tag k="delivery" v="yes"/>
    <tag k="email" v="emporio.cuneo@oliocarli.it"/>
    <tag k="name" v="F.lli Carli Emporio di Cuneo"/>
    <tag k="phone" v="+39 0171 601176"/>
    <tag k="shop" v="deli"/>
  </node>
  <node id="6069087797" lat="44.3349923" lon="7.4917451">
    <tag k="addr:housenumber" v="79"/>
    <tag k="addr:street" v="Corso Giovanni e Spartaco Barale"/>
    <tag k="amenity" v="restaurant"/>
    <tag k="brewery" v="Birra Forst"/>
    <tag k="changing_table" v="yes"/>
    <tag k="changing_table:location" v="unisex_toilet"/>
    <tag k="cuisine" v="pizza"/>
    <tag k="delivery" v="yes"/>
    <tag k="description" v="Consegna gratuita a Borgo San Dalmazzo"/>
    <tag k="name" v="Italy Pizzeria"/>
    <tag k="opening_hours" v="Mo-Su 12:00-14:00,19:00-24:00"/>
    <tag k="operator" v="Italy"/>
    <tag k="outdoor_seating" v="yes"/>
    <tag k="oven" v="gas_fired"/>
    <tag k="payment:satispay" v="yes"/>
    <tag k="phone" v="+39 0171 261699"/>
    <tag k="ref:vatin" v="IT03517840041"/>
  </node>
  <node id="6070278795" lat="44.3792639" lon="7.5313218">
    <tag k="addr:city" v="Cuneo"/>
    <tag k="addr:housenumber" v="26"/>
    <tag k="addr:postcode" v="12100"/>
    <tag k="addr:street" v="Corso Antonio Gramsci"/>
    <tag k="delivery:covid19" v="yes"/>
    <tag k="name" v="Il Forno Nuovo S.n.c."/>
    <tag k="operator" v="Il Forno Nuovo S.n.c. di Bruno Mario e figli"/>
    <tag k="phone" v="+39 0171 692048"/>
    <tag k="ref:vatin" v="IT03638010045"/>
    <tag k="shop" v="bakery"/>
  </node>
  <node id="6101322523" lat="44.3817694" lon="7.5388809">
    <tag k="addr:housenumber" v="27"/>
    <tag k="addr:street" v="Corso Galileo Ferraris"/>
    <tag k="contact:phone" v="+39 0171 693663"/>
    <tag k="delivery:covid19" v="yes"/>
    <tag k="operator" v="Allasina Riccardo"/>
    <tag k="shop" v="bakery"/>
  </node>
  <node id="6109051287" lat="44.4214163" lon="7.5525793">
    <tag k="addr:housenumber" v="8"/>
    <tag k="addr:street" v="Via Guido Martino"/>
    <tag k="amenity" v="pharmacy"/>
    <tag k="delivery:covid19" v="yes"/>
    <tag k="dispensing" v="no"/>
    <tag k="level" v="1"/>
    <tag k="name" v="Parafarmacia della Granda"/>
    <tag k="operator" v="Fda di Donolato Antonio e C. s.n.c."/>
    <tag k="payment:bancomat" v="yes"/>
    <tag k="payment:cash" v="yes"/>
    <tag k="payment:satispay" v="yes"/>
    <tag k="phone" v="+39 0171 411650"/>
    <tag k="ref:msal" v="005799"/>
    <tag k="ref:vatin" v="IT03278350040"/>
  </node>
  <node id="6124666867" lat="44.3855735" lon="7.5435524">
    <tag k="addr:housenumber" v="40"/>
    <tag k="addr:street" v="Corso Nizza"/>
    <tag k="delivery" v="yes"/>
    <tag k="name" v="Il fornaio"/>
    <tag k="operator" v="Buccaresi Enrico"/>
    <tag k="phone" v="+39 0171 692432"/>
    <tag k="shop" v="bakery"/>
  </node>
  <node id="6129227492" lat="44.3832705" lon="7.5392283">
    <tag k="addr:city" v="Cuneo"/>
    <tag k="addr:housenumber" v="10"/>
    <tag k="addr:postcode" v="12100"/>
    <tag k="addr:street" v="Via Michele Coppino"/>
    <tag k="delivery" v="yes"/>
    <tag k="description" v="Consegna a domicilio su Cuneo."/>
    <tag k="name" v="Alimentari e Pane di Laugero Silvana"/>
    <tag k="phone" v="+39 0171 602533"/>
    <tag k="shop" v="bakery"/>
  </node>
  <node id="6129227495" lat="44.3833612" lon="7.5393558">
    <tag k="addr:housenumber" v="52"/>
    <tag k="addr:street" v="Via Venti Settembre"/>
    <tag k="delivery" v="yes"/>
    <tag k="email" v="contabilita@dalmassosnc.it"/>
    <tag k="name" v="Dalmasso"/>
    <tag k="operator" v="Dalmasso Snc"/>
    <tag k="phone" v="+39 0171 698336"/>
    <tag k="shop" v="confectionery"/>
    <tag k="website" v="http://www.dalmassosnc.it/"/>
  </node>
  <node id="6130371486" lat="44.3926051" lon="7.5500258">
    <tag k="addr:city" v="Cuneo"/>
    <tag k="addr:housenumber" v="2b"/>
    <tag k="addr:postcode" v="12100"/>
    <tag k="addr:street" v="Via Dronero"/>
    <tag k="amenity" v="restaurant"/>
    <tag k="cuisine" v="burger"/>
    <tag k="delivery" v="yes"/>
    <tag k="name" v="Bove's Macellai"/>
    <tag k="opening_hours" v="Mo,Tu 12:15-14:30,19:15-22:30; Th-Su 12:15-14:30,19:15-22:30"/>
    <tag k="phone" v="+39 0171 692624"/>
    <tag k="website" v="http://www.boves1929.it"/>
  </node>
  <node id="6140017109" lat="44.3908694" lon="7.5472588">
    <tag k="addr:housenumber" v="3"/>
    <tag k="addr:street" v="Via Carlo Pascal"/>
    <tag k="delivery" v="yes"/>
    <tag k="name" v="Ortomercato"/>
    <tag k="phone" v="+39 0171 602230"/>
    <tag k="phone:mobile" v="+39 334 8998460"/>
    <tag k="shop" v="greengrocer"/>
  </node>
  <node id="6140017111" lat="44.3908068" lon="7.5473757">
    <tag k="addr:housenumber" v="3"/>
    <tag k="addr:street" v="Via Carlo Pascal"/>
    <tag k="amenity" v="restaurant"/>
    <tag k="cuisine" v="barbecue"/>
    <tag k="delivery" v="yes"/>
    <tag k="email" v="elnadalessandro@gmail.com"/>
    <tag k="name" v="Macelleria D'Ale"/>
    <tag k="opening_hours" v="Mo-Sa 09:30-14:30; Mo-Th 16:30-20:00; Fr 16:30-22:30; Sa 16:30-23:00"/>
    <tag k="opening_hours:kitchen" v="Mo-Sa 12:00-14:30; Fr 19:00-22:30; Sa 19:00-23:00"/>
    <tag k="operator" v="Macelleria - Gastronomia D'Ale di Arborino Alessandro &amp; C. S.N.C."/>
    <tag k="phone" v="+39 0171 65759"/>
    <tag k="ref:vatin" v="IT03246830040"/>
    <tag k="shop" v="butcher"/>
  </node>
  <node id="6160271234" lat="44.3945345" lon="7.5022620">
    <tag k="addr:housenumber" v="76"/>
    <tag k="addr:street" v="Via Nazionale"/>
    <tag k="delivery" v="yes"/>
    <tag k="email" v="direzione@bramardicioccolato.it"/>
    <tag k="name" v="Bramardi"/>
    <tag k="operator" v="Beccaria Franco"/>
    <tag k="phone" v="+39 0171 85252"/>
    <tag k="shop" v="pastry"/>
    <tag k="website" v="https://www.bramardicioccolato.it/"/>
  </node>
  <node id="6160271235" lat="44.3945019" lon="7.5017926">
    <tag k="addr:city" v="San Defendente di Cervasca"/>
    <tag k="addr:housenumber" v="76d"/>
    <tag k="addr:postcode" v="12010"/>
    <tag k="addr:street" v="Via Nazionale"/>
    <tag k="delivery" v="yes"/>
    <tag k="email" v="info@nordgel.it"/>
    <tag k="name" v="Nord Gel"/>
    <tag k="opening_hours" v="Mo-Sa 08:30-12:30,15:00-19:30; Su 08:30-12:30"/>
    <tag k="phone" v="+39 0171 612405;+39 0171 612602"/>
    <tag k="shop" v="frozen_food"/>
    <tag k="website" v="https://www.nordgel.it/"/>
  </node>
  <node id="6166315621" lat="44.3924707" lon="7.5514228">
    <tag k="addr:housenumber" v="3"/>
    <tag k="addr:street" v="Via Mondovì"/>
    <tag k="amenity" v="ice_cream"/>
    <tag k="contact:facebook" v="https://www.facebook.com/ansaldigelateriacioccolateria.ansaldi/"/>
    <tag k="contact:mobile" v="+39 392 2044991"/>
    <tag k="contact:phone" v="+39 0171 67296"/>
    <tag k="delivery:covid19" v="yes"/>
    <tag k="name" v="Ansaldi"/>
  </node>
  <node id="6170776614" lat="44.3840423" lon="7.5411894">
    <tag k="addr:housenumber" v="14"/>
    <tag k="addr:street" v="Piazza Europa"/>
    <tag k="amenity" v="bar"/>
    <tag k="brewery" v="Beck's;Leffe"/>
    <tag k="cuisine" v="ice_cream"/>
    <tag k="delivery" v="yes"/>
    <tag k="name" v="Cuba"/>
    <tag k="outdoor_seating" v="yes"/>
    <tag k="phone" v="+39 0171 693968"/>
    <tag k="website" v="https://www.relaiscubaonline.com/"/>
  </node>
  <node id="6171914517" lat="44.3867627" lon="7.5436169">
    <tag k="addr:housenumber" v="33"/>
    <tag k="addr:street" v="Corso Dante Alighieri"/>
    <tag k="contact:email" v="cuneo@coopcolibri.it"/>
    <tag k="contact:phone" v="+39 0171 634819"/>
    <tag k="delivery:covid19" v="yes"/>
    <tag k="fair_trade" v="only"/>
    <tag k="name" v="Colibrì Altromercato"/>
    <tag k="shop" v="convenience"/>
  </node>
  <node id="6173030841" lat="44.3837392" lon="7.5408969">
    <tag k="addr:housenumber" v="18"/>
    <tag k="addr:street" v="Piazza Europa"/>
    <tag k="contact:email" v="ladispensaeuropa@libero.it"/>
    <tag k="contact:mobile" v="+39 347 6626913"/>
    <tag k="delivery" v="yes"/>
    <tag k="name" v="La Dispensa"/>
    <tag k="operator" v="La Dispensa di Alessandra e Eleonora Gay S.A.S."/>
    <tag k="shop" v="convenience"/>
  </node>
  <node id="6173030845" lat="44.3838343" lon="7.5409787">
    <tag k="addr:housenumber" v="16"/>
    <tag k="addr:street" v="Piazza Europa"/>
    <tag k="clothes" v="underwear"/>
    <tag k="contact:facebook" v="https://www.facebook.com/bruna.intimomerceria/"/>
    <tag k="delivery" v="yes"/>
    <tag k="name" v="Bruna"/>
    <tag k="shop" v="clothes"/>
  </node>
  <node id="6173050037" lat="44.3852183" lon="7.5417427">
    <tag k="addr:housenumber" v="10"/>
    <tag k="addr:street" v="Corso Giovanni Giolitti"/>
    <tag k="delivery" v="yes"/>
    <tag k="email" v="nettarecuneo@gmail.com"/>
    <tag k="name" v="Il Nettare"/>
    <tag k="phone" v="+39 334 7290501"/>
    <tag k="shop" v="herbalist"/>
  </node>
  <node id="6173168601" lat="44.3870001" lon="7.5443822">
    <tag k="addr:housenumber" v="5"/>
    <tag k="addr:street" v="Via Felice Cavallotti"/>
    <tag k="contact:phone" v="+39 0171 681458"/>
    <tag k="delivery:covid19" v="yes"/>
    <tag k="name" v="Stella Maris"/>
    <tag k="shop" v="books"/>
  </node>
  <node id="6174999048" lat="44.3993545" lon="7.5326852">
    <tag k="addr:housenumber" v="31"/>
    <tag k="addr:street" v="Via del Passatore"/>
    <tag k="delivery" v="yes"/>
    <tag k="name" v="Mi &amp; Ti"/>
    <tag k="phone" v="+39 0171 1988038"/>
    <tag k="shop" v="convenience"/>
  </node>
  <node id="6185578857" lat="44.3848702" lon="7.5423439">
    <tag k="addr:housenumber" v="4"/>
    <tag k="addr:street" v="Corso Giovanni Giolitti"/>
    <tag k="contact:email" v="monasterolo.giuseppe@alice.it"/>
    <tag k="contact:mobile" v="+39 334 1806699"/>
    <tag k="delivery:covid19" v="yes"/>
    <tag k="name" v="Naturamica di Monasterolo"/>
    <tag k="shop" v="greengrocer"/>
  </node>
  <node id="6187982140" lat="44.3917432" lon="7.5497818">
    <tag k="addr:housenumber" v="56"/>
    <tag k="addr:street" v="Via Roma"/>
    <tag k="delivery" v="yes"/>
    <tag k="description" v="Consegna su Cuneo e frazioni."/>
    <tag k="email" v="calcagno.cn@gmail.com"/>
    <tag k="name" v="Calcagno"/>
    <tag k="payment:cash" v="yes"/>
    <tag k="payment:satispay" v="yes"/>
    <tag k="phone" v="+39 0171 692576"/>
    <tag k="shop" v="stationery"/>
  </node>
  <node id="6187982144" lat="44.3917158" lon="7.5497555">
    <tag k="addr:housenumber" v="56"/>
    <tag k="addr:street" v="Via Roma"/>
    <tag k="delivery" v="yes"/>
    <tag k="email" v="robistazio@gmail.com"/>
    <tag k="name" v="L'Erbolario"/>
    <tag k="operator" v="Stazio Roberto"/>
    <tag k="phone" v="+39 338 6191709"/>
    <tag k="shop" v="herbalist"/>
  </node>
  <node id="6188019826" lat="44.3884003" lon="7.5460188">
    <tag k="addr:housenumber" v="4"/>
    <tag k="addr:street" v="Via Vittorio Amedeo Secondo"/>
    <tag k="contact:email" v="acciderba2.0@gmail.com"/>
    <tag k="contact:mobile" v="+39 348 5337935"/>
    <tag k="contact:phone" v="+39 0171 692720"/>
    <tag k="delivery:covid19" v="yes"/>
    <tag k="name" v="Acciderba"/>
    <tag k="shop" v="florist"/>
  </node>
  <node id="6188040642" lat="44.3877159" lon="7.5453774">
    <tag k="addr:housenumber" v="2"/>
    <tag k="addr:street" v="Via Ventotto Aprile"/>
    <tag k="cafe" v="yes"/>
    <tag k="contact:facebook" v="https://www.facebook.com/Piaceri-Al-Cubo-Cuneo--1828597450804418/"/>
    <tag k="contact:mobile" v="+39 338 2024866;+39 339 6162608"/>
    <tag k="delivery:covid19" v="yes"/>
    <tag k="name" v="Piaceri al cubo"/>
    <tag k="shop" v="pastry"/>
  </node>
  <node id="6188040643" lat="44.3878666" lon="7.5450764">
    <tag k="addr:housenumber" v="6"/>
    <tag k="addr:street" v="Via Ventotto Aprile"/>
    <tag k="amenity" v="cafe"/>
    <tag k="contact:email" v="elisabetta.prezia@virgilio.it"/>
    <tag k="contact:mobile" v="+39 392 2836557"/>
    <tag k="delivery:covid19" v="yes"/>
    <tag k="name" v="Il mondo del caffè"/>
  </node>
  <node id="6201523711" lat="44.3910114" lon="7.5489401">
    <tag k="addr:housenumber" v="4"/>
    <tag k="addr:street" v="Vicolo Cattedrale"/>
    <tag k="amenity" v="pub"/>
    <tag k="contact:facebook" v="https://www.facebook.com/InfernottoYumPub/"/>
    <tag k="contact:instagram" v="https://www.instagram.com/infernotto_yum_pub/"/>
    <tag k="cuisine" v="pizza"/>
    <tag k="delivery" v="yes"/>
    <tag k="name" v="Infernotto"/>
    <tag k="opening_hours" v="Mo-Tu,Th-Sa 11:30-15:00,18:00-24:00; Su 11:00-14:00,18:00-24:00"/>
    <tag k="operator" v="Infernotto S.A.S."/>
    <tag k="outdoor_seating" v="yes"/>
    <tag k="oven" v="no"/>
    <tag k="phone:mobile" v="+39 339 5865036"/>
    <tag k="ref:vatin" v="IT03773800044"/>
    <tag k="website" v="https://infernotto.pub"/>
  </node>
  <node id="6220848366" lat="44.3912151" lon="7.5497127">
    <tag k="addr:housenumber" v="43"/>
    <tag k="addr:street" v="Via Roma"/>
    <tag k="contact:email" v="info@panicuneo.it"/>
    <tag k="contact:mobile" v="+39 329 1480432"/>
    <tag k="contact:phone" v="+39 0171 690946"/>
    <tag k="delivery:covid19" v="yes"/>
    <tag k="name" v="Pani"/>
    <tag k="shop" v="stationery"/>
  </node>
  <node id="6237748355" lat="44.3851815" lon="7.5423504">
    <tag k="addr:housenumber" v="43"/>
    <tag k="addr:street" v="Via Carlo Emanuele Terzo"/>
    <tag k="delivery" v="yes"/>
    <tag k="email" v="info@chantillycuneo.it"/>
    <tag k="name" v="Chantilly"/>
    <tag k="phone" v="+39 392 174 5923"/>
    <tag k="ref:vatin" v="IT03690900042"/>
    <tag k="shop" v="pastry"/>
    <tag k="website" v="https://www.chantillycuneo.it/"/>
  </node>
  <node id="6239738308" lat="44.3920679" lon="7.5505218">
    <tag k="addr:housenumber" v="35"/>
    <tag k="addr:street" v="Via Roma"/>
    <tag k="contact:email" v="info@mammaorsacuneo.it"/>
    <tag k="contact:facebook" v="https://www.facebook.com/MammaOrsaCuneo/"/>
    <tag k="contact:phone" v="+39 0171 693490"/>
    <tag k="delivery" v="yes"/>
    <tag k="description" v="Consegna gratuita dai 19,90€, nel raggio di 30 km da Cuneo. Cuneo in giornata; Fuori Cuneo entro 48 ore."/>
    <tag k="name" v="Mamma orsa"/>
    <tag k="payment:cash" v="yes"/>
    <tag k="payment:satispay" v="yes"/>
    <tag k="payment:wire_transfer" v="yes"/>
    <tag k="shop" v="baby_goods"/>
  </node>
  <node id="6269281646" lat="44.3924514" lon="7.5508951">
    <tag k="addr:housenumber" v="29b"/>
    <tag k="addr:street" v="Via Roma"/>
    <tag k="butcher" v="poultry"/>
    <tag k="delivery" v="yes"/>
    <tag k="email" v="robertagiraudo92@virgilio.it"/>
    <tag k="name" v="Polleria Baudino"/>
    <tag k="operator" v="Giraudo Sergio"/>
    <tag k="phone" v="+39 0171 693568"/>
    <tag k="shop" v="butcher"/>
  </node>
  <node id="6269281647" lat="44.3926938" lon="7.5511563">
    <tag k="addr:housenumber" v="25"/>
    <tag k="addr:street" v="Via Roma"/>
    <tag k="delivery" v="yes"/>
    <tag k="description" v="Abbigliamento 8-18 anni"/>
    <tag k="email" v="puntoevirgola1@gmail.com"/>
    <tag k="name" v="Fashion Punto e Virgola"/>
    <tag k="phone" v="+39 0171 1723046"/>
    <tag k="shop" v="clothes"/>
  </node>
  <node id="6269298460" lat="44.3924945" lon="7.5505950">
    <tag k="addr:housenumber" v="40"/>
    <tag k="addr:street" v="Via Roma"/>
    <tag k="delivery" v="yes"/>
    <tag k="email" v="ortopediazaccone@libero.it"/>
    <tag k="medical_supply" v="orthopedic"/>
    <tag k="name" v="Ortopedia Zaccone"/>
    <tag k="phone" v="+39 0171 681412"/>
    <tag k="shop" v="medical_supply"/>
  </node>
  <node id="6269298461" lat="44.3923761" lon="7.5504474">
    <tag k="addr:housenumber" v="42"/>
    <tag k="addr:street" v="Via Roma"/>
    <tag k="delivery" v="yes"/>
    <tag k="email" v="pastafrescagrosso@gmail.com"/>
    <tag k="name" v="Grosso Pasta Fresca"/>
    <tag k="operator" v="Grosso Massimo"/>
    <tag k="phone" v="+39 0171 603722"/>
    <tag k="shop" v="pasta"/>
  </node>
  <node id="6282548560" lat="44.3943042" lon="7.5526417">
    <tag k="addr:housenumber" v="14"/>
    <tag k="addr:street" v="Via Roma"/>
    <tag k="amenity" v="restaurant"/>
    <tag k="contact:mobile" v="+39 320 0375046"/>
    <tag k="contact:phone" v="+39 0171 791007"/>
    <tag k="cuisine" v="italian"/>
    <tag k="delivery:covid19" v="yes"/>
    <tag k="name" v="Trattoria Roma"/>
    <tag k="operator" v="Trattoria Roma di Brizio Annalisa"/>
  </node>
  <node id="6290787051" lat="44.3756062" lon="7.5331994">
    <tag k="addr:housenumber" v="12"/>
    <tag k="addr:street" v="Corso Francia"/>
    <tag k="delivery" v="yes"/>
    <tag k="email" v="cuneo@fattoriebovingrana.com"/>
    <tag k="name" v="Macelleria Fattorie Bovin Grana"/>
    <tag k="phone" v="+39 0171 500447"/>
    <tag k="shop" v="butcher"/>
    <tag k="website" v="http://www.fattoriebovingrana.com"/>
  </node>
  <node id="6298798509" lat="44.3869182" lon="7.5445247">
    <tag k="amenity" v="restaurant"/>
    <tag k="cuisine" v="pizza"/>
    <tag k="delivery" v="yes"/>
    <tag k="name" v="Pizza Flash"/>
    <tag k="phone" v="+39 0171 630775"/>
  </node>
  <node id="6305822228" lat="44.4940793" lon="7.5423110">
    <tag k="addr:city" v="Tarantasca"/>
    <tag k="addr:housenumber" v="9"/>
    <tag k="addr:postcode" v="12020"/>
    <tag k="addr:street" v="Via Luigi Pirandello"/>
    <tag k="delivery" v="yes"/>
    <tag k="name" v="Le delizie di Albi - Alimentari"/>
    <tag k="phone" v="+39 342 1251277"/>
    <tag k="shop" v="convenience"/>
  </node>
  <node id="6327487199" lat="44.3881553" lon="7.5450616">
    <tag k="delivery" v="yes"/>
    <tag k="name" v="Pescheria Costa Azzurra"/>
    <tag k="shop" v="seafood"/>
  </node>
  <node id="6327521793" lat="44.3871804" lon="7.5440381">
    <tag k="addr:housenumber" v="7"/>
    <tag k="addr:street" v="Via Felice Cavallotti"/>
    <tag k="contact:email" v="incasa.pam@libero.it"/>
    <tag k="contact:mobile" v="+39 392 1425853"/>
    <tag k="delivery:covid19" v="yes"/>
    <tag k="name" v="In Casa &amp; Pam"/>
    <tag k="shop" v="houseware"/>
  </node>
  <node id="6327521794" lat="44.3867498" lon="7.5439233">
    <tag k="addr:housenumber" v="29"/>
    <tag k="addr:street" v="Via Carlo Emanuele Terzo"/>
    <tag k="clothes" v="underwear"/>
    <tag k="contact:email" v="carlotta.bruno71@gmail.com"/>
    <tag k="contact:mobile" v="+39 338 4582569"/>
    <tag k="delivery:covid19" v="yes"/>
    <tag k="name" v="Lingerie Charlotte"/>
    <tag k="shop" v="clothes"/>
  </node>
  <node id="6327521798" lat="44.3869163" lon="7.5441046">
    <tag k="addr:housenumber" v="25"/>
    <tag k="addr:street" v="Via Carlo Emanuele Terzo"/>
    <tag k="clothes" v="children"/>
    <tag k="contact:email" v="minimecuneo@gmail.com"/>
    <tag k="contact:mobile" v="+39 328 2154877"/>
    <tag k="delivery:covid19" v="yes"/>
    <tag k="description" v="Abbigliamento bambini 2/16 anni"/>
    <tag k="name" v="Minimé"/>
    <tag k="shop" v="clothes"/>
  </node>
  <node id="6327521799" lat="44.3868565" lon="7.5440384">
    <tag k="addr:housenumber" v="27"/>
    <tag k="addr:street" v="Via Carlo Emanuele Terzo"/>
    <tag k="clothes" v="children"/>
    <tag k="contact:email" v="naturalmente-mamma@libero.it"/>
    <tag k="contact:instagram" v="https://www.instagram.com/naturalmente_mammacuneo/"/>
    <tag k="contact:mobile" v="+39 328 8593094"/>
    <tag k="delivery:covid19" v="yes"/>
    <tag k="description" v="Abbigliamento 0-16"/>
    <tag k="name" v="Naturalmente Mamma"/>
    <tag k="operator" v="Naturalmente Mamma di Atena Società Cooperativa"/>
    <tag k="shop" v="clothes"/>
  </node>
  <node id="6328512680" lat="44.3929528" lon="7.5469005">
    <tag k="addr:housenumber" v="20"/>
    <tag k="addr:street" v="Via Caraglio"/>
    <tag k="contact:email" v="faro.copisteria@gmail.com"/>
    <tag k="contact:mobile" v="+39 346 3571576"/>
    <tag k="delivery:covid19" v="yes"/>
    <tag k="name" v="Faro Copisteria"/>
    <tag k="shop" v="copyshop"/>
  </node>
  <node id="6342617252" lat="44.3887965" lon="7.5502015">
    <tag k="addr:housenumber" v="15bis"/>
    <tag k="addr:street" v="Lungogesso Papa Giovanni Ventitreesimo"/>
    <tag k="delivery" v="yes"/>
    <tag k="medical_supply" v="orthopedic"/>
    <tag k="name" v="Ortopedia I.T.O.S."/>
    <tag k="shop" v="medical_supply"/>
    <tag k="website" v="https://www.itoscuneo.com/"/>
  </node>
  <node id="6342641186" lat="44.3904384" lon="7.5500289">
    <tag k="addr:housenumber" v="6"/>
    <tag k="addr:street" v="Piazza Boves"/>
    <tag k="delivery" v="yes"/>
    <tag k="name" v="La cantinetta"/>
    <tag k="shop" v="wine"/>
  </node>
  <node id="6358397064" lat="44.3861275" lon="7.5389712">
    <tag k="addr:housenumber" v="25"/>
    <tag k="addr:street" v="Corso Giovanni Giolitti"/>
    <tag k="delivery" v="yes"/>
    <tag k="name" v="Il fornaio"/>
    <tag k="operator" v="Buccaresi Enrico"/>
    <tag k="phone" v="+39 0171 692432"/>
    <tag k="shop" v="bakery"/>
  </node>
  <node id="6358483961" lat="44.3857052" lon="7.5420549">
    <tag k="amenity" v="cafe"/>
    <tag k="delivery" v="yes"/>
    <tag k="name" v="La coccinella"/>
    <tag k="phone" v="+39 339 2429445"/>
  </node>
  <node id="6360785558" lat="44.3807256" lon="7.5401910">
    <tag k="delivery" v="yes"/>
    <tag k="name" v="Arcobaleno di frutta"/>
    <tag k="phone" v="+39 392 5903163"/>
    <tag k="shop" v="greengrocer"/>
  </node>
  <node id="6372022531" lat="44.3892041" lon="7.5499488">
    <tag k="addr:housenumber" v="53"/>
    <tag k="addr:street" v="Via Alba"/>
    <tag k="amenity" v="fast_food"/>
    <tag k="contact:phone" v="+39 0171 332666"/>
    <tag k="cuisine" v="pizza"/>
    <tag k="delivery:covid19" v="yes"/>
    <tag k="name" v="Facrok"/>
    <tag k="oven" v="electric"/>
  </node>
  <node id="6373575518" lat="44.3863410" lon="7.5395002">
    <tag k="addr:housenumber" v="26"/>
    <tag k="addr:street" v="Corso Giovanni Giolitti"/>
    <tag k="clothes" v="children"/>
    <tag k="contact:email" v="sarabanda.cn@libero.it"/>
    <tag k="contact:mobile" v="+39 392 6166897"/>
    <tag k="delivery:covid19" v="yes"/>
    <tag k="description" v="Abbigliamento 0-16"/>
    <tag k="name" v="Sarabanda"/>
    <tag k="shop" v="clothes"/>
  </node>
  <node id="6417432077" lat="44.3871817" lon="7.5409464">
    <tag k="addr:housenumber" v="25"/>
    <tag k="addr:street" v="Via Antonio Bassignano"/>
    <tag k="contact:mobile" v="+39 339 3590191"/>
    <tag k="contact:phone" v="+39 0171 681977"/>
    <tag k="delivery:covid19" v="yes"/>
    <tag k="description" v="Ricambi elettrodomestici e attrezzature per la riparazione delle celle frigorifere"/>
    <tag k="name" v="Scaletta"/>
    <tag k="operator" v="Scaletta Ricambi S.N.C."/>
    <tag k="shop" v="electronics"/>
  </node>
  <node id="6418919225" lat="44.3923483" lon="7.5515475">
    <tag k="addr:housenumber" v="6"/>
    <tag k="addr:street" v="Via Mondovì"/>
    <tag k="contact:email" v="valentinafreda@libero.it"/>
    <tag k="contact:facebook" v="https://www.facebook.com/BANTIENVALE/"/>
    <tag k="contact:mobile" v="+39 349 311841"/>
    <tag k="delivery:covid19" v="yes"/>
    <tag k="name" v="Ban Tien"/>
    <tag k="shop" v="clothes"/>
  </node>
  <node id="6418937919" lat="44.3923190" lon="7.5523919">
    <tag k="addr:housenumber" v="13"/>
    <tag k="addr:street" v="Via Mondovì"/>
    <tag k="contact:mobile" v="+39 347 7313496"/>
    <tag k="contact:phone" v="+39 0171 070182"/>
    <tag k="delivery" v="yes"/>
    <tag k="name" v="Magnolia"/>
    <tag k="shop" v="perfumery"/>
  </node>
  <node id="6418937920" lat="44.3921416" lon="7.5527258">
    <tag k="addr:housenumber" v="24"/>
    <tag k="addr:street" v="Via Mondovì"/>
    <tag k="contact:mobile" v="+39 328 0341282"/>
    <tag k="delivery:covid19" v="yes"/>
    <tag k="name" v="L'Atelier des Tartes"/>
    <tag k="shop" v="bakery"/>
  </node>
  <node id="6420509034" lat="44.3852092" lon="7.5399560">
    <tag k="addr:city" v="Cuneo"/>
    <tag k="addr:housenumber" v="20"/>
    <tag k="addr:postcode" v="12100"/>
    <tag k="addr:street" v="Via Quintino Sella"/>
    <tag k="delivery" v="yes"/>
    <tag k="email" v="ilverdurivendolo@gmail.com"/>
    <tag k="name" v="Il verdurivendolo"/>
    <tag k="opening_hours" v="Mo,Fr 16:00-19:00; Tu,Th 09:30-13:00,16:00-19:00; Sa 09:30-12:30"/>
    <tag k="phone" v="+39 340 7771191"/>
    <tag k="ref:vatin" v="IT03152790048"/>
    <tag k="shop" v="greengrocer"/>
    <tag k="website" v="http://www.ilverdurivendolo.it/home-page/"/>
  </node>
  <node id="6420525774" lat="44.3834075" lon="7.5380787">
    <tag k="addr:housenumber" v="38"/>
    <tag k="addr:street" v="Via Quintino Sella"/>
    <tag k="contact:email" v="info@fuoritempo.net"/>
    <tag k="contact:phone" v="+39 0171 697109"/>
    <tag k="contact:website" v="http://www.fuoritempo.net"/>
    <tag k="delivery:covid19" v="yes"/>
    <tag k="name" v="Fuoritempo"/>
    <tag k="shop" v="musical_instrument"/>
  </node>
  <node id="6433717642" lat="44.3882180" lon="7.5378782">
    <tag k="addr:city" v="Cuneo"/>
    <tag k="addr:housenumber" v="38"/>
    <tag k="addr:postcode" v="12100"/>
    <tag k="addr:street" v="Via Sebastiano Grandis"/>
    <tag k="amenity" v="cafe"/>
    <tag k="bar" v="yes"/>
    <tag k="contact:mobile" v="+39 393 4106026"/>
    <tag k="contact:phone" v="+39 0171 1988146"/>
    <tag k="cuisine" v="sandwich;italian"/>
    <tag k="delivery:covid19" v="yes"/>
    <tag k="internet_access" v="wlan"/>
    <tag k="name" v="Dotta Caffè"/>
    <tag k="outdoor_seating" v="yes"/>
  </node>
  <node id="6433717643" lat="44.3877362" lon="7.5380134">
    <tag k="delivery" v="yes"/>
    <tag k="name" v="Eco store"/>
    <tag k="phone" v="+39 392 4050480"/>
    <tag k="shop" v="printer_ink"/>
  </node>
  <node id="6466198055" lat="44.3826094" lon="7.5415535">
    <tag k="addr:city" v="Cuneo"/>
    <tag k="addr:housenumber" v="32"/>
    <tag k="addr:postcode" v="12100"/>
    <tag k="addr:street" v="Corso Annibale Santorre di Santarosa"/>
    <tag k="delivery" v="yes"/>
    <tag k="name" v="La bufalina"/>
    <tag k="opening_hours" v="Mo 16:00-19:30; Tu-Fr 09:00-13:00,16:00-19:30; Sa 09:00-13:00"/>
    <tag k="phone" v="+39 320 4682017"/>
    <tag k="shop" v="convenience"/>
    <tag k="website" v="http://labufalinacuneo.altervista.org"/>
  </node>
  <node id="6468199496" lat="44.3882794" lon="7.5443044">
    <tag k="addr:housenumber" v="12"/>
    <tag k="addr:street" v="Via Venti Settembre"/>
    <tag k="amenity" v="restaurant"/>
    <tag k="contact:email" v="maccheriacuneo@gmail.com"/>
    <tag k="contact:mobile" v="+39 392 5776131"/>
    <tag k="contact:phone" v="+39 0171 480211"/>
    <tag k="contact:website" v="http://www.maccheria.it"/>
    <tag k="cuisine" v="pasta"/>
    <tag k="delivery:covid19" v="yes"/>
    <tag k="name" v="Maccherìa"/>
    <tag k="opening_hours" v="12:00-15:00, 19:00-23:00"/>
    <tag k="operator" v="Saluzzo Food s.r.l."/>
    <tag k="ref:vatin" v="IT03707040048"/>
  </node>
  <node id="6482395801" lat="44.3873290" lon="7.5441792">
    <tag k="addr:housenumber" v="6a"/>
    <tag k="addr:street" v="Via Felice Cavallotti"/>
    <tag k="amenity" v="ice_cream"/>
    <tag k="contact:email" v="info@creasrl.it"/>
    <tag k="contact:phone" v="+39 0171 611114"/>
    <tag k="delivery:covid19" v="yes"/>
    <tag k="name" v="Crea"/>
  </node>
  <node id="6499353521" lat="44.3887067" lon="7.5430707">
    <tag k="delivery" v="yes"/>
    <tag k="name" v="Gli Aristogatti"/>
    <tag k="shop" v="pet"/>
  </node>
  <node id="6515136405" lat="44.3941244" lon="7.5475210">
    <tag k="delivery" v="yes"/>
    <tag k="email" v="ortofruttapignatta@gmail.com"/>
    <tag k="name" v="Pignatta Bruno"/>
    <tag k="phone" v="+39 0171 695624"/>
    <tag k="shop" v="greengrocer"/>
  </node>
  <node id="6515989776" lat="44.3793590" lon="7.5310743">
    <tag k="amenity" v="fast_food"/>
    <tag k="cuisine" v="pizza;kebab"/>
    <tag k="delivery" v="yes"/>
    <tag k="delivery:fee" v="yes"/>
    <tag k="email" v="pitali_matteo@yahoo.it"/>
    <tag k="name" v="Crazy pizza"/>
    <tag k="operator" v="Pitali Matteo"/>
    <tag k="phone" v="+39 346 1212656"/>
  </node>
  <node id="6542571364" lat="44.3907850" lon="7.5493473">
    <tag k="addr:housenumber" v="49"/>
    <tag k="addr:street" v="Via Roma"/>
    <tag k="amenity" v="fast_food"/>
    <tag k="contact:email" v="direzione@allapiada.it"/>
    <tag k="contact:mobile" v="+39 334 2421588"/>
    <tag k="contact:website" v="http://www.allapiada.it/"/>
    <tag k="cuisine" v="piadina"/>
    <tag k="delivery" v="yes"/>
    <tag k="name" v="Alla piada"/>
  </node>
  <node id="6542694961" lat="44.3816563" lon="7.5391260">
    <tag k="delivery" v="yes"/>
    <tag k="name" v="L'orto delle delizie"/>
    <tag k="phone" v="+39 347 2621977"/>
    <tag k="shop" v="greengrocer"/>
  </node>
  <node id="6542713175" lat="44.3827452" lon="7.5371071">
    <tag k="addr:housenumber" v="15"/>
    <tag k="addr:street" v="Corso Galileo Ferraris"/>
    <tag k="delivery" v="yes"/>
    <tag k="name" v="Il fornaio di Galfrè"/>
    <tag k="phone" v="+39 0171 603614"/>
    <tag k="shop" v="bakery"/>
  </node>
  <node id="6542713178" lat="44.3829060" lon="7.5367676">
    <tag k="addr:housenumber" v="13"/>
    <tag k="addr:street" v="Corso Galileo Ferraris"/>
    <tag k="contact:email" v="monasterolo.giuseppe@alice.it"/>
    <tag k="contact:mobile" v="+39 334 1806699"/>
    <tag k="delivery:covid19" v="yes"/>
    <tag k="name" v="Naturamica di Monasterolo"/>
    <tag k="shop" v="greengrocer"/>
  </node>
  <node id="6542713181" lat="44.3827064" lon="7.5372139">
    <tag k="addr:housenumber" v="15"/>
    <tag k="addr:street" v="Corso Galileo Ferraris"/>
    <tag k="contact:email" v="bottegachecevo@tiscali.it"/>
    <tag k="contact:mobile" v="+39 320 1798709"/>
    <tag k="delivery:covid19" v="yes"/>
    <tag k="fair_trade" v="only"/>
    <tag k="name" v="Checevò"/>
    <tag k="shop" v="convenience"/>
  </node>
  <node id="6542763916" lat="44.3784965" lon="7.5355383">
    <tag k="addr:housenumber" v="10"/>
    <tag k="addr:street" v="Via Luigi Einaudi"/>
    <tag k="contact:email" v="info@grandamodels.it"/>
    <tag k="contact:mobile" v="+39 320 6449265"/>
    <tag k="contact:website" v="http://www.grandamodels.it"/>
    <tag k="delivery:covid19" v="yes"/>
    <tag k="description" v="Commercio al dettaglio di giochi educativi, giocattoli e articoli di modellismo, computer (hardware e software), unità periferiche, assistenza software"/>
    <tag k="name" v="Granda Models Cuneo"/>
    <tag k="operator" v="G.M.C. S.A.S. di Gallo Franco &amp; C."/>
    <tag k="shop" v="model"/>
  </node>
  <node id="6547627100" lat="44.3808538" lon="7.5407151">
    <tag k="delivery" v="yes"/>
    <tag k="description" v="Vende alimentari freschi e secchi."/>
    <tag k="name" v="La bottega 71"/>
    <tag k="opening_hours" v="Mo-Sa 07:00-13:00,16:00-19:30"/>
    <tag k="phone" v="+39 0171 691004"/>
    <tag k="shop" v="convenience"/>
  </node>
  <node id="6547627107" lat="44.3809534" lon="7.5405130">
    <tag k="addr:housenumber" v="7c"/>
    <tag k="addr:street" v="Corso Vittorio Emanuele Secondo"/>
    <tag k="amenity" v="fast_food"/>
    <tag k="cuisine" v="pizza;hamburger"/>
    <tag k="delivery" v="yes"/>
    <tag k="name" v="Yuppidù Pizza"/>
    <tag k="opening_hours" v="Mo-Su 18:30-23:15"/>
    <tag k="phone" v="+39 0171 631827"/>
    <tag k="website" v="http://yuppidupizza-cuneo.it/"/>
  </node>
  <node id="6547688235" lat="44.3795386" lon="7.5424891">
    <tag k="addr:housenumber" v="12"/>
    <tag k="addr:street" v="Corso Vittorio Emanuele Secondo"/>
    <tag k="delivery" v="yes"/>
    <tag k="operator" v="Garnerone Marco"/>
    <tag k="phone" v="+39 346 6764181"/>
    <tag k="shop" v="bakery"/>
  </node>
  <node id="6549851145" lat="44.3910935" lon="7.5703842">
    <tag k="addr:housenumber" v="50"/>
    <tag k="addr:street" v="Via Savona"/>
    <tag k="amenity" v="bar"/>
    <tag k="contact:mobile" v="+39 347 3176965"/>
    <tag k="contact:phone" v="+39 0171 402666"/>
    <tag k="delivery:covid19" v="yes"/>
    <tag k="name" v="Cit Ma Bel"/>
    <tag k="operator" v="Cit Ma Bel Ettore e Margherita Ristorante"/>
  </node>
  <node id="6565728579" lat="44.3928469" lon="7.5513522">
    <tag k="addr:housenumber" v="23"/>
    <tag k="addr:street" v="Via Roma"/>
    <tag k="contact:email" v="cuneo@101caffe.it"/>
    <tag k="contact:mobile" v="+39 346 6328081"/>
    <tag k="delivery:covid19" v="yes"/>
    <tag k="name" v="101 caffè"/>
    <tag k="shop" v="coffee"/>
  </node>
  <node id="6578445381" lat="44.3935395" lon="7.5491870">
    <tag k="addr:housenumber" v="16"/>
    <tag k="addr:street" v="Via Santa Croce"/>
    <tag k="contact:email" v="ninfeocuneo@gmail.com"/>
    <tag k="contact:mobile" v="+39 391 7655455"/>
    <tag k="delivery" v="yes"/>
    <tag k="name" v="Il ninfeo"/>
    <tag k="shop" v="beauty"/>
  </node>
  <node id="6578471478" lat="44.3917713" lon="7.5488246">
    <tag k="addr:housenumber" v="8"/>
    <tag k="addr:street" v="Via Caraglio"/>
    <tag k="contact:mobile" v="+39 339 1366315;+39 328 0648540"/>
    <tag k="delivery:covid19" v="yes"/>
    <tag k="name" v="Al 37"/>
    <tag k="shop" v="wine"/>
  </node>
  <node id="6578479217" lat="44.3939953" lon="7.5508912">
    <tag k="contact:mobile" v="+39 340 9774923"/>
    <tag k="contact:phone" v="+39 0171 695565"/>
    <tag k="delivery" v="yes"/>
    <tag k="description" v="Consegna gratuita."/>
    <tag k="name" v="Sandra Calzature"/>
    <tag k="shop" v="shoes"/>
  </node>
  <node id="6579153660" lat="44.3664074" lon="7.5237475">
    <tag k="addr:housenumber" v="102"/>
    <tag k="addr:street" v="Corso Francia"/>
    <tag k="amenity" v="pharmacy"/>
    <tag k="delivery" v="yes"/>
    <tag k="dispensing" v="no"/>
    <tag k="email" v="parafarmacia.invernelli@gmail.com"/>
    <tag k="name" v="Parafarmacia Invernelli"/>
    <tag k="operator" v="Parafarmacia Dottor Invernelli Davide"/>
    <tag k="phone" v="+39 0171 492580"/>
    <tag k="ref:msal" v="011293"/>
    <tag k="ref:vatin" v="IT03517880047"/>
  </node>
  <node id="6592936427" lat="44.3936125" lon="7.5490438">
    <tag k="addr:city" v="Cuneo"/>
    <tag k="addr:housenumber" v="3bis"/>
    <tag k="addr:postcode" v="12100"/>
    <tag k="addr:street" v="Via Busca"/>
    <tag k="amenity" v="restaurant"/>
    <tag k="contact:facebook" v="https://www.facebook.com/Ninfoodristorante/"/>
    <tag k="contact:instagram" v="https://www.instagram.com/ninfoodcuneo/"/>
    <tag k="cuisine" v="italian"/>
    <tag k="delivery:covid19" v="yes"/>
    <tag k="description" v="Cucina vegetariana e gluten free creata da materie prime eccellenti e freschissime acquistate giornalmente sul mercato locale."/>
    <tag k="diet:gluten_free" v="yes"/>
    <tag k="diet:vegetarian" v="yes"/>
    <tag k="name" v="Ninføød"/>
    <tag k="opening_hours" v="Mo-Fr 10:00-16:00"/>
    <tag k="organic" v="yes"/>
    <tag k="payment:american_express" v="yes"/>
    <tag k="payment:cash" v="yes"/>
    <tag k="payment:mastercard" v="yes"/>
    <tag k="payment:satispay" v="yes"/>
    <tag k="payment:visa" v="yes"/>
    <tag k="phone:mobile" v="+39 389 1262276"/>
    <tag k="start_date" v="2017-12-01"/>
  </node>
  <node id="6604580115" lat="44.3915630" lon="7.5489145">
    <tag k="addr:housenumber" v="38"/>
    <tag k="addr:street" v="Via Saluzzo"/>
    <tag k="delivery" v="yes"/>
    <tag k="email" v="andrea.giolitti87@gmail.com"/>
    <tag k="name" v="L'angolo del gusto"/>
    <tag k="operator" v="Giolitti Andrea"/>
    <tag k="phone" v="+39 0171 694822"/>
    <tag k="shop" v="convenience"/>
  </node>
  <node id="6604821032" lat="44.3941705" lon="7.5514424">
    <tag k="addr:housenumber" v="9"/>
    <tag k="addr:street" v="Piazza Vincenzo Virginio"/>
    <tag k="contact:instagram" v="https://www.instagram.com/prisma_cuneo/"/>
    <tag k="contact:mobile" v="+39 377 3145630"/>
    <tag k="delivery" v="yes"/>
    <tag k="description" v="Ordini entro le h 12:00 del giorno prima. Consegna in 48h entro le 18:00 in Cuneo."/>
    <tag k="name" v="Prisma"/>
    <tag k="shop" v="pastry"/>
  </node>
  <node id="6611844291" lat="44.3928486" lon="7.5529822">
    <tag k="addr:housenumber" v="6"/>
    <tag k="addr:street" v="Via Armando Diaz"/>
    <tag k="amenity" v="pub"/>
    <tag k="contact:facebook" v="https://www.facebook.com/PerUnaBirra/"/>
    <tag k="contact:mobile" v="+39 338 1111318"/>
    <tag k="contact:phone" v="+39 0171 552131"/>
    <tag k="delivery" v="yes"/>
    <tag k="email" v="yammano@tiscali.it"/>
    <tag k="microbrewery" v="yes"/>
    <tag k="name" v="Per una birra"/>
    <tag k="opening_hours" v="Tu-Sa 16:30-22:00"/>
    <tag k="operator" v="Signori Davide"/>
    <tag k="shop" v="brewing_supplies"/>
  </node>
  <node id="6611933791" lat="44.3927068" lon="7.5498378">
    <tag k="addr:housenumber" v="6"/>
    <tag k="addr:street" v="Via Dronero"/>
    <tag k="amenity" v="restaurant"/>
    <tag k="contact:mobile" v="+39 391 3004405"/>
    <tag k="contact:phone" v="+39 0171 325145"/>
    <tag k="delivery" v="yes"/>
    <tag k="name" v="I 5 sensi"/>
    <tag k="operator" v="Franco Carlevero Diego"/>
  </node>
  <node id="6635193476" lat="44.3926462" lon="7.5510912">
    <tag k="addr:housenumber" v="27"/>
    <tag k="addr:street" v="Via Roma"/>
    <tag k="delivery" v="yes"/>
    <tag k="email" v="dadybooks@libero.it"/>
    <tag k="name" v="Gulliver's"/>
    <tag k="phone" v="+39 329 4199539"/>
    <tag k="shop" v="books"/>
  </node>
  <node id="6673724204" lat="44.3479457" lon="7.5078869">
    <tag k="clothes" v="underwear"/>
    <tag k="delivery" v="yes"/>
    <tag k="name" v="Intimania"/>
    <tag k="shop" v="clothes"/>
  </node>
  <node id="6696708899" lat="44.3818954" lon="7.5414661">
    <tag k="addr:housenumber" v="10a"/>
    <tag k="addr:street" v="Via Antonio Stoppani"/>
    <tag k="delivery" v="yes"/>
    <tag k="description" v="&quot;A CAUSA CRONAVIRUS LE CONSEGNE A DOMICILIO SI EFFETTUERANNO SOLO DOPO AVER FATTO LA SPESA PRESSO IL SUPERMERCATO, NON RIUSCIAMO A PRENDERE ORDINAZIONI TELEFONICHE O VIA MAIL. CI SCUSIAMO PER IL DISSERVIZIO. GRAZIE PER LA COLLABORAZIONE&quot;"/>
    <tag k="name" v="Supermercato Lingua"/>
    <tag k="opening_hours" v="Mo, Tu, Fr-Su 08:10-12:30, 15:30-19:30; We 08:10-12:30, 15:30-19:00; Th 08:10-12:30"/>
    <tag k="phone" v="+39 0171 67397"/>
    <tag k="shop" v="supermarket"/>
    <tag k="website" v="http://www.supermercatolingua.it"/>
  </node>
  <node id="6696715650" lat="44.3821880" lon="7.5408831">
    <tag k="addr:city" v="Cuneo"/>
    <tag k="addr:housenumber" v="2"/>
    <tag k="addr:postcode" v="12100"/>
    <tag k="addr:street" v="Via Antonio Stoppani"/>
    <tag k="contact:mobile" v="+39 335 7067241"/>
    <tag k="delivery:covid19" v="yes"/>
    <tag k="name" v="Bioprofumeria - Bio e Vegan"/>
    <tag k="opening_hours" v="Mo 15:30-19:30; Tu-Sa 09:00-12:30,15:30-19:30"/>
    <tag k="operator" v="Bio e Vegan di Mikulska Malgorzata Dorota"/>
    <tag k="ref:vatin" v="IT03605590045"/>
    <tag k="shop" v="perfumery"/>
  </node>
  <node id="6696896931" lat="44.3757274" lon="7.5202864">
    <tag k="addr:housenumber" v="46"/>
    <tag k="addr:street" v="Via Cascina Colombaro"/>
    <tag k="delivery" v="yes"/>
    <tag k="email" v="info@doggypop.com"/>
    <tag k="name" v="Doggy pop"/>
    <tag k="opening_hours" v="Mo-Sa 09:00-12:30,15:00-19:30"/>
    <tag k="operator" v="S.S.I. srl"/>
    <tag k="phone" v="+39 0171 601465"/>
    <tag k="ref:vatin" v="IT02989150046"/>
    <tag k="shop" v="pet"/>
    <tag k="website" v="https://doggypop.com/"/>
  </node>
  <node id="6741665122" lat="44.3895004" lon="7.5614479">
    <tag k="addr:city" v="Borgo San Giuseppe"/>
    <tag k="addr:housenumber" v="14f"/>
    <tag k="addr:postcode" v="12100"/>
    <tag k="addr:street" v="Via Bisalta"/>
    <tag k="delivery" v="yes"/>
    <tag k="name" v="Agrimacelleria, Macelleria Ghibaudo"/>
    <tag k="opening_hours" v="Tu-Sa 08:15-13:00,16:00-19:30"/>
    <tag k="phone" v="+39 0171 401266"/>
    <tag k="shop" v="butcher"/>
  </node>
  <node id="6741665126" lat="44.3891404" lon="7.5613945">
    <tag k="addr:city" v="Borgo San Giuseppe"/>
    <tag k="addr:housenumber" v="17"/>
    <tag k="addr:postcode" v="12100"/>
    <tag k="addr:street" v="Via Bisalta"/>
    <tag k="delivery" v="yes"/>
    <tag k="name" v="La Bottega Simply"/>
    <tag k="opening_hours" v="Mo-Sa 08:00-12:50,16:00-19:30"/>
    <tag k="phone" v="+39 0171 346333"/>
    <tag k="shop" v="convenience"/>
  </node>
  <node id="6741749289" lat="44.3900507" lon="7.5618159">
    <tag k="addr:housenumber" v="8"/>
    <tag k="addr:street" v="Via Bisalta"/>
    <tag k="amenity" v="restaurant"/>
    <tag k="contact:email" v="gianniromeo65@gmail.com"/>
    <tag k="contact:mobile" v="+39 340 8480560"/>
    <tag k="contact:phone" v="+39 0171 403000"/>
    <tag k="cuisine" v="pizza"/>
    <tag k="delivery:covid19" v="yes"/>
    <tag k="name" v="Pizzeria Mariposa"/>
  </node>
  <node id="6741749290" lat="44.3902972" lon="7.5623854">
    <tag k="addr:housenumber" v="7"/>
    <tag k="addr:street" v="Via Bisalta"/>
    <tag k="delivery" v="yes"/>
    <tag k="name" v="Azienda agricola &quot;Il sogno&quot;"/>
    <tag k="phone" v="+39 0171 401763"/>
    <tag k="shop" v="greengrocer"/>
  </node>
  <node id="6760296292" lat="44.4155173" lon="7.4292087">
    <tag k="addr:city" v="Caraglio"/>
    <tag k="addr:housenumber" v="36"/>
    <tag k="addr:postcode" v="12023"/>
    <tag k="addr:street" v="Via Bernezzo"/>
    <tag k="delivery" v="yes"/>
    <tag k="name" v="Tuttanatura Fiori e Piante"/>
    <tag k="opening_hours" v="Mo-Sa 08:30-12:30, 15:30-20:00"/>
    <tag k="phone:mobile" v="+39 348 5919192"/>
    <tag k="shop" v="garden_centre"/>
  </node>
  <node id="6797025856" lat="44.4125306" lon="7.5465168">
    <tag k="addr:housenumber" v="29"/>
    <tag k="addr:street" v="Via della Battaglia"/>
    <tag k="brand" v="Punto Simply"/>
    <tag k="delivery" v="yes"/>
    <tag k="email" v="margherita.cuneo@yahoo.it"/>
    <tag k="name" v="Punto Simply"/>
    <tag k="operator" v="Maccario di Tomatis Giovanna"/>
    <tag k="phone" v="+39 0171 411571"/>
    <tag k="phone:mobile" v="+39 349 7393799"/>
    <tag k="shop" v="supermarket"/>
  </node>
  <node id="6814084330" lat="44.3919955" lon="7.5476990">
    <tag k="addr:housenumber" v="1"/>
    <tag k="addr:street" v="Piazza Foro Boario"/>
    <tag k="delivery" v="yes"/>
    <tag k="name" v="La bottega dei sapori"/>
    <tag k="operator" v="La bottega dei sapori di Melillo Michela"/>
    <tag k="phone" v="+39 345 9925106"/>
    <tag k="ref:vatin" v="IT03766680049"/>
    <tag k="shop" v="deli"/>
  </node>
  <node id="6832217141" lat="44.4123770" lon="7.5496198">
    <tag k="addr:housenumber" v="11"/>
    <tag k="addr:street" v="Via della Battaglia"/>
    <tag k="clothes" v="babies;underwear"/>
    <tag k="contact:mobile" v="+39 331 2353633;+39 333 8940999"/>
    <tag k="delivery:covid19" v="yes"/>
    <tag k="name" v="Merceria Mellano"/>
    <tag k="operator" v="Mellano snc di Mellano Giancarla e Mariagrazia"/>
    <tag k="shop" v="clothes"/>
  </node>
  <node id="6832293603" lat="44.4131859" lon="7.5505367">
    <tag k="delivery" v="yes"/>
    <tag k="name" v="Clorofilla"/>
    <tag k="phone" v="+39 349 1360179"/>
    <tag k="shop" v="florist"/>
  </node>
  <node id="6835198168" lat="44.3975004" lon="7.4801447">
    <tag k="addr:housenumber" v="2"/>
    <tag k="addr:street" v="Via Valle Grana"/>
    <tag k="delivery" v="yes"/>
    <tag k="name" v="Caffetteria Pasticceria Musso"/>
    <tag k="operator" v="Pasticceria Musso di Musso Francesco"/>
    <tag k="outdoor_seating" v="yes"/>
    <tag k="phone" v="+39 0171 300448"/>
    <tag k="ref:vatin" v="IT03463350045"/>
    <tag k="shop" v="pastry"/>
  </node>
  <node id="6854314007" lat="44.3795136" lon="7.5297222">
    <tag k="addr:city" v="Cuneo"/>
    <tag k="addr:housenumber" v="21"/>
    <tag k="addr:postcode" v="12100"/>
    <tag k="addr:street" v="Corso Alcide De Gasperi"/>
    <tag k="delivery" v="yes"/>
    <tag k="name" v="Nutrimind"/>
    <tag k="opening_hours" v="Mo 14:00-19:00; Tu-Sa 10:00-19:00"/>
    <tag k="phone" v="+39 320 6017904"/>
    <tag k="shop" v="nutrition_supplements"/>
  </node>
  <node id="6854806232" lat="44.3733010" lon="7.5336947">
    <tag k="contact:facebook" v="https://www.facebook.com/dogservice.petstore/"/>
    <tag k="delivery" v="yes"/>
    <tag k="description" v="Consegna in Cuneo e limitrofi."/>
    <tag k="name" v="Dogservice agricentro"/>
    <tag k="phone" v="+39 0171 493366"/>
    <tag k="shop" v="pet"/>
  </node>
  <node id="6854839164" lat="44.3754078" lon="7.5330409">
    <tag k="addr:housenumber" v="14a"/>
    <tag k="addr:street" v="Corso Francia"/>
    <tag k="delivery" v="yes"/>
    <tag k="email" v="ortopediapegaso@libero.it"/>
    <tag k="medical_supply" v="orthopedic"/>
    <tag k="name" v="Ortopedia Pegaso"/>
    <tag k="operator" v="Ortopedia Pegaso Snc"/>
    <tag k="phone" v="+39 0171 480640"/>
    <tag k="shop" v="medical_supply"/>
  </node>
  <node id="6855588409" lat="44.3659629" lon="7.5233632">
    <tag k="delivery" v="yes"/>
    <tag k="name" v="Franchino"/>
    <tag k="outdoor_seating" v="yes"/>
    <tag k="phone" v="+39  0171 491345"/>
    <tag k="shop" v="pastry"/>
  </node>
  <node id="6872671494" lat="44.3874961" lon="7.5408009">
    <tag k="addr:housenumber" v="1"/>
    <tag k="addr:street" v="Via Silvio Pellico"/>
    <tag k="contact:email" v="info@bottegaludica.it"/>
    <tag k="contact:facebook" v="https://www.facebook.com/BottegaLudica/"/>
    <tag k="contact:mobile" v="+39 347 9646610"/>
    <tag k="delivery:covid19" v="yes"/>
    <tag k="name" v="Bottega Ludica"/>
    <tag k="opening_hours" v="Tu 08:30-13:00; Mo-Sa 15:30-20:00; Sa 10:00-13:00"/>
    <tag k="shop" v="toys"/>
  </node>
  <node id="6895003185" lat="44.4169038" lon="7.4261698">
    <tag k="addr:housenumber" v="11"/>
    <tag k="addr:street" v="Via Roma"/>
    <tag k="contact:facebook" v="https://www.facebook.com/libreria.passpartout/"/>
    <tag k="delivery" v="yes"/>
    <tag k="email" v="passpartout.caraglio@libero.it"/>
    <tag k="name" v="Libreria Passpartout"/>
    <tag k="opening_hours" v="Mo-Sa 09:30-12:30,16:00-19:30; Su 09:30-19:30"/>
    <tag k="phone:mobile" v="+39 320 1848224"/>
    <tag k="shop" v="books"/>
  </node>
  <node id="6971479405" lat="44.4189430" lon="7.4319017">
    <tag k="addr:city" v="Caraglio"/>
    <tag k="addr:housenumber" v="203"/>
    <tag k="addr:postcode" v="12023"/>
    <tag k="addr:street" v="Via Roma"/>
    <tag k="amenity" v="fast_food"/>
    <tag k="cuisine" v="burger;kebab;pizza"/>
    <tag k="delivery" v="yes"/>
    <tag k="name" v="Europizza 2"/>
    <tag k="opening_hours" v="Tu-Su 11:30-14:30,17:00-23:30"/>
    <tag k="payment:american_express" v="yes"/>
    <tag k="payment:cash" v="yes"/>
    <tag k="payment:mastercard" v="yes"/>
    <tag k="payment:visa" v="yes"/>
    <tag k="phone" v="+39 0171 619410"/>
  </node>
  <node id="7009189985" lat="44.4180132" lon="7.4301378">
    <tag k="addr:city" v="Caraglio"/>
    <tag k="addr:housenumber" v="153"/>
    <tag k="addr:postcode" v="12023"/>
    <tag k="addr:street" v="Via Roma"/>
    <tag k="delivery" v="yes"/>
    <tag k="name" v="Tabaccheria Mo.Ni.Ca."/>
    <tag k="opening_hours" v="Mo-Sa 07:30-12:30,14:00-19:30"/>
    <tag k="payment:cash" v="yes"/>
    <tag k="payment:satispay" v="yes"/>
    <tag k="phone" v="+39 0171 619409"/>
    <tag k="phone:mobile" v="+39 345 9223238"/>
    <tag k="shop" v="tobacco"/>
  </node>
  <node id="7014343877" lat="44.6469064" lon="7.6566679">
    <tag k="addr:housenumber" v="9"/>
    <tag k="addr:street" v="Piazza Cesare Battisti"/>
    <tag k="amenity" v="restaurant"/>
    <tag k="contact:mobile" v="+39 329 8267502"/>
    <tag k="contact:phone" v="+39 0172 726924"/>
    <tag k="cuisine" v="pizza"/>
    <tag k="delivery:covid19" v="yes"/>
    <tag k="fax" v="+39 0172 726 924"/>
    <tag k="name" v="Pizzeria Bucefalo"/>
  </node>
  <node id="7015863355" lat="44.4184000" lon="7.4302023">
    <tag k="addr:city" v="Caraglio"/>
    <tag k="addr:housenumber" v="7"/>
    <tag k="addr:postcode" v="12023"/>
    <tag k="addr:street" v="Piazza Garibaldi"/>
    <tag k="clothes" v="children"/>
    <tag k="contact:facebook" v="https://www.facebook.com/PuntoeVirgolaCaraglio/"/>
    <tag k="delivery" v="yes"/>
    <tag k="description" v="Nato per soddisfare le esigenze dei più piccoli dalla prima infanzia e abitini fino ai 7 anni. Con il tempo è cresciuto con abbigliamento fino ai 18 anni!"/>
    <tag k="name" v="Punto e Virgola"/>
    <tag k="opening_hours" v="Tu-Sa 09:00-12:30,15:30-19:30; Su 09:00-12:30"/>
    <tag k="payment:cash" v="yes"/>
    <tag k="payment:credit_cards" v="yes"/>
    <tag k="phone" v="+39 0171 619709"/>
    <tag k="phone:mobile" v="+39 338 6970816"/>
    <tag k="shop" v="clothes"/>
  </node>
  <node id="7023698875" lat="44.3991963" lon="7.5716051">
    <tag k="addr:housenumber" v="4"/>
    <tag k="addr:street" v="Via Tetto dell'Ola"/>
    <tag k="delivery" v="yes"/>
    <tag k="email" v="brignonemarco@gmail.com"/>
    <tag k="name" v="Macelleria Fratelli Brignone"/>
    <tag k="operator" v="Macelleria Fratelli Brignone Snc"/>
    <tag k="phone" v="+39 0171 401376"/>
    <tag k="shop" v="butcher"/>
  </node>
  <node id="7025530252" lat="44.4183491" lon="7.4310147">
    <tag k="addr:housenumber" v="171"/>
    <tag k="addr:street" v="Via Roma"/>
    <tag k="contact:facebook" v="https://www.facebook.com/dalmassoelettrodomestici.it/"/>
    <tag k="delivery" v="yes"/>
    <tag k="email" v="dalmasso_caraglio@yahoo.it"/>
    <tag k="name" v="Dalmasso Elettrodomestici"/>
    <tag k="opening_hours" v="Tu-Sa 08:00-12:30,15:30-19:30; Su 09:00-12:30"/>
    <tag k="phone" v="+39 0171 618461"/>
    <tag k="phone:mobile" v="+39 380 4535104"/>
    <tag k="shop" v="electronics"/>
  </node>
  <node id="7025976966" lat="44.4179817" lon="7.4280970">
    <tag k="contact:facebook" v="https://www.facebook.com/bioetik.vallegrana/"/>
    <tag k="delivery" v="yes"/>
    <tag k="description" v="Punto di raccolta e vendita di frutta e verdura biologica e altri prodotti alimentari biologici. Da poco, la bottega è anche bistrot e gastronomia."/>
    <tag k="email" v="info@bioetik.net"/>
    <tag k="name" v="BioEtik"/>
    <tag k="opening_hours" v="Tu-Sa 09:00-14:30,16:00-19:30; Su 08:30-12:30"/>
    <tag k="phone:mobile" v="+39 329 3511794"/>
    <tag k="shop" v="deli"/>
    <tag k="website" v="https://www.bioetik.net/it/"/>
  </node>
  <node id="7041920027" lat="44.4324071" lon="7.5068911">
    <tag k="addr:housenumber" v="230"/>
    <tag k="addr:street" v="Via della Battaglia"/>
    <tag k="amenity" v="restaurant"/>
    <tag k="cuisine" v="burger;pizza"/>
    <tag k="delivery" v="yes"/>
    <tag k="name" v="La Pantalera"/>
    <tag k="opening_hours" v="Mo-Sa 19:00-23:30; Su 12:00-15:00,19:00-23:00"/>
    <tag k="phone" v="+39 0171 682941"/>
  </node>
  <node id="7062074241" lat="44.4189429" lon="7.4328942">
    <tag k="addr:city" v="Caraglio"/>
    <tag k="addr:housenumber" v="2"/>
    <tag k="addr:postcode" v="12023"/>
    <tag k="addr:street" v="Via Cesare Battisti"/>
    <tag k="contact:facebook" v="https://www.facebook.com/alimentarerisparmioebonta/"/>
    <tag k="delivery" v="yes"/>
    <tag k="name" v="Risparmio e Bontà di Tallone Patrizia"/>
    <tag k="payment:cash" v="yes"/>
    <tag k="payment:maestro" v="yes"/>
    <tag k="payment:mastercard" v="yes"/>
    <tag k="payment:satispay" v="yes"/>
    <tag k="payment:visa" v="yes"/>
    <tag k="phone" v="+39 0171 619110"/>
    <tag k="ref:vatin" v="IT02477260042"/>
    <tag k="shop" v="convenience"/>
    <tag k="website" v="http://www.alimentarerisparmioebonta.it"/>
  </node>
  <node id="7074400566" lat="44.3939234" lon="7.5203746">
    <tag k="addr:housenumber" v="123"/>
    <tag k="addr:street" v="Via Valle Maira"/>
    <tag k="amenity" v="fast_food"/>
    <tag k="contact:mobile" v="+39 328 4257981"/>
    <tag k="cuisine" v="pizza"/>
    <tag k="delivery" v="yes"/>
    <tag k="name" v="Pizza Italia"/>
    <tag k="operator" v="Isnardi Ilaria"/>
  </node>
  <node id="7080087031" lat="44.4233926" lon="7.5625967">
    <tag k="addr:housenumber" v="3b"/>
    <tag k="addr:street" v="Via Porta Rossa"/>
    <tag k="delivery" v="yes"/>
    <tag k="diet:gluten_free" v="yes"/>
    <tag k="diet:vegan" v="yes"/>
    <tag k="name" v="Mario senza glutine vegan"/>
    <tag k="phone" v="+39 0171 613464"/>
    <tag k="shop" v="convenience"/>
  </node>
  <node id="7140737586" lat="44.3840893" lon="7.5446266">
    <tag k="addr:city" v="Cuneo"/>
    <tag k="addr:housenumber" v="9"/>
    <tag k="addr:postcode" v="12100"/>
    <tag k="addr:street" v="Via Pier Carlo Boggio"/>
    <tag k="delivery" v="yes"/>
    <tag k="description" v="Consegne gratuite su Cuneo, piccolo contributo per zone limitrofe."/>
    <tag k="email" v="info@tantecosebuone.it"/>
    <tag k="name" v="Tante cose buone"/>
    <tag k="opening_hours" v="Mo-Sa 08:00-13:00; Mo,Tu,Th,Fr 15:30-19:30"/>
    <tag k="phone" v="+39 371 3309804"/>
    <tag k="shop" v="greengrocer"/>
    <tag k="website" v="https://www.tantecosebuone.it"/>
  </node>
  <node id="7168974431" lat="44.4170228" lon="7.4281178">
    <tag k="addr:housenumber" v="14"/>
    <tag k="addr:street" v="Piazza Cavour"/>
    <tag k="delivery" v="yes"/>
    <tag k="name" v="Cit ma Bun"/>
    <tag k="opening_hours" v="Tu-Sa 08:00-12:30,15:30-19:30; Su 08:00-12:30"/>
    <tag k="payment:cash" v="yes"/>
    <tag k="payment:satispay" v="yes"/>
    <tag k="phone" v="+39 347 3235091"/>
    <tag k="shop" v="convenience"/>
  </node>
  <node id="7168981053" lat="44.4175219" lon="7.4279591">
    <tag k="addr:housenumber" v="82"/>
    <tag k="addr:street" v="Via Roma"/>
    <tag k="contact:facebook" v="https://www.facebook.com/vinerialunallegra/"/>
    <tag k="delivery" v="yes"/>
    <tag k="description" v="Vineria Lunallegra offre una vasta scelta di vini del territorio, una selezione da tutta Italia ed internazionale. Prodotti tipici, aperitivi e degustazioni."/>
    <tag k="name" v="Vineria Lunallegra"/>
    <tag k="opening_hours" v="Tu-Th 09:00-12:30,16:00-19:30; Fr,Sa 09:00-12:30,16:00-21:00; Su 09:00-13:00"/>
    <tag k="phone" v="+39 0171 619876"/>
    <tag k="shop" v="wine"/>
    <tag k="website" v="https://www.vinerialunallegra.com/"/>
  </node>
  <node id="7170633530" lat="44.4184085" lon="7.4308842">
    <tag k="addr:housenumber" v="152"/>
    <tag k="addr:street" v="Via Roma"/>
    <tag k="delivery" v="yes"/>
    <tag k="name" v="Il mondo di Laura"/>
    <tag k="opening_hours" v="Tu-Sa 09:00-12:30,15:30-19:30; Su 09:30-12:30"/>
    <tag k="operator" v="Laura Di Garelli"/>
    <tag k="payment:american_express" v="yes"/>
    <tag k="payment:cash" v="yes"/>
    <tag k="payment:maestro" v="yes"/>
    <tag k="payment:mastercard" v="yes"/>
    <tag k="payment:visa" v="yes"/>
    <tag k="phone" v="+39 0171 619500"/>
    <tag k="phone:mobile" v="+39 347 6828743"/>
    <tag k="shop" v="sewing"/>
  </node>
  <node id="7178916356" lat="44.4185819" lon="7.4326358">
    <tag k="addr:housenumber" v="7b"/>
    <tag k="addr:street" v="Via Cesare Battisti"/>
    <tag k="contact:instagram" v="milonepaneedolci"/>
    <tag k="delivery" v="yes"/>
    <tag k="email" v="info@milonepanedolci.com"/>
    <tag k="name" v="Milone Pane &amp; Dolci"/>
    <tag k="opening_hours" v="Mo-We,Fr,Sa 06:30-13:00,15:30-19:30; Su 06:30-13:00"/>
    <tag k="phone" v="+39 0171 618822"/>
    <tag k="phone:mobile" v="+39 338 8665686"/>
    <tag k="shop" v="bakery"/>
    <tag k="website" v="https://www.milonepanedolci.com/"/>
  </node>
  <node id="7283446098" lat="44.3294908" lon="7.4881627">
    <tag k="addr:city" v="Borgo San Dalmazzo"/>
    <tag k="addr:housenumber" v="91"/>
    <tag k="addr:postcode" v="12011"/>
    <tag k="addr:street" v="Via Roma"/>
    <tag k="amenity" v="restaurant"/>
    <tag k="cuisine" v="pizza"/>
    <tag k="delivery" v="yes"/>
    <tag k="name" v="Pizza al taglio Re Antò"/>
    <tag k="opening_hours" v="Tu-Fr 11:30-14:30,18:00-23:00; Su 17:30-23:00"/>
    <tag k="phone" v="+39 333 3333639"/>
  </node>
  <node id="7283477362" lat="44.3604051" lon="7.4750752">
    <tag k="addr:city" v="Vignolo"/>
    <tag k="addr:housenumber" v="14"/>
    <tag k="addr:postcode" v="12010"/>
    <tag k="addr:street" v="Piazza Grande"/>
    <tag k="contact:mobile" v="+39 348 6921079"/>
    <tag k="delivery" v="yes"/>
    <tag k="description" v="Consegna a domicilio gratuita su Vignolo e dintorni. Disponibili al telefono e tramite WhatsApp"/>
    <tag k="name" v="Bottega della carne"/>
    <tag k="opening_hours" v="Mo-Sa 07:00-18:30"/>
    <tag k="phone" v="+39 0171 48273"/>
    <tag k="shop" v="butcher"/>
  </node>
  <node id="7284193496" lat="44.3931501" lon="7.5471118">
    <tag k="contact:facebook" v="https://www.facebook.com/acquarioandpiccolianimali/"/>
    <tag k="delivery" v="yes"/>
    <tag k="name" v="L'acquario and Piccoli Animali"/>
    <tag k="phone" v="+39 328 322 4280"/>
    <tag k="shop" v="pet"/>
  </node>
  <node id="7284202331" lat="44.3923870" lon="7.5504599">
    <tag k="addr:housenumber" v="42"/>
    <tag k="addr:street" v="Via Roma"/>
    <tag k="delivery" v="yes"/>
    <tag k="description" v="Consegna a domicilio su Cuneo e limitrofi."/>
    <tag k="email" v="s.alimentinaturali@libero.it"/>
    <tag k="name" v="Alimenti Naturali"/>
    <tag k="operator" v="Simona Marchisio"/>
    <tag k="phone" v="+39 0171 500911"/>
    <tag k="shop" v="health_food"/>
  </node>
  <node id="7285142734" lat="44.3911381" lon="7.5618034">
    <tag k="addr:city" v="Borgo San Giuseppe"/>
    <tag k="addr:housenumber" v="6"/>
    <tag k="addr:postcode" v="12100"/>
    <tag k="addr:street" v="Via Savona"/>
    <tag k="delivery" v="yes"/>
    <tag k="name" v="Nord Gel"/>
    <tag k="opening_hours" v="Tu-Sa 08:30-13:00,16:00-19:30"/>
    <tag k="phone" v="+39 370 3093939"/>
    <tag k="shop" v="frozen_food"/>
  </node>
  <node id="7286479531" lat="44.3991770" lon="7.6784918">
    <tag k="addr:city" v="Margarita"/>
    <tag k="addr:housenumber" v="17"/>
    <tag k="addr:postcode" v="12040"/>
    <tag k="addr:street" v="Via Cuneo"/>
    <tag k="delivery" v="yes"/>
    <tag k="description" v="Alimentari."/>
    <tag k="name" v="Ghiottomania"/>
    <tag k="phone" v="+39 0171 792622"/>
    <tag k="shop" v="convenience"/>
  </node>
  <node id="7287719731" lat="44.5145092" lon="7.4732538">
    <tag k="addr:housenumber" v="2"/>
    <tag k="addr:street" v="Piazza Regina Margherita"/>
    <tag k="delivery" v="yes"/>
    <tag k="email" v="info@otticainvista.com"/>
    <tag k="name" v="Ottica in Vista"/>
    <tag k="phone" v="+39 0171 943461"/>
    <tag k="phone:mobile" v="+39 331 9612090"/>
    <tag k="ref:vatin" v="IT03114430048"/>
    <tag k="shop" v="optician"/>
    <tag k="website" v="http://www.otticainvista.com/"/>
  </node>
  <node id="7289025747" lat="44.6452352" lon="7.6569606">
    <tag k="addr:housenumber" v="10"/>
    <tag k="addr:street" v="Via Cravetta"/>
    <tag k="contact:facebook" v="https://www.facebook.com/pelledoca/"/>
    <tag k="cuisine" v="burger"/>
    <tag k="delivery" v="yes"/>
    <tag k="fixme" v="position estimated"/>
    <tag k="name" v="Pelledoca"/>
    <tag k="phone" v="+39 339 440 7053"/>
    <tag k="shop" v="wine"/>
    <tag k="website" v="http://www.pelledoca.net/"/>
  </node>
  <node id="7289057272" lat="44.4413307" lon="7.5255352">
    <tag k="addr:city" v="Roata Rossi"/>
    <tag k="addr:housenumber" v="144"/>
    <tag k="addr:postcode" v="12100"/>
    <tag k="addr:street" v="Via Antica di Busca"/>
    <tag k="contact:facebook" v="https://www.facebook.com/Meinero-Panetteria-Pasticceria-201659636685892/"/>
    <tag k="delivery" v="yes"/>
    <tag k="fixme" v="position estimated"/>
    <tag k="name" v="Meinero Panetteria Pasticceria"/>
    <tag k="opening_hours" v="Mo-Sa 07:15-13:00,15:30-19:45"/>
    <tag k="phone" v="+39 0171 689022"/>
    <tag k="shop" v="bakery"/>
  </node>
  <node id="7289113302" lat="44.4926586" lon="7.5451998">
    <tag k="addr:city" v="Tarantasca"/>
    <tag k="addr:housenumber" v="43"/>
    <tag k="addr:postcode" v="12020"/>
    <tag k="addr:street" v="Via Vittorio Veneto"/>
    <tag k="contact:facebook" v="https://www.facebook.com/labottegadelgustotarantasca/"/>
    <tag k="delivery" v="yes"/>
    <tag k="description" v="Consegnano a domicilio fino a Madonna dell'Olmo"/>
    <tag k="name" v="La Bottega del Gusto"/>
    <tag k="opening_hours" v="Mo-Sa 08:00-12:30,16:00-19:30; Su 08:00-12:30"/>
    <tag k="operator" v="Valter Giraudo"/>
    <tag k="phone" v="+39 328 471 8769"/>
    <tag k="shop" v="convenience"/>
  </node>
  <node id="7289155704" lat="44.3841393" lon="7.5406647">
    <tag k="addr:housenumber" v="47a"/>
    <tag k="addr:street" v="Via Venti Settembre"/>
    <tag k="delivery" v="yes"/>
    <tag k="fixme" v="position estimated"/>
    <tag k="name" v="Rigenera Cuneo di Marchetti Marco"/>
    <tag k="phone" v="+39 338 5977575"/>
    <tag k="shop" v="printer_ink"/>
  </node>
  <node id="7289164947" lat="44.5115416" lon="7.4822769">
    <tag k="delivery" v="yes"/>
    <tag k="fixme" v="position estimated"/>
    <tag k="name" v="El Granatin"/>
    <tag k="phone" v="+39 347 4546429"/>
    <tag k="shop" v="convenience"/>
  </node>
  <node id="7289371060" lat="44.3805075" lon="7.5360394">
    <tag k="addr:city" v="Cuneo"/>
    <tag k="addr:housenumber" v="16"/>
    <tag k="addr:postcode" v="12100"/>
    <tag k="addr:street" v="Via Beppino Nasetta"/>
    <tag k="contact:facebook" v="https://www.facebook.com/CrispinoAndrea86/"/>
    <tag k="delivery" v="yes"/>
    <tag k="delivery:fee" v="no"/>
    <tag k="description" v="Consegna gratuita su Cuneo e limitrofi."/>
    <tag k="email" v="andreacrispy@icloud.com"/>
    <tag k="name" v="La casa della frutta secca"/>
    <tag k="operator" v="Crispino Andrea"/>
    <tag k="phone" v="+39 392 6338727"/>
    <tag k="shop" v="convenience"/>
  </node>
  <node id="7293198123" lat="44.3947601" lon="7.4959420">
    <tag k="delivery" v="yes"/>
    <tag k="description" v="Ordini tramite whatsapp o telefonando. Consegna su Cuneo e limitrofi. Consegna GRATUITA. Ordine minimo circa 20€."/>
    <tag k="name" v="Famù negozio"/>
    <tag k="payment:bancomat" v="yes"/>
    <tag k="payment:cash" v="yes"/>
    <tag k="phone" v="+39 351 8456442"/>
    <tag k="shop" v="dairy"/>
    <tag k="website" v="http://loyogurtfamu.it"/>
  </node>
  <node id="7293205170" lat="44.3799923" lon="7.5461677">
    <tag k="addr:city" v="Cuneo"/>
    <tag k="addr:housenumber" v="33"/>
    <tag k="addr:postcode" v="12100"/>
    <tag k="addr:street" v="Viale degli Angeli"/>
    <tag k="amenity" v="restaurant"/>
    <tag k="delivery" v="yes"/>
    <tag k="description" v="Telefonate per sapere la proposta del giorno!"/>
    <tag k="name" v="La Novella"/>
    <tag k="phone" v="+39 339 7374519"/>
  </node>
  <node id="7294607767" lat="44.4224249" lon="7.5436470">
    <tag k="addr:housenumber" v="139"/>
    <tag k="addr:street" v="Via Valle Po"/>
    <tag k="delivery" v="yes"/>
    <tag k="fixme" v="position estimated"/>
    <tag k="name" v="Molino Squillario"/>
    <tag k="operator" v="Molino Squillario di Squillario Andrea e C. snc"/>
    <tag k="phone" v="+39 0171 411128"/>
    <tag k="shop" v="bakery"/>
    <tag k="website" v="https://www.molinosquillario.it/"/>
  </node>
  <node id="7294614759" lat="44.3871091" lon="7.5451299">
    <tag k="addr:housenumber" v="20"/>
    <tag k="addr:street" v="Corso Nizza"/>
    <tag k="delivery" v="yes"/>
    <tag k="description" v="ordini solo via mail"/>
    <tag k="email" v="cristina@assediumritualpastry.com"/>
    <tag k="fixme" v="position estimated"/>
    <tag k="name" v="Assedium Ritual Pastry"/>
    <tag k="operator" v="Assedium Cuneo SRLS"/>
    <tag k="phone" v="+39 351 8422776"/>
    <tag k="ref:vatin" v="IT03838980047"/>
    <tag k="shop" v="pastry"/>
    <tag k="website" v="https://assediumritualpastry.com/"/>
  </node>
  <node id="7295079935" lat="44.4170499" lon="7.4319042">
    <tag k="delivery" v="yes"/>
    <tag k="name" v="Control C"/>
    <tag k="phone:mobile" v="+39 328 4882278"/>
    <tag k="shop" v="printer_ink"/>
  </node>
  <node id="7295079936" lat="44.4179601" lon="7.4290334">
    <tag k="delivery" v="yes"/>
    <tag k="name" v="Casalinghi Ex Parola"/>
    <tag k="phone:mobile" v="+39 339 3104858"/>
    <tag k="shop" v="houseware"/>
  </node>
  <node id="7295160828" lat="44.4170837" lon="7.4273602">
    <tag k="delivery" v="yes"/>
    <tag k="fixme" v="position estimated"/>
    <tag k="name" v="Ferramenta Armando"/>
    <tag k="phone:mobile" v="+39 347 6011705"/>
    <tag k="shop" v="hardware"/>
  </node>
  <node id="7296142267" lat="44.4176874" lon="7.4288578">
    <tag k="delivery" v="yes"/>
    <tag k="fixme" v="adjust position"/>
    <tag k="name" v="L'intimo"/>
    <tag k="operator" v="Delfino Antonella"/>
    <tag k="phone" v="+39 333 4508183"/>
    <tag k="shop" v="clothes"/>
  </node>
  <node id="7296203101" lat="44.4172274" lon="7.4277439">
    <tag k="delivery" v="yes"/>
    <tag k="fixme" v="adjust position"/>
    <tag k="name" v="La Piramide"/>
    <tag k="phone:mobile" v="+39 393 1829005"/>
    <tag k="shop" v="houseware"/>
  </node>
  <node id="7296207271" lat="44.4178987" lon="7.4295655">
    <tag k="delivery" v="yes"/>
    <tag k="fixme" v="adjust position"/>
    <tag k="name" v="Gioielleria Aretia"/>
    <tag k="phone" v="+39 327 0029130"/>
    <tag k="shop" v="jewelry"/>
  </node>
  <node id="7296208076" lat="44.4184025" lon="7.4311588">
    <tag k="delivery" v="yes"/>
    <tag k="fixme" v="adjust position"/>
    <tag k="name" v="Bianco Carla"/>
    <tag k="phone" v="+39 346 210 7609"/>
    <tag k="shop" v="convenience"/>
  </node>
  <node id="7296208692" lat="44.4168948" lon="7.4283386">
    <tag k="delivery" v="yes"/>
    <tag k="fixme" v="adjust position"/>
    <tag k="name" v="Piemme"/>
    <tag k="phone" v="+39 347 8150625"/>
    <tag k="shop" v="curtain"/>
  </node>
  <node id="7296209432" lat="44.4173091" lon="7.4274350">
    <tag k="delivery" v="yes"/>
    <tag k="fixme" v="adjust position"/>
    <tag k="name" v="Acqua di Roccia"/>
    <tag k="phone" v="+39 366 1981316"/>
    <tag k="shop" v="herbalist"/>
  </node>
  <node id="7296212842" lat="44.4171357" lon="7.4275519">
    <tag k="delivery" v="yes"/>
    <tag k="fixme" v="adjust position"/>
    <tag k="name" v="Macelleria Marco"/>
    <tag k="phone:mobile" v="+39 342 5313751"/>
    <tag k="shop" v="butcher"/>
  </node>
  <node id="7296220326" lat="44.4171958" lon="7.4273174">
    <tag k="delivery" v="yes"/>
    <tag k="fixme" v="adjust position"/>
    <tag k="name" v="Lucky"/>
    <tag k="phone" v="+39 348 7118682"/>
    <tag k="shop" v="electronics"/>
  </node>
  <node id="7296221053" lat="44.4171848" lon="7.4272642">
    <tag k="delivery" v="yes"/>
    <tag k="fixme" v="adjust position"/>
    <tag k="name" v="La Poiana"/>
    <tag k="phone" v="+39 0171 619862"/>
    <tag k="shop" v="cheese"/>
    <tag k="website" v="https://www.cooperativalapoiana.it"/>
  </node>
  <node id="7296225201" lat="44.4179335" lon="7.4297775">
    <tag k="delivery" v="yes"/>
    <tag k="fixme" v="adjust position"/>
    <tag k="name" v="Morra"/>
    <tag k="phone" v="+39 0171 610359"/>
    <tag k="shop" v="greengrocer"/>
  </node>
  <node id="7296228776" lat="44.4174972" lon="7.4278252">
    <tag k="delivery" v="yes"/>
    <tag k="fixme" v="adjust position"/>
    <tag k="name" v="L'antico portico"/>
    <tag k="phone" v="+39 0171 619048"/>
    <tag k="shop" v="butcher"/>
  </node>
  <node id="7296234972" lat="44.4171342" lon="7.4266143">
    <tag k="delivery" v="yes"/>
    <tag k="fixme" v="adjust position"/>
    <tag k="name" v="Debora Fiori"/>
    <tag k="phone:mobile" v="+39 346 5127411"/>
    <tag k="shop" v="florist"/>
  </node>
  <node id="7296263218" lat="44.4175819" lon="7.4281612">
    <tag k="delivery" v="yes"/>
    <tag k="fixme" v="adjust position"/>
    <tag k="name" v="Dario Alimentari"/>
    <tag k="phone" v="+39 380 3900773"/>
    <tag k="shop" v="convenience"/>
  </node>
  <node id="7296264523" lat="44.4169952" lon="7.4268523">
    <tag k="delivery" v="yes"/>
    <tag k="fixme" v="adjust position"/>
    <tag k="name" v="La Bottega di Lerda Giorgio"/>
    <tag k="phone" v="+39 0171 619332"/>
    <tag k="shop" v="convenience"/>
  </node>
  <node id="7296747537" lat="44.3435111" lon="7.5515127"/>
  <node id="7296747538" lat="44.3413263" lon="7.5513518"/>
  <node id="7296747539" lat="44.3418384" lon="7.5509602"/>
  <node id="7296747540" lat="44.3423271" lon="7.5506008"/>
  <node id="7296747541" lat="44.3427419" lon="7.5503701"/>
  <node id="7296747542" lat="44.3433203" lon="7.5500549"/>
  <node id="7296747543" lat="44.3433500" lon="7.5500751"/>
  <node id="7296747544" lat="44.3434766" lon="7.5503916"/>
  <node id="7296747545" lat="44.3435035" lon="7.5505632"/>
  <node id="7296747546" lat="44.3435111" lon="7.5507107"/>
  <node id="7296747547" lat="44.3435169" lon="7.5511613"/>
  <node id="7299866175" lat="44.5027545" lon="7.4908324">
    <tag k="addr:housenumber" v="140"/>
    <tag k="addr:street" v="Via Laghi di Avigliana"/>
    <tag k="delivery" v="yes"/>
    <tag k="email" v="arriva@terraviva.coop"/>
    <tag k="name" v="TerraViva"/>
    <tag k="phone" v="+39 0171 946724"/>
    <tag k="phone:mobile" v="+39 346 5353150"/>
    <tag k="shop" v="supermarket"/>
    <tag k="website" v="https://www.terraviva.coop/"/>
  </node>
  <node id="7303891062" lat="44.3839361" lon="7.5426307">
    <tag k="addr:housenumber" v="3"/>
    <tag k="addr:street" v="Piazza Europa"/>
    <tag k="delivery" v="yes"/>
    <tag k="description" v="Consegna gratuita il giorno dopo all'ordinazione, dalle h 13:00 alle h 15:30, su Cuneo, Borgo san Giuseppe, San Rocco Castagnaretta"/>
    <tag k="email" v="mimi.martini62@gmail.com"/>
    <tag k="fixme" v="position estimated"/>
    <tag k="name" v="Martini Maria Silvia"/>
    <tag k="phone" v="+39 0171 070630;+39 348 0085225"/>
    <tag k="shop" v="butcher"/>
  </node>
  <node id="7303895009" lat="44.3777570" lon="7.5424300">
    <tag k="addr:housenumber" v="14"/>
    <tag k="addr:street" v="Via Francesco Bruno Di Tornaforte"/>
    <tag k="delivery" v="yes"/>
    <tag k="fixme" v="position estimated"/>
    <tag k="name" v="Santamaria"/>
    <tag k="operator" v="Santamaria di Tomatis Pietro &amp; C. S.A.S."/>
    <tag k="phone" v="+39 366 4517899"/>
    <tag k="ref:vatin" v="IT03711650048"/>
    <tag k="shop" v="pastry"/>
  </node>
  <node id="7303941776" lat="44.5109979" lon="7.5936019">
    <tag k="addr:housenumber" v="321"/>
    <tag k="addr:place" v="Regione Madonna dei Prati"/>
    <tag k="amenity" v="pharmacy"/>
    <tag k="delivery" v="yes"/>
    <tag k="dispensing" v="no"/>
    <tag k="email" v="vendite.irma@pavengroup.com"/>
    <tag k="fixme" v="position estimated"/>
    <tag k="name" v="Paven S.R.L."/>
    <tag k="phone" v="+39 0171 211700"/>
    <tag k="ref:msal" v="008568"/>
    <tag k="ref:vatin" v="IT02414610044"/>
    <tag k="website" v="http://www.pavengroup.com/"/>
  </node>
  <node id="7303960737" lat="44.3994661" lon="7.5553243">
    <tag k="addr:housenumber" v="15"/>
    <tag k="addr:street" v="Via Basse San Sebastiano"/>
    <tag k="delivery" v="yes"/>
    <tag k="description" v="Vendita Farine - consegne dalle ore 8 alle 12 e dalle 14 alle 18"/>
    <tag k="fixme" v="position estimated"/>
    <tag k="name" v="Molino Mettone"/>
    <tag k="operator" v="Molino Mettone Srl"/>
    <tag k="phone" v="+39 0171 696081"/>
    <tag k="ref:vatin" v="IT01873680043"/>
    <tag k="shop" v="bakery"/>
    <tag k="website" v="http://www.molinomettone.it/"/>
  </node>
  <node id="7304098757" lat="44.5249901" lon="7.4800572">
    <tag k="addr:city" v="Busca"/>
    <tag k="addr:housenumber" v="69"/>
    <tag k="addr:postcode" v="12022"/>
    <tag k="addr:street" v="Corso Giuseppe Romita"/>
    <tag k="amenity" v="restaurant"/>
    <tag k="cuisine" v="pizza"/>
    <tag k="delivery" v="yes"/>
    <tag k="name" v="Sherwood Pub"/>
    <tag k="phone" v="+39 0171 943170"/>
    <tag k="phone:mobile" v="+39 338 2795261"/>
  </node>
  <node id="7304137083" lat="44.5147104" lon="7.4738234">
    <tag k="addr:city" v="Busca"/>
    <tag k="addr:housenumber" v="103"/>
    <tag k="addr:postcode" v="12022"/>
    <tag k="addr:street" v="Via Umberto Primo"/>
    <tag k="contact:facebook" v="https://www.facebook.com/panetteriaantichisaporibusca"/>
    <tag k="delivery" v="yes"/>
    <tag k="fixme" v="position estimated"/>
    <tag k="name" v="Antichi Sapori"/>
    <tag k="phone" v="+39 0171 944273"/>
    <tag k="phone:mobile" v="+39 339 5940847"/>
    <tag k="shop" v="bakery"/>
  </node>
  <node id="7304200571" lat="44.5152020" lon="7.4751851">
    <tag k="addr:city" v="Busca"/>
    <tag k="addr:housenumber" v="90"/>
    <tag k="addr:postcode" v="12022"/>
    <tag k="addr:street" v="Via Umberto Primo"/>
    <tag k="amenity" v="pharmacy"/>
    <tag k="delivery" v="yes"/>
    <tag k="dispensing" v="no"/>
    <tag k="fixme" v="position estimated"/>
    <tag k="name" v="Parafarmacia del Consiglio"/>
    <tag k="operator" v="Parafarmacia del Consiglio di Pasquale Dott. Dario"/>
    <tag k="phone" v="+39 0171 944787"/>
    <tag k="ref:msal" v="006155"/>
    <tag k="ref:vatin" v="IT03303720043"/>
  </node>
  <node id="7304221087" lat="44.5149313" lon="7.4742745">
    <tag k="addr:city" v="Busca"/>
    <tag k="addr:housenumber" v="120"/>
    <tag k="addr:postcode" v="12022"/>
    <tag k="addr:street" v="Via Umberto Primo"/>
    <tag k="delivery" v="yes"/>
    <tag k="fixme" v="position estimated"/>
    <tag k="name" v="Salumeria Cantaluppi"/>
    <tag k="phone" v="+39 0171 325928"/>
    <tag k="shop" v="butcher"/>
  </node>
  <node id="7304241312" lat="44.5157987" lon="7.4779920">
    <tag k="addr:city" v="Busca"/>
    <tag k="addr:housenumber" v="2"/>
    <tag k="addr:postcode" v="12022"/>
    <tag k="addr:street" v="Corso Papa Giovanni Ventitreesimo"/>
    <tag k="amenity" v="restaurant"/>
    <tag k="cuisine" v="pizza"/>
    <tag k="delivery" v="yes"/>
    <tag k="name" v="Di Pasta...In Pizza"/>
    <tag k="phone:mobile" v="+39 334 7634722"/>
  </node>
  <node id="7304248609" lat="44.5159584" lon="7.4772517">
    <tag k="addr:housenumber" v="4"/>
    <tag k="addr:street" v="Via Luigi Cadorna"/>
    <tag k="delivery" v="yes"/>
    <tag k="name" v="Macelleria da Marco"/>
    <tag k="operator" v="Marco Ballario"/>
    <tag k="phone" v="+39 0171 290969"/>
    <tag k="shop" v="butcher"/>
  </node>
  <node id="7306642794" lat="44.3864289" lon="7.5100833">
    <tag k="addr:housenumber" v="127"/>
    <tag k="addr:street" v="Via Cuneo"/>
    <tag k="delivery" v="yes"/>
    <tag k="name" v="Antoci F.lli SNC"/>
    <tag k="phone" v="+39 335 1212064"/>
    <tag k="shop" v="frozen_food"/>
  </node>
  <node id="7306884272" lat="44.4942404" lon="7.5447555">
    <tag k="addr:city" v="Tarantasca"/>
    <tag k="addr:housenumber" v="2"/>
    <tag k="addr:postcode" v="12020"/>
    <tag k="addr:street" v="Via Vittorio Veneto"/>
    <tag k="delivery" v="yes"/>
    <tag k="name" v="Alimentari Valter Olivero"/>
    <tag k="phone" v="+39 331 1825562"/>
    <tag k="shop" v="convenience"/>
  </node>
  <node id="7306931287" lat="44.5147793" lon="7.4737197">
    <tag k="addr:city" v="Busca"/>
    <tag k="addr:housenumber" v="140"/>
    <tag k="addr:postcode" v="12022"/>
    <tag k="addr:street" v="Via Umberto Primo"/>
    <tag k="delivery" v="yes"/>
    <tag k="name" v="Stema"/>
    <tag k="phone" v="+39 0171 944467"/>
    <tag k="shop" v="greengrocer"/>
  </node>
  <node id="7306948224" lat="44.4988403" lon="7.5122927">
    <tag k="addr:city" v="Busca"/>
    <tag k="addr:housenumber" v="157a"/>
    <tag k="addr:postcode" v="12022"/>
    <tag k="addr:street" v="Via Tarantasca"/>
    <tag k="delivery" v="yes"/>
    <tag k="name" v="Azienda agricola di Ilaria Ichino - La Capanna"/>
    <tag k="phone" v="+39 340 998 8783"/>
    <tag k="shop" v="dairy"/>
  </node>
  <node id="7306953000" lat="44.5176112" lon="7.4776463">
    <tag k="delivery" v="yes"/>
    <tag k="fixme" v="position estimated"/>
    <tag k="name" v="Pasticceria Fagiolo"/>
    <tag k="phone" v="+39 0171 945165"/>
    <tag k="shop" v="pastry"/>
  </node>
  <node id="7307067518" lat="44.4894452" lon="7.5433662">
    <tag k="addr:city" v="Tarantasca"/>
    <tag k="addr:housenumber" v="14"/>
    <tag k="addr:postcode" v="12020"/>
    <tag k="addr:street" v="Via Bisalta"/>
    <tag k="delivery" v="yes"/>
    <tag k="name" v="Troticoltura Cristian Testa"/>
    <tag k="phone" v="+39 346 7224627"/>
    <tag k="shop" v="seafood"/>
  </node>
  <node id="7307077948" lat="44.4956691" lon="7.5418681">
    <tag k="addr:city" v="Tarantasca"/>
    <tag k="addr:housenumber" v="3"/>
    <tag k="addr:postcode" v="12020"/>
    <tag k="addr:street" v="Via Alessandro Volta"/>
    <tag k="agrarian" v="feed;seed;pellet"/>
    <tag k="delivery" v="yes"/>
    <tag k="name" v="Daniele Francesco Granatin"/>
    <tag k="phone" v="+39 0171 931941"/>
    <tag k="shop" v="agrarian"/>
  </node>
  <node id="7307086513" lat="44.4892145" lon="7.5457809">
    <tag k="addr:city" v="Tarantasca"/>
    <tag k="addr:housenumber" v="111"/>
    <tag k="addr:postcode" v="12020"/>
    <tag k="addr:street" v="Via Vittorio Veneto"/>
    <tag k="delivery" v="yes"/>
    <tag k="name" v="Chiara Antonucci Alimentari"/>
    <tag k="phone" v="+39 333 8892320"/>
    <tag k="shop" v="convenience"/>
  </node>
  <node id="7307086791" lat="44.4938348" lon="7.5449743">
    <tag k="addr:city" v="Tarantasca"/>
    <tag k="addr:housenumber" v="15"/>
    <tag k="addr:postcode" v="12020"/>
    <tag k="addr:street" v="Via Vittorio Veneto"/>
    <tag k="delivery" v="yes"/>
    <tag k="name" v="Tabaccheria Nilva Galfré"/>
    <tag k="phone" v="+39 339 4346606"/>
    <tag k="shop" v="tobacco"/>
  </node>
  <node id="7310315792" lat="44.3917897" lon="7.5453060">
    <tag k="addr:housenumber" v="7"/>
    <tag k="addr:street" v="Via Carlo Pascal"/>
    <tag k="delivery" v="yes"/>
    <tag k="description" v="Consegna quotidiano La Stampa"/>
    <tag k="email" v="stampain@nuvolariweb.com"/>
    <tag k="name" v="Stampa In"/>
    <tag k="office" v="delivery"/>
    <tag k="phone" v="+39 0171 695766"/>
  </node>
  <node id="7312118779" lat="44.5006175" lon="7.5855308">
    <tag k="addr:city" v="Centallo"/>
    <tag k="addr:housenumber" v="5"/>
    <tag k="addr:postcode" v="12044"/>
    <tag k="addr:street" v="Piazza Vittorio Emanuele II"/>
    <tag k="delivery" v="yes"/>
    <tag k="name" v="Dolci tentazioni"/>
    <tag k="opening_hours" v="Th-Tu 07:00-13:00,14:30-20:00"/>
    <tag k="phone" v="+39 0171 214357"/>
    <tag k="shop" v="pastry"/>
  </node>
  <node id="7312243220" lat="44.3784200" lon="7.5733047">
    <tag k="addr:city" v="Spinetta"/>
    <tag k="addr:housenumber" v="9"/>
    <tag k="addr:postcode" v="12100"/>
    <tag k="addr:street" v="Piazza Conti Gondolo della Riva"/>
    <tag k="amenity" v="restaurant"/>
    <tag k="cuisine" v="pizza"/>
    <tag k="delivery" v="yes"/>
    <tag k="description" v="Consegna a domicilio su Spinetta e limitrofi."/>
    <tag k="name" v="C'era una volta"/>
    <tag k="opening_hours" v="Fr,Sa 18:00-22:30; Su 18:00-22:00"/>
    <tag k="phone" v="+39 0171 403584"/>
  </node>
  <node id="7312771210" lat="44.6454210" lon="7.6568095">
    <tag k="delivery" v="yes"/>
    <tag k="delivery:covid19" v="yes"/>
    <tag k="name" v="Alveare di Savigliano"/>
    <tag k="shop" v="convenience"/>
    <tag k="website" v="https://alvearechedicesi.it/it-IT/assemblies/10271"/>
  </node>
  <node id="7312771211" lat="44.6510750" lon="7.6568384">
    <tag k="delivery:covid19" v="yes"/>
    <tag k="name" v="Panetteria Lamberti"/>
    <tag k="phone" v="+39 0172 711423"/>
    <tag k="shop" v="bakery"/>
    <tag k="wheelchair" v="yes"/>
  </node>
  <node id="7312771212" lat="44.6462826" lon="7.6551962">
    <tag k="delivery:covid19" v="yes"/>
    <tag k="name" v="Da Beate"/>
    <tag k="phone" v="+39 334 7272388"/>
    <tag k="shop" v="deli"/>
  </node>
  <node id="7312771213" lat="44.6470574" lon="7.6489761">
    <tag k="contact:mobile" v="+39 335 6752177"/>
    <tag k="contact:phone" v="+39 0172 715015"/>
    <tag k="delivery:covid19" v="yes"/>
    <tag k="name" v="Tuttanatura Di Borio Claudio"/>
    <tag k="shop" v="garden_centre"/>
  </node>
  <node id="7312771214" lat="44.6473140" lon="7.6534769">
    <tag k="contact:mobile" v="+39 349 7225123"/>
    <tag k="contact:phone" v="+39 0172 370327"/>
    <tag k="delivery:covid19" v="yes"/>
    <tag k="name" v="Latteria Agricola Fusero"/>
    <tag k="shop" v="dairy"/>
    <tag k="wheelchair" v="yes"/>
  </node>
  <node id="7312852480" lat="44.6475134" lon="7.6550849">
    <tag k="delivery:covid19" v="yes"/>
    <tag k="name" v="Aroma Savigliano"/>
    <tag k="phone" v="+39 0172 373097"/>
    <tag k="shop" v="coffee"/>
    <tag k="website" v="http://www.aromavending.it/home/"/>
  </node>
  <node id="7312852481" lat="44.6426071" lon="7.6500785">
    <tag k="amenity" v="restaurant"/>
    <tag k="delivery:covid19" v="yes"/>
    <tag k="name" v="Villa Borgoglio"/>
    <tag k="phone" v="+39 0172 2446640"/>
  </node>
  <node id="7312852482" lat="44.6526006" lon="7.6536258">
    <tag k="amenity" v="restaurant"/>
    <tag k="cuisine" v="pizza"/>
    <tag k="delivery" v="yes"/>
    <tag k="delivery:description:it" v="Attivazione servizio a domicilio di generi di prima necessità per COVID-19"/>
    <tag k="name" v="Pizzeria Da Turel"/>
    <tag k="phone" v="+39 0172 201746"/>
  </node>
  <node id="7312852483" lat="44.6457263" lon="7.6530759">
    <tag k="amenity" v="ice_cream"/>
    <tag k="delivery:covid19" v="yes"/>
    <tag k="name" v="Bar Manuel"/>
    <tag k="phone" v="+39 333 7956455"/>
  </node>
  <node id="7312852484" lat="44.6467091" lon="7.6539342">
    <tag k="amenity" v="restaurant"/>
    <tag k="cuisine" v="regional"/>
    <tag k="delivery:covid19" v="yes"/>
    <tag k="name" v="Ostu Bistrot"/>
    <tag k="phone" v="+39 340 0553238"/>
    <tag k="website" v="https://ostubistrot.it/"/>
  </node>
  <node id="7314616325" lat="44.6492108" lon="7.6546544">
    <tag k="amenity" v="ice_cream"/>
    <tag k="delivery:covid19" v="yes"/>
    <tag k="name" v="Oasi del gelato"/>
    <tag k="phone" v="+39 329 3445072"/>
  </node>
  <node id="7314616326" lat="44.6449663" lon="7.6558708">
    <tag k="delivery:covid19" v="yes"/>
    <tag k="name" v="Dal Fruttaiolo"/>
    <tag k="phone" v="+39 0172 21384"/>
    <tag k="shop" v="greengrocer"/>
  </node>
  <node id="7315542851" lat="44.6509434" lon="7.6554523">
    <tag k="amenity" v="cafe"/>
    <tag k="delivery:covid19" v="yes"/>
    <tag k="name" v="Bar Kursal"/>
    <tag k="phone" v="+39 0172 31744"/>
  </node>
  <node id="7315542852" lat="44.6504139" lon="7.6534018">
    <tag k="delivery" v="yes"/>
    <tag k="delivery:covid19" v="yes"/>
    <tag k="name" v="Tutto a domicilio"/>
    <tag k="office" v="delivery"/>
    <tag k="phone" v="+39 3711559108"/>
    <tag k="website" v="http://www.tuttoadomiciliocn.it/home/savigliano-2/"/>
  </node>
  <node id="7315542853" lat="44.6472138" lon="7.6566339">
    <tag k="amenity" v="restaurant"/>
    <tag k="cuisine" v="regional"/>
    <tag k="delivery:covid19" v="yes"/>
    <tag k="name" v="Antica Osteria dell'Orsa"/>
    <tag k="phone" v="+39 0172 711763"/>
  </node>
  <node id="7315542854" lat="44.6459754" lon="7.6479703">
    <tag k="delivery:covid19" v="yes"/>
    <tag k="name" v="Equinord"/>
    <tag k="phone" v="+39 348 7759619"/>
    <tag k="shop" v="sports"/>
    <tag k="sport" v="equestrian"/>
    <tag k="website" v="http://www.equinord.it/"/>
  </node>
  <node id="7315542855" lat="44.6469295" lon="7.6505747">
    <tag k="contact:mobile" v="+39 348 2448481"/>
    <tag k="delivery:covid19" v="yes"/>
    <tag k="name" v="Ci.erre ferramenta"/>
    <tag k="phone" v="+39 347 8830433"/>
    <tag k="shop" v="hardware"/>
    <tag k="website" v="http://www.cierreferramenta.com/"/>
  </node>
  <node id="7315542856" lat="44.6482624" lon="7.6578878">
    <tag k="contact:mobile" v="+39 340 1981138"/>
    <tag k="contact:phone" v="+39 0172 371525"/>
    <tag k="delivery:covid19" v="yes"/>
    <tag k="name" v="Prink"/>
    <tag k="shop" v="printer_ink"/>
    <tag k="website" v="https://www.prink.it/savigliano-1052"/>
  </node>
  <node id="7315542857" lat="44.6467334" lon="7.6566070">
    <tag k="amenity" v="ice_cream"/>
    <tag k="delivery:covid19" v="yes"/>
    <tag k="name" v="Crema &amp; Cioccolato"/>
    <tag k="phone" v="+39 340 920652 +39 380 3296543"/>
  </node>
  <node id="7315542858" lat="44.6470211" lon="7.6558761">
    <tag k="amenity" v="fast_food"/>
    <tag k="cuisine" v="pizza"/>
    <tag k="delivery:covid19" v="yes"/>
    <tag k="name" v="Il Capriccio pizza al taglio"/>
    <tag k="phone" v="+39 0172 712883"/>
    <tag k="takeaway" v="only"/>
  </node>
  <node id="7315542859" lat="44.6468713" lon="7.6571676">
    <tag k="amenity" v="restaurant"/>
    <tag k="cuisine" v="pizza"/>
    <tag k="delivery" v="yes"/>
    <tag k="delivery:covid19" v="yes"/>
    <tag k="name" v="30 e lode"/>
    <tag k="phone" v="+39 0172 373364"/>
    <tag k="website" v="http://pizza30elode.it/"/>
  </node>
  <node id="7315612691" lat="44.6490376" lon="7.6559264">
    <tag k="delivery:covid19" v="yes"/>
    <tag k="name" v="Pane e Vizi"/>
    <tag k="phone" v="+39 0172 713523"/>
    <tag k="shop" v="bakery"/>
  </node>
  <node id="7315612692" lat="44.6488940" lon="7.6560853">
    <tag k="contact:mobile" v="+39 339 3260071"/>
    <tag k="contact:phone" v="+39 0172 7712671"/>
    <tag k="delivery:covid19" v="yes"/>
    <tag k="name" v="La Bottega alimentare"/>
    <tag k="shop" v="convenience"/>
  </node>
  <node id="7315612693" lat="44.6457745" lon="7.6563697">
    <tag k="delivery:covid19" v="yes"/>
    <tag k="name" v="Bottega equosolidale Tam Tam"/>
    <tag k="phone" v="+39 333 8154530"/>
    <tag k="shop" v="general"/>
    <tag k="website" v="https://tamtamsavigliano.wixsite.com/tamtam"/>
  </node>
  <node id="7318113634" lat="44.6405970" lon="7.6572134">
    <tag k="delivery:covid19" v="yes"/>
    <tag k="name" v="Otrofrutta F.lli Michelazzo"/>
    <tag k="phone" v="+39 338 1229686"/>
    <tag k="shop" v="greengrocer"/>
  </node>
  <node id="7323511938" lat="44.5151770" lon="7.4736345">
    <tag k="addr:city" v="Busca"/>
    <tag k="addr:housenumber" v="13"/>
    <tag k="addr:postcode" v="12022"/>
    <tag k="addr:street" v="Via Massimo D'Azeglio"/>
    <tag k="amenity" v="restaurant"/>
    <tag k="cuisine" v="pizza"/>
    <tag k="delivery" v="yes"/>
    <tag k="name" v="Buscaje Ristorante Pizzeria"/>
    <tag k="phone" v="+39 334 1196311"/>
  </node>
  <node id="7323607848" lat="44.5154616" lon="7.4744720">
    <tag k="addr:city" v="Busca"/>
    <tag k="addr:housenumber" v="17"/>
    <tag k="addr:postcode" v="12022"/>
    <tag k="addr:street" v="Via Roberto d'Azeglio"/>
    <tag k="contact:mobile" v="+39 340 7288196"/>
    <tag k="contact:phone" v="+39 0171 943888"/>
    <tag k="delivery" v="yes"/>
    <tag k="name" v="L'Erbolario - Erboristeria da Mary"/>
    <tag k="shop" v="herbalist"/>
  </node>
  <node id="7323613773" lat="44.5405794" lon="7.4792321">
    <tag k="addr:city" v="Ceretto"/>
    <tag k="addr:housenumber" v="15"/>
    <tag k="addr:postcode" v="12022"/>
    <tag k="addr:street" v="Strada San Martino"/>
    <tag k="craft" v="winery"/>
    <tag k="delivery" v="yes"/>
    <tag k="description" v="Vini tipici locali e succhi di frutta"/>
    <tag k="name" v="Vini Tomatis Dario e figli"/>
    <tag k="phone" v="+39 339 5489745"/>
    <tag k="shop" v="wine"/>
  </node>
  <node id="7323628061" lat="44.5026278" lon="7.4961280">
    <tag k="addr:city" v="San Barnaba"/>
    <tag k="addr:housenumber" v="8b"/>
    <tag k="addr:postcode" v="12022"/>
    <tag k="addr:street" v="Via Tarantasca"/>
    <tag k="delivery" v="yes"/>
    <tag k="name" v="Alimentari Tabacchi Rosso Elda"/>
    <tag k="phone" v="+39 0171 945389"/>
    <tag k="shop" v="convenience"/>
    <tag k="tobacco" v="yes"/>
  </node>
  <node id="7323651043" lat="44.5132557" lon="7.4722200">
    <tag k="addr:city" v="Busca"/>
    <tag k="addr:housenumber" v="4"/>
    <tag k="addr:postcode" v="12022"/>
    <tag k="addr:street" v="Strada Rossana"/>
    <tag k="amenity" v="restaurant"/>
    <tag k="cuisine" v="pizza"/>
    <tag k="delivery" v="yes"/>
    <tag k="name" v="Pizzeria 2 Mondi"/>
    <tag k="phone" v="+39 0171 943909"/>
  </node>
  <node id="7323657412" lat="44.5022698" lon="7.4909451">
    <tag k="addr:city" v="Busca"/>
    <tag k="addr:housenumber" v="136"/>
    <tag k="addr:postcode" v="12022"/>
    <tag k="addr:street" v="Via Laghi di Avigliana"/>
    <tag k="delivery" v="yes"/>
    <tag k="name" v="Cioccolateria Fagiolo - Peirano"/>
    <tag k="phone" v="+39 338 4196505;+39 338 9054745"/>
    <tag k="shop" v="pastry"/>
  </node>
  <node id="7323698009" lat="44.5153903" lon="7.4744335">
    <tag k="addr:city" v="Busca"/>
    <tag k="addr:housenumber" v="10"/>
    <tag k="addr:postcode" v="12022"/>
    <tag k="addr:street" v="Via Cesare Battisti"/>
    <tag k="delivery" v="yes"/>
    <tag k="name" v="Lavanderia Giletta Nadia"/>
    <tag k="phone" v="+39 347 3232134"/>
    <tag k="shop" v="dry_cleaning"/>
  </node>
  <node id="7323723321" lat="44.4984355" lon="7.4921619">
    <tag k="addr:city" v="Busca"/>
    <tag k="addr:housenumber" v="123"/>
    <tag k="addr:postcode" v="12022"/>
    <tag k="addr:street" v="Via Laghi di Avigliana"/>
    <tag k="contact:mobile" v="+39 335 5826732"/>
    <tag k="contact:phone" v="+39 0171 946080"/>
    <tag k="delivery" v="yes"/>
    <tag k="name" v="E.Z.A. DeLaval"/>
    <tag k="shop" v="pet"/>
    <tag k="website" v="https://www.ezasas.it/"/>
  </node>
  <node id="7323724927" lat="44.5146659" lon="7.4752449">
    <tag k="addr:city" v="Busca"/>
    <tag k="addr:housenumber" v="8"/>
    <tag k="addr:postcode" v="12022"/>
    <tag k="addr:street" v="Via Martiri della Libertà"/>
    <tag k="delivery" v="yes"/>
    <tag k="name" v="Aimar Elettrodomestici"/>
    <tag k="phone" v="+39 0171 945201"/>
    <tag k="phone:mobile" v="+39 335 6817081"/>
    <tag k="shop" v="electronics"/>
  </node>
  <node id="7340702212" lat="44.3727716" lon="7.6219819">
    <tag k="addr:city" v="Beinette"/>
    <tag k="addr:country" v="IT"/>
    <tag k="addr:housenumber" v="6"/>
    <tag k="addr:postcode" v="12081"/>
    <tag k="addr:street" v="Via Cuneo"/>
    <tag k="contact:mobile" v="+39 366 2044877"/>
    <tag k="contact:phone" v="+39 0171 384084"/>
    <tag k="delivery" v="yes"/>
    <tag k="description" v="Consegna gratuita da 19,99€, su Beinette per un raggio di 30 km. Consegna in 72 h."/>
    <tag k="name" v="Magazzino Mary JouèClub"/>
    <tag k="payment:cash" v="yes"/>
    <tag k="payment:satispay" v="yes"/>
    <tag k="shop" v="toys"/>
    <tag k="website" v="http://www.magazzinomary.it/"/>
  </node>
  <node id="7341307253" lat="44.6513374" lon="7.6559405">
    <tag k="delivery:covid19" v="yes"/>
    <tag k="name" v="Le Armonie del Gusto"/>
    <tag k="phone" v="+39 339 7789379"/>
    <tag k="shop" v="deli"/>
    <tag k="website" v="https://www.facebook.com/pg/Le-armonie-del-gusto-di-elvira-1932771050195337/"/>
  </node>
  <node id="7351764200" lat="44.5157965" lon="7.4779729">
    <tag k="addr:city" v="Busca"/>
    <tag k="addr:housenumber" v="2"/>
    <tag k="addr:postcode" v="12022"/>
    <tag k="addr:street" v="Corso Papa Giovanni Ventitreesimo"/>
    <tag k="contact:facebook" v="https://www.facebook.com/Le-torte-di-Mary-Jo-è-un-guinness-world-record-531683173642634/"/>
    <tag k="delivery" v="yes"/>
    <tag k="email" v="info@letortedimaryjo.it"/>
    <tag k="name" v="Le torte di Mary Jo"/>
    <tag k="phone" v="+39 334 7634722"/>
    <tag k="shop" v="pastry"/>
    <tag k="website" v="http://www.letortedimaryjo.it"/>
  </node>
  <node id="7364587717" lat="44.4400159" lon="7.5259207">
    <tag k="amenity" v="restaurant"/>
    <tag k="contact:facebook" v="https://www.facebook.com/Bufala-e-Basilico-_-Ristorante-Pizzeria-111012633773321/"/>
    <tag k="cuisine" v="pizza"/>
    <tag k="delivery" v="yes"/>
    <tag k="name" v="Bufala e Basilico"/>
    <tag k="phone" v="+39 0171 940753;+39 366 7462765"/>
  </node>
  <node id="7373286237" lat="44.3867664" lon="7.5439795">
    <tag k="addr:housenumber" v="27"/>
    <tag k="addr:street" v="Via Venti Settembre"/>
    <tag k="contact:mobile" v="+39 328 6171444"/>
    <tag k="delivery:covid19" v="yes"/>
    <tag k="fixme" v="position estimated"/>
    <tag k="name" v="Azienda Agricola F.lli Valenti"/>
    <tag k="shop" v="greengrocer"/>
  </node>
  <node id="7373286238" lat="44.3840169" lon="7.5407581">
    <tag k="addr:housenumber" v="47"/>
    <tag k="addr:street" v="Via Venti Settembre"/>
    <tag k="contact:mobile" v="+39 345 0451607"/>
    <tag k="contact:phone" v="+39 0171 681416"/>
    <tag k="delivery:covid19" v="yes"/>
    <tag k="fixme" v="position estimated"/>
    <tag k="name" v="Conca d'Oro Snc di Montersino Orazio e C."/>
    <tag k="shop" v="greengrocer"/>
  </node>
  <node id="7373358703" lat="44.3918430" lon="7.5498543">
    <tag k="addr:housenumber" v="52"/>
    <tag k="addr:street" v="Via Roma"/>
    <tag k="contact:email" v="info@alferoarredamento.it"/>
    <tag k="contact:mobile" v="+39 335 605563"/>
    <tag k="contact:phone" v="+39 0171 692589"/>
    <tag k="delivery:covid19" v="yes"/>
    <tag k="fixme" v="position estimated"/>
    <tag k="name" v="Alfero Arredamento Interni di Anna Maria Alfero"/>
    <tag k="shop" v="furniture"/>
  </node>
  <node id="7373391658" lat="44.3915161" lon="7.5689128">
    <tag k="addr:housenumber" v="47"/>
    <tag k="addr:street" v="Via Savona"/>
    <tag k="contact:facebook" v="https://www.facebook.com/Green-Grow-Lampade-di-Sale-Himalaya-1289693057753432/"/>
    <tag k="contact:mobile" v="+39 348 7039967"/>
    <tag k="contact:phone" v="+39 0171 401648"/>
    <tag k="contact:website" v="https://www.greenandgrow.it/"/>
    <tag k="delivery:covid19" v="yes"/>
    <tag k="fixme" v="position estimated"/>
    <tag k="name" v="Green &amp; Grow"/>
    <tag k="shop" v="chemist"/>
  </node>
  <node id="7375029743" lat="44.6462640" lon="7.6550876">
    <tag k="amenity" v="restaurant"/>
    <tag k="contact:facebook" v="https://www.facebook.com/taipeisavigliano/"/>
    <tag k="contact:mobile" v="+39 375 5368376"/>
    <tag k="contact:phone" v="+39 0172 726957"/>
    <tag k="delivery:covid19" v="yes"/>
    <tag k="name" v="Taipei"/>
  </node>
  <node id="7375029744" lat="44.6432608" lon="7.6567894">
    <tag k="contact:mobile" v="+39 340 5823508"/>
    <tag k="delivery:covid19" v="yes"/>
    <tag k="name" v="Cartolibreria Riva"/>
    <tag k="shop" v="stationery"/>
  </node>
  <node id="7375029745" lat="44.6485305" lon="7.6283741">
    <tag k="contact:facebook" v="https://www.facebook.com/FLORICOLTURAMONVISO/"/>
    <tag k="contact:mobile" v="+39 349 3940354;+39 347 8886314"/>
    <tag k="delivery:covid19" v="yes"/>
    <tag k="name" v="Floricoltura Monviso"/>
    <tag k="shop" v="garden_centre"/>
  </node>
  <node id="7375029746" lat="44.6453781" lon="7.6568457">
    <tag k="amenity" v="bar"/>
    <tag k="contact:mobile" v="+39 373 7571988"/>
    <tag k="delivery:covid19" v="yes"/>
    <tag k="name" v="Pelledoca Wine"/>
    <tag k="website" v="http://www.pelledoca.net/"/>
    <tag k="winery" v="yes"/>
  </node>
  <node id="7375029747" lat="44.6464748" lon="7.6561353">
    <tag k="contact:phone" v="+39 0172 712397"/>
    <tag k="delivery:covid19" v="yes"/>
    <tag k="name" v="Pasticceria Scarafia"/>
    <tag k="shop" v="pastry"/>
  </node>
  <node id="7375029748" lat="44.6481813" lon="7.6570400">
    <tag k="amenity" v="cafe"/>
    <tag k="contact:facebook" v="https://www.facebook.com/labelleepoquesavigliano"/>
    <tag k="contact:mobile" v="+39 393 9464425"/>
    <tag k="contact:phone" v="+39 0172 717242"/>
    <tag k="delivery:covid19" v="yes"/>
    <tag k="name" v="La Belle Epoque"/>
  </node>
  <node id="7375440500" lat="44.6404954" lon="7.6602602">
    <tag k="contact:facebook" v="https://www.facebook.com/la.baiottina.1"/>
    <tag k="contact:mobile" v="+39 335 7108279"/>
    <tag k="contact:phone" v="+39 0172 713361"/>
    <tag k="delivery:covid19" v="yes"/>
    <tag k="shop" v="garden_centre"/>
  </node>
  <node id="7375440501" lat="44.6487223" lon="7.6560226">
    <tag k="amenity" v="ice_cream"/>
    <tag k="contact:mobile" v="+39 349 2264324"/>
    <tag k="delivery:covid19" v="yes"/>
    <tag k="name" v="La Miriana al Buon Gelato"/>
  </node>
  <node id="7375440502" lat="44.6470636" lon="7.6578134">
    <tag k="contact:phone" v="+39 0172 31741"/>
    <tag k="delivery:covid19" v="yes"/>
    <tag k="name" v="Panetteria F.lli Calandra"/>
    <tag k="shop" v="bakery"/>
  </node>
  <node id="7375440503" lat="44.6472854" lon="7.6560257">
    <tag k="contact:mobile" v="+39 339 6000562"/>
    <tag k="contact:phone" v="+39 0172 711704"/>
    <tag k="delivery:covid19" v="yes"/>
    <tag k="name" v="Macelleria Gramaglia"/>
    <tag k="shop" v="butcher"/>
  </node>
  <node id="7375440504" lat="44.6469929" lon="7.6584229">
    <tag k="contact:mobile" v="+39 338 7300493"/>
    <tag k="delivery:covid19" v="yes"/>
    <tag k="name" v="Cartoleria Franco"/>
    <tag k="shop" v="stationery"/>
  </node>
  <node id="7376171298" lat="44.3601403" lon="7.6489052">
    <tag k="addr:housenumber" v="39"/>
    <tag k="addr:street" v="Via Circonvallazione"/>
    <tag k="contact:email" v="fabri.bongio75@gmail.com"/>
    <tag k="contact:facebook" v="https://www.facebook.com/woolstore3bf/"/>
    <tag k="contact:mobile" v="+39 339 1069744"/>
    <tag k="delivery:covid19" v="yes"/>
    <tag k="fixme" v="position estimated"/>
    <tag k="name" v="Wool Store 3BF"/>
    <tag k="operator" v="3BF di Bongiovanni Fabrizio &amp; C. S.N.C."/>
    <tag k="shop" v="sewing"/>
  </node>
  <node id="7398914053" lat="44.3196147" lon="7.5569225">
    <tag k="addr:housenumber" v="63"/>
    <tag k="addr:street" v="Via Roncaia"/>
    <tag k="clothes" v="women"/>
    <tag k="contact:email" v="giuliano.eli75@gmail.com"/>
    <tag k="contact:mobile" v="+39 349 4648350"/>
    <tag k="delivery:covid19" v="yes"/>
    <tag k="fixme" v="position estimated"/>
    <tag k="name" v="Eliana abbigliamento"/>
    <tag k="shop" v="clothes"/>
  </node>
  <node id="7398960821" lat="44.3327360" lon="7.5236868">
    <tag k="addr:city" v="Boves"/>
    <tag k="addr:country" v="IT"/>
    <tag k="addr:housenumber" v="125"/>
    <tag k="addr:postcode" v="12012"/>
    <tag k="addr:street" v="Via Santuario"/>
    <tag k="amenity" v="restaurant"/>
    <tag k="contact:email" v="info@hotelpolitano.it"/>
    <tag k="contact:phone" v="+39 0171 380383"/>
    <tag k="contact:website" v="https://www.hotelpolitano.it/"/>
    <tag k="cuisine" v="regional"/>
    <tag k="delivery:covid19" v="yes"/>
    <tag k="name" v="Hotel Ristorante Da Politano"/>
    <tag k="operator" v="Hotel Ristorante Da Politano S.N.C. di Politano Claudio &amp; C."/>
    <tag k="ref:vatin" v="IT00257620047"/>
    <tag k="rooms" v="8"/>
    <tag k="stars" v="3"/>
    <tag k="tourism" v="hotel"/>
  </node>
  <node id="7402554300" lat="44.3587018" lon="7.5166455">
    <tag k="addr:city" v="Cuneo"/>
    <tag k="addr:country" v="IT"/>
    <tag k="addr:housenumber" v="239"/>
    <tag k="addr:postcode" v="12100"/>
    <tag k="addr:street" v="Corso Francia"/>
    <tag k="brand" v="VeroCaffè"/>
    <tag k="contact:phone" v="+39 0171 344414"/>
    <tag k="contact:website" v="http://www.verocaffe.eu/"/>
    <tag k="delivery:covid19" v="yes"/>
    <tag k="description" v="Consegna a Cuneo, Borgo San Dalmazzo e limitrofi. Prenota lun-sab 9.30-13 e 14.30-18.30 chiamando il numero 0171 344414 La consegna del tuo ordine avverrà nella giornata di VENERDÌ. Ordine minimo 35€ - pagamento in contanti"/>
    <tag k="name" v="VeroCaffè - Cuneo"/>
    <tag k="opening_hours" v="Mo-Sa 09:30-13:00,14:30-19:30; Su 10:00-12:30,14:30-19:00"/>
    <tag k="shop" v="coffee"/>
  </node>
  <node id="7403282414" lat="44.4050994" lon="7.5455196">
    <tag k="addr:housenumber" v="3a"/>
    <tag k="addr:street" v="Via della Magnina"/>
    <tag k="amenity" v="restaurant"/>
    <tag k="contact:email" v="info@ilnanetto.it"/>
    <tag k="contact:facebook" v="https://www.facebook.com/ilnanetto.ristorante/"/>
    <tag k="contact:mobile" v="+39 392 0404100"/>
    <tag k="contact:website" v="https://www.cristalhotelcuneo.it/ristorante/"/>
    <tag k="delivery:covid19" v="yes"/>
    <tag k="name" v="Il Nanetto"/>
    <tag k="opening_hours" v="Mo-Fr 12:30-14:30,19:30-21:30"/>
    <tag k="operator" v="Il Nanetto Ristorante by Nano S.r.l."/>
  </node>
  <node id="7404309379" lat="44.3912699" lon="7.5635972">
    <tag k="addr:housenumber" v="12"/>
    <tag k="addr:postcode" v="12100"/>
    <tag k="addr:street" v="Via Savona"/>
    <tag k="contact:email" v="info@erboristeria-artiano.com"/>
    <tag k="contact:phone" v="+39 0171 500638"/>
    <tag k="delivery:covid19" v="yes"/>
    <tag k="fixme" v="adjust position"/>
    <tag k="name" v="Erboristeria Dott.ssa Artiano"/>
    <tag k="shop" v="herbalist"/>
  </node>
  <node id="7406218841" lat="44.3351846" lon="7.4710486">
    <tag k="addr:housenumber" v="148"/>
    <tag k="addr:street" v="Corso Mazzini"/>
    <tag k="contact:email" v="info@ipiaceridelgusto.it"/>
    <tag k="contact:facebook" v="https://www.facebook.com/funghietartufi/"/>
    <tag k="contact:phone" v="+39 0171 266189"/>
    <tag k="contact:website" v="https://www.inaudi.com/"/>
    <tag k="delivery:covid19" v="yes"/>
    <tag k="name" v="Inaudi - i Piaceri del Gusto"/>
    <tag k="shop" v="deli"/>
  </node>
  <node id="7415039669" lat="44.3857745" lon="7.5422038">
    <tag k="addr:housenumber" v="11"/>
    <tag k="addr:street" v="Via Sebastiano Grandis"/>
    <tag k="contact:mobile" v="+39 349 3105942"/>
    <tag k="contact:phone" v="+39 0171 696200"/>
    <tag k="delivery:covid19" v="yes"/>
    <tag k="name" v="Delices du plat d'etain"/>
    <tag k="opening_hours" v="Tu-Sa 09:00-13:00"/>
    <tag k="operator" v="Fino Alessandra"/>
    <tag k="shop" v="deli"/>
  </node>
  <node id="7415053014" lat="44.4223377" lon="7.5440492">
    <tag k="addr:housenumber" v="99"/>
    <tag k="addr:street" v="Via Valle Po"/>
    <tag k="amenity" v="cafe"/>
    <tag k="contact:mobile" v="+39 335 5430188"/>
    <tag k="contact:phone" v="+39 0171 412294"/>
    <tag k="delivery:covid19" v="yes"/>
    <tag k="name" v="Il Podio Cafè"/>
    <tag k="operator" v="Bertero Mirella"/>
  </node>
  <node id="7415127960" lat="44.3669057" lon="7.5242843">
    <tag k="addr:housenumber" v="96"/>
    <tag k="addr:street" v="Corso Francia"/>
    <tag k="contact:email" v="maxi.incasso@cuneo.it"/>
    <tag k="contact:mobile" v="+39 348 8109107"/>
    <tag k="contact:phone" v="+39 0171 493467"/>
    <tag k="contact:website" v="https://www.maxielettrodomestici.com/"/>
    <tag k="delivery:covid19" v="yes"/>
    <tag k="name" v="Maxi"/>
    <tag k="shop" v="appliance"/>
  </node>
  <node id="7416648104" lat="44.5917716" lon="7.6557661">
    <tag k="addr:city" v="Genola"/>
    <tag k="addr:country" v="IT"/>
    <tag k="addr:housenumber" v="8a"/>
    <tag k="addr:postcode" v="12040"/>
    <tag k="addr:street" v="Via Garetta"/>
    <tag k="contact:email" v="ordini@lagranda.it"/>
    <tag k="contact:phone" v="+39 0172 726178"/>
    <tag k="contact:website" v="https://www.lagranda.it/"/>
    <tag k="delivery:covid19" v="yes"/>
    <tag k="name" v="La Granda Srl"/>
    <tag k="opening_hours" v="Mo-Fr 08:30-12:30,14:30-18:00; Sa 08:30-12:00"/>
    <tag k="ref:vatin" v="IT03001340045"/>
    <tag k="shop" v="butcher"/>
  </node>
  <node id="7416675736" lat="44.4730835" lon="7.5095714">
    <tag k="addr:city" v="Tarantasca - Frazione San Chiaffredo"/>
    <tag k="addr:housenumber" v="50"/>
    <tag k="addr:postcode" v="12020"/>
    <tag k="addr:street" v="Via Laghi di Avigliana"/>
    <tag k="delivery" v="yes"/>
    <tag k="description" v="Generi alimentari vari (carne, salumi, formaggi, vino, farine, pasta fresca)."/>
    <tag k="email" v="info@zuccoalimentari.it"/>
    <tag k="name" v="Zucco Alimentari di Zucco Antonio"/>
    <tag k="phone" v="+39 0171 411759"/>
    <tag k="shop" v="wholesale"/>
    <tag k="website" v="www.zuccoalimentari.it"/>
    <tag k="wholesale" v="food"/>
  </node>
  <way id="341906477">
    <nd ref="3489695897"/>
    <nd ref="3489695698"/>
    <nd ref="3489695717"/>
    <nd ref="3489695718"/>
    <nd ref="3489695746"/>
    <nd ref="3489695906"/>
    <nd ref="3489695914"/>
    <nd ref="3489695897"/>
    <tag k="addr:housenumber" v="79"/>
    <tag k="addr:place" v="Paschera San Defendente"/>
    <tag k="delivery" v="yes"/>
    <tag k="email" v="direzionecommercialemoris@gmail.com"/>
    <tag k="landuse" v="farmyard"/>
    <tag k="name" v="Caseificio Moris"/>
    <tag k="phone" v="+39 349 3449540"/>
    <tag k="ref:vatin" v="IT02890860048"/>
    <tag k="shop" v="dairy"/>
    <tag k="website" v="https://www.caseificiomoris.it/"/>
  </way>
  <way id="469106889">
    <nd ref="4635088463"/>
    <nd ref="4635088462"/>
    <nd ref="4635088461"/>
    <nd ref="4635088460"/>
    <nd ref="4635088459"/>
    <nd ref="4635088458"/>
    <nd ref="4635088463"/>
    <tag k="addr:city" v="Ceretto"/>
    <tag k="addr:housenumber" v="95"/>
    <tag k="addr:postcode" v="12022"/>
    <tag k="addr:street" v="Via Antica di Costigliole"/>
    <tag k="delivery" v="yes"/>
    <tag k="description" v="Vini tipici locali, succhi di mela, frutta e verdura di stagione."/>
    <tag k="landuse" v="farmyard"/>
    <tag k="name" v="Azienda agricola Fornero Andrea"/>
    <tag k="phone" v="+39 324 6126325"/>
    <tag k="shop" v="farm"/>
  </way>
  <way id="781539585">
    <nd ref="7296747547"/>
    <nd ref="7296747546"/>
    <nd ref="7296747545"/>
    <nd ref="7296747544"/>
    <nd ref="7296747543"/>
    <nd ref="7296747542"/>
    <nd ref="7296747541"/>
    <nd ref="7296747540"/>
    <nd ref="7296747539"/>
    <nd ref="7296747538"/>
    <nd ref="7296747537"/>
    <nd ref="7296747547"/>
    <tag k="addr:housenumber" v="15"/>
    <tag k="addr:street" v="Via Traversagna"/>
    <tag k="contact:facebook" v="https://www.facebook.com/mangiargenuino/"/>
    <tag k="delivery" v="yes"/>
    <tag k="landuse" v="farmyard"/>
    <tag k="name" v="Azienda Agricola Marchisio Pietro"/>
    <tag k="opening_hours" v="Mo-Th 15:00-19:30; We 09:30-19:30; Sa 09:30-12:30,15:00-19:00"/>
    <tag k="phone:mobile" v="+39 340 7977519"/>
    <tag k="shop" v="farm"/>
    <tag k="website" v="https://marchisiopietroboves.com/"/>
  </way>

</osm>
