<?xml version='1.0' encoding='UTF-8'?>
<osm version="0.6" generator="osmfilter 1.4.4">
	<node id="1537464582" lat="44.4170723" lon="7.4280646">
		<tag k="addr:city" v="Caraglio"/>
		<tag k="addr:housenumber" v="16"/>
		<tag k="addr:postcode" v="12023"/>
		<tag k="addr:street" v="Piazza Cavour"/>
		<tag k="delivery" v="yes"/>
		<tag k="email" v="calzature.giraudo@gmail.com"/>
		<tag k="name" v="Giraudo Calzature"/>
		<tag k="operator" v="Giraudo Mara"/>
		<tag k="payment:cash" v="yes"/>
		<tag k="phone" v="+39 0171 618995"/>
		<tag k="phone:mobile" v="+39 327 3139436"/>
		<tag k="ref:vatin" v="IT03687300040"/>
		<tag k="shop" v="shoes"/>
		<tag k="website" v="https://www.calzaturegiraudo.it/"/>
	</node>
	<node id="6173030845" lat="44.3838343" lon="7.5409787">
		<tag k="addr:housenumber" v="16"/>
		<tag k="addr:street" v="Piazza Europa"/>
		<tag k="clothes" v="underwear"/>
		<tag k="contact:facebook" v="https://www.facebook.com/bruna.intimomerceria/"/>
		<tag k="delivery" v="yes"/>
		<tag k="name" v="Bruna"/>
		<tag k="shop" v="clothes"/>
	</node>
	<node id="6269281647" lat="44.3926938" lon="7.5511563">
		<tag k="addr:housenumber" v="25"/>
		<tag k="addr:street" v="Via Roma"/>
		<tag k="delivery" v="yes"/>
		<tag k="description" v="Abbigliamento 8-18 anni"/>
		<tag k="email" v="puntoevirgola1@gmail.com"/>
		<tag k="name" v="Fashion Punto e Virgola"/>
		<tag k="phone" v="+39 0171 1723046"/>
		<tag k="shop" v="clothes"/>
	</node>
	<node id="6327521794" lat="44.3867498" lon="7.5439233">
		<tag k="addr:housenumber" v="29"/>
		<tag k="addr:street" v="Via Carlo Emanuele Terzo"/>
		<tag k="clothes" v="underwear"/>
		<tag k="contact:email" v="carlotta.bruno71@gmail.com"/>
		<tag k="contact:mobile" v="+39 338 4582569"/>
		<tag k="delivery:covid19" v="yes"/>
		<tag k="name" v="Lingerie Charlotte"/>
		<tag k="shop" v="clothes"/>
	</node>
	<node id="6327521798" lat="44.3869163" lon="7.5441046">
		<tag k="addr:housenumber" v="25"/>
		<tag k="addr:street" v="Via Carlo Emanuele Terzo"/>
		<tag k="clothes" v="children"/>
		<tag k="contact:email" v="minimecuneo@gmail.com"/>
		<tag k="contact:mobile" v="+39 328 2154877"/>
		<tag k="delivery:covid19" v="yes"/>
		<tag k="description" v="Abbigliamento bambini 2/16 anni"/>
		<tag k="name" v="Minimé"/>
		<tag k="shop" v="clothes"/>
	</node>
	<node id="6327521799" lat="44.3868565" lon="7.5440384">
		<tag k="addr:housenumber" v="27"/>
		<tag k="addr:street" v="Via Carlo Emanuele Terzo"/>
		<tag k="clothes" v="children"/>
		<tag k="contact:email" v="naturalmente-mamma@libero.it"/>
		<tag k="contact:instagram" v="https://www.instagram.com/naturalmente_mammacuneo/"/>
		<tag k="contact:mobile" v="+39 328 8593094"/>
		<tag k="delivery:covid19" v="yes"/>
		<tag k="description" v="Abbigliamento 0-16"/>
		<tag k="name" v="Naturalmente Mamma"/>
		<tag k="operator" v="Naturalmente Mamma di Atena Società Cooperativa"/>
		<tag k="shop" v="clothes"/>
	</node>
	<node id="6373575518" lat="44.386341" lon="7.5395002">
		<tag k="addr:housenumber" v="26"/>
		<tag k="addr:street" v="Corso Giovanni Giolitti"/>
		<tag k="clothes" v="children"/>
		<tag k="contact:email" v="sarabanda.cn@libero.it"/>
		<tag k="contact:mobile" v="+39 392 6166897"/>
		<tag k="delivery:covid19" v="yes"/>
		<tag k="description" v="Abbigliamento 0-16"/>
		<tag k="name" v="Sarabanda"/>
		<tag k="shop" v="clothes"/>
	</node>
	<node id="6418919225" lat="44.3923483" lon="7.5515475">
		<tag k="addr:housenumber" v="6"/>
		<tag k="addr:street" v="Via Mondovì"/>
		<tag k="contact:email" v="valentinafreda@libero.it"/>
		<tag k="contact:facebook" v="https://www.facebook.com/BANTIENVALE/"/>
		<tag k="contact:mobile" v="+39 349 311841"/>
		<tag k="delivery:covid19" v="yes"/>
		<tag k="name" v="Ban Tien"/>
		<tag k="shop" v="clothes"/>
	</node>
	<node id="6578479217" lat="44.3939953" lon="7.5508912">
		<tag k="contact:mobile" v="+39 340 9774923"/>
		<tag k="contact:phone" v="+39 0171 695565"/>
		<tag k="delivery" v="yes"/>
		<tag k="description" v="Consegna gratuita."/>
		<tag k="name" v="Sandra Calzature"/>
		<tag k="shop" v="shoes"/>
	</node>
	<node id="6673724204" lat="44.3479457" lon="7.5078869">
		<tag k="clothes" v="underwear"/>
		<tag k="delivery" v="yes"/>
		<tag k="name" v="Intimania"/>
		<tag k="shop" v="clothes"/>
	</node>
	<node id="6832217141" lat="44.412377" lon="7.5496198">
		<tag k="addr:housenumber" v="11"/>
		<tag k="addr:street" v="Via della Battaglia"/>
		<tag k="clothes" v="babies;underwear"/>
		<tag k="contact:mobile" v="+39 331 2353633;+39 333 8940999"/>
		<tag k="delivery:covid19" v="yes"/>
		<tag k="name" v="Merceria Mellano"/>
		<tag k="operator" v="Mellano snc di Mellano Giancarla e Mariagrazia"/>
		<tag k="shop" v="clothes"/>
	</node>
	<node id="7015863355" lat="44.4184" lon="7.4302023">
		<tag k="addr:city" v="Caraglio"/>
		<tag k="addr:housenumber" v="7"/>
		<tag k="addr:postcode" v="12023"/>
		<tag k="addr:street" v="Piazza Garibaldi"/>
		<tag k="clothes" v="children"/>
		<tag k="contact:facebook" v="https://www.facebook.com/PuntoeVirgolaCaraglio/"/>
		<tag k="delivery" v="yes"/>
		<tag k="description" v="Nato per soddisfare le esigenze dei più piccoli dalla prima infanzia e abitini fino ai 7 anni. Con il tempo è cresciuto con abbigliamento fino ai 18 anni!"/>
		<tag k="name" v="Punto e Virgola"/>
		<tag k="opening_hours" v="Tu-Sa 09:00-12:30,15:30-19:30; Su 09:00-12:30"/>
		<tag k="payment:cash" v="yes"/>
		<tag k="payment:credit_cards" v="yes"/>
		<tag k="phone" v="+39 0171 619709"/>
		<tag k="phone:mobile" v="+39 338 6970816"/>
		<tag k="shop" v="clothes"/>
	</node>
	<node id="7296142267" lat="44.4176874" lon="7.4288578">
		<tag k="delivery" v="yes"/>
		<tag k="fixme" v="adjust position"/>
		<tag k="name" v="L&#39;intimo"/>
		<tag k="operator" v="Delfino Antonella"/>
		<tag k="phone" v="+39 333 4508183"/>
		<tag k="shop" v="clothes"/>
	</node>
	<node id="7398914053" lat="44.3196147" lon="7.5569225">
		<tag k="addr:housenumber" v="63"/>
		<tag k="addr:street" v="Via Roncaia"/>
		<tag k="clothes" v="women"/>
		<tag k="contact:email" v="giuliano.eli75@gmail.com"/>
		<tag k="contact:mobile" v="+39 349 4648350"/>
		<tag k="delivery:covid19" v="yes"/>
		<tag k="fixme" v="position estimated"/>
		<tag k="name" v="Eliana abbigliamento"/>
		<tag k="shop" v="clothes"/>
	</node>
</osm>
