<?xml version='1.0' encoding='UTF-8'?>
<osm version="0.6" generator="osmfilter 1.4.4">
	<node id="1893571565" lat="44.4952613" lon="7.5413183">
		<tag k="addr:city" v="Tarantasca"/>
		<tag k="addr:housenumber" v="12"/>
		<tag k="addr:postcode" v="12020"/>
		<tag k="addr:street" v="Via Luigi Pirandello"/>
		<tag k="delivery" v="yes"/>
		<tag k="name" v="Barbero Ferramenta di Fabrizio Barbero"/>
		<tag k="phone" v="+39 0171 931541"/>
		<tag k="shop" v="hardware"/>
	</node>
	<node id="1925933943" lat="44.3832517" lon="7.540414">
		<tag k="addr:housenumber" v="24"/>
		<tag k="addr:street" v="Corso Annibale Santorre di Santarosa"/>
		<tag k="contact:facebook" v="https://www.facebook.com/Giocheria-Cuneo-893405140693390/"/>
		<tag k="contact:mobile" v="+39 349 4018605"/>
		<tag k="contact:phone" v="+39 0171 694233"/>
		<tag k="delivery:covid19" v="yes"/>
		<tag k="name" v="Giocheria"/>
		<tag k="shop" v="toys"/>
	</node>
	<node id="2412584584" lat="44.3839017" lon="7.542549">
		<tag k="addr:housenumber" v="3"/>
		<tag k="addr:street" v="Piazza Europa"/>
		<tag k="delivery" v="yes"/>
		<tag k="description" v="Consegna su Cuneo gratuita con un ordine minimo di €20. Altrimenti €2 a consegna. Spedizione 7 gg su 7 tra le 12:00 e le 20:00"/>
		<tag k="name" v="L&#39;Ippogrifo"/>
		<tag k="payment:paypal" v="yes"/>
		<tag k="payment:satispay" v="yes"/>
		<tag k="payment:wire_transfer" v="yes"/>
		<tag k="phone" v="+39 0171 67331"/>
		<tag k="shop" v="books"/>
	</node>
	<node id="2956158078" lat="44.3912934" lon="7.5526704">
		<tag k="addr:housenumber" v="18"/>
		<tag k="addr:street" v="Lungogesso Papa Giovanni Ventitreesimo"/>
		<tag k="contact:email" v="info@labottegadellabicicletta.it"/>
		<tag k="contact:facebook" v="https://www.facebook.com/labottegadellabiciclettadal1902/"/>
		<tag k="contact:phone" v="+39 0171 66213"/>
		<tag k="contact:website" v="http://labottegadellabicicletta.it/"/>
		<tag k="delivery:covid19" v="yes"/>
		<tag k="name" v="La Bottega della Bicicletta"/>
		<tag k="service:bicycle:repair" v="yes"/>
		<tag k="service:bicycle:retail" v="yes"/>
		<tag k="shop" v="bicycle"/>
	</node>
	<node id="3449288500" lat="44.4773969" lon="7.5068936">
		<tag k="addr:city" v="San Chiaffredo Tarantasca"/>
		<tag k="addr:housenumber" v="18"/>
		<tag k="addr:street" v="Via Laghi di Avigliana"/>
		<tag k="agrarian" v="feed;seed"/>
		<tag k="delivery" v="yes"/>
		<tag k="name" v="El Granatin di Enzo Corrado"/>
		<tag k="shop" v="agrarian"/>
	</node>
	<node id="4196772617" lat="44.3794505" lon="7.5380763">
		<tag k="addr:housenumber" v="1"/>
		<tag k="addr:street" v="Via Paralup"/>
		<tag k="contact:email" v="annalisa.zavattaro@gmail.com"/>
		<tag k="contact:facebook" v="https://www.facebook.com/Idee-in-Testa-Cuneo-187811451349439/"/>
		<tag k="contact:instagram" v="https://www.instagram.com/_idee_in_testa_/"/>
		<tag k="contact:phone" v="+39 0171 690867"/>
		<tag k="delivery:covid19" v="yes"/>
		<tag k="name" v="Idee in Testa"/>
		<tag k="shop" v="hairdresser"/>
		<tag k="unisex" v="yes"/>
	</node>
	<node id="5839870389" lat="44.4186901" lon="7.4331295">
		<tag k="delivery" v="yes"/>
		<tag k="name" v="Edicola Mandile Simona"/>
		<tag k="phone:mobile" v="+39 339 2531361"/>
		<tag k="shop" v="tobacco"/>
	</node>
	<node id="6017261042" lat="44.38108" lon="7.545091">
		<tag k="addr:housenumber" v="63"/>
		<tag k="addr:street" v="Corso Annibale Santorre di Santarosa"/>
		<tag k="contact:email" v="ruotaliberacuneo@gmail.com"/>
		<tag k="contact:mobile" v="+39 334 2275938"/>
		<tag k="delivery:covid19" v="yes"/>
		<tag k="name" v="Ruota Libera"/>
		<tag k="shop" v="bicycle"/>
	</node>
	<node id="6058231448" lat="44.389826" lon="7.5491263">
		<tag k="addr:housenumber" v="1"/>
		<tag k="addr:street" v="Piazza Tancredi Galimberti"/>
		<tag k="contact:email" v="mondadori.cuneostore@gmail.com"/>
		<tag k="delivery" v="yes"/>
		<tag k="description" v="Scrivi una mail indicando i titoli desiderati e l&#39;indirizzo per la spedizione.  PAGAMENTI: - SATISPAY sul numero di cellulare 331.6869763 -CARTA DOCENTE; -APP18; BONIFICO ord, IBAN: IT90H0845010201000000007502 - Banca Alpi Marittime - Ag. Cuneo 2"/>
		<tag k="name" v="Mondadori Bookstore"/>
		<tag k="shop" v="books"/>
	</node>
	<node id="6173168601" lat="44.3870001" lon="7.5443822">
		<tag k="addr:housenumber" v="5"/>
		<tag k="addr:street" v="Via Felice Cavallotti"/>
		<tag k="contact:phone" v="+39 0171 681458"/>
		<tag k="delivery:covid19" v="yes"/>
		<tag k="name" v="Stella Maris"/>
		<tag k="shop" v="books"/>
	</node>
	<node id="6187982140" lat="44.3917432" lon="7.5497818">
		<tag k="addr:housenumber" v="56"/>
		<tag k="addr:street" v="Via Roma"/>
		<tag k="delivery" v="yes"/>
		<tag k="description" v="Consegna su Cuneo e frazioni."/>
		<tag k="email" v="calcagno.cn@gmail.com"/>
		<tag k="name" v="Calcagno"/>
		<tag k="payment:cash" v="yes"/>
		<tag k="payment:satispay" v="yes"/>
		<tag k="phone" v="+39 0171 692576"/>
		<tag k="shop" v="stationery"/>
	</node>
	<node id="6220848366" lat="44.3912151" lon="7.5497127">
		<tag k="addr:housenumber" v="43"/>
		<tag k="addr:street" v="Via Roma"/>
		<tag k="contact:email" v="info@panicuneo.it"/>
		<tag k="contact:mobile" v="+39 329 1480432"/>
		<tag k="contact:phone" v="+39 0171 690946"/>
		<tag k="delivery:covid19" v="yes"/>
		<tag k="name" v="Pani"/>
		<tag k="shop" v="stationery"/>
	</node>
	<node id="6239738308" lat="44.3920679" lon="7.5505218">
		<tag k="addr:housenumber" v="35"/>
		<tag k="addr:street" v="Via Roma"/>
		<tag k="contact:email" v="info@mammaorsacuneo.it"/>
		<tag k="contact:facebook" v="https://www.facebook.com/MammaOrsaCuneo/"/>
		<tag k="contact:phone" v="+39 0171 693490"/>
		<tag k="delivery" v="yes"/>
		<tag k="description" v="Consegna gratuita dai 19,90€, nel raggio di 30 km da Cuneo. Cuneo in giornata; Fuori Cuneo entro 48 ore."/>
		<tag k="name" v="Mamma orsa"/>
		<tag k="payment:cash" v="yes"/>
		<tag k="payment:satispay" v="yes"/>
		<tag k="payment:wire_transfer" v="yes"/>
		<tag k="shop" v="baby_goods"/>
	</node>
	<node id="6327521793" lat="44.3871804" lon="7.5440381">
		<tag k="addr:housenumber" v="7"/>
		<tag k="addr:street" v="Via Felice Cavallotti"/>
		<tag k="contact:email" v="incasa.pam@libero.it"/>
		<tag k="contact:mobile" v="+39 392 1425853"/>
		<tag k="delivery:covid19" v="yes"/>
		<tag k="name" v="In Casa &#38; Pam"/>
		<tag k="shop" v="houseware"/>
	</node>
	<node id="6328512680" lat="44.3929528" lon="7.5469005">
		<tag k="addr:housenumber" v="20"/>
		<tag k="addr:street" v="Via Caraglio"/>
		<tag k="contact:email" v="faro.copisteria@gmail.com"/>
		<tag k="contact:mobile" v="+39 346 3571576"/>
		<tag k="delivery:covid19" v="yes"/>
		<tag k="name" v="Faro Copisteria"/>
		<tag k="shop" v="copyshop"/>
	</node>
	<node id="6418937919" lat="44.392319" lon="7.5523919">
		<tag k="addr:housenumber" v="13"/>
		<tag k="addr:street" v="Via Mondovì"/>
		<tag k="contact:mobile" v="+39 347 7313496"/>
		<tag k="contact:phone" v="+39 0171 070182"/>
		<tag k="delivery" v="yes"/>
		<tag k="name" v="Magnolia"/>
		<tag k="shop" v="perfumery"/>
	</node>
	<node id="6420525774" lat="44.3834075" lon="7.5380787">
		<tag k="addr:housenumber" v="38"/>
		<tag k="addr:street" v="Via Quintino Sella"/>
		<tag k="contact:email" v="info@fuoritempo.net"/>
		<tag k="contact:phone" v="+39 0171 697109"/>
		<tag k="contact:website" v="http://www.fuoritempo.net"/>
		<tag k="delivery:covid19" v="yes"/>
		<tag k="name" v="Fuoritempo"/>
		<tag k="shop" v="musical_instrument"/>
	</node>
	<node id="6542763916" lat="44.3784965" lon="7.5355383">
		<tag k="addr:housenumber" v="10"/>
		<tag k="addr:street" v="Via Luigi Einaudi"/>
		<tag k="contact:email" v="info@grandamodels.it"/>
		<tag k="contact:mobile" v="+39 320 6449265"/>
		<tag k="contact:website" v="http://www.grandamodels.it"/>
		<tag k="delivery:covid19" v="yes"/>
		<tag k="description" v="Commercio al dettaglio di giochi educativi, giocattoli e articoli di modellismo, computer (hardware e software), unità periferiche, assistenza software"/>
		<tag k="name" v="Granda Models Cuneo"/>
		<tag k="operator" v="G.M.C. S.A.S. di Gallo Franco &#38; C."/>
		<tag k="shop" v="model"/>
	</node>
	<node id="6565728579" lat="44.3928469" lon="7.5513522">
		<tag k="addr:housenumber" v="23"/>
		<tag k="addr:street" v="Via Roma"/>
		<tag k="contact:email" v="cuneo@101caffe.it"/>
		<tag k="contact:mobile" v="+39 346 6328081"/>
		<tag k="delivery:covid19" v="yes"/>
		<tag k="name" v="101 caffè"/>
		<tag k="shop" v="coffee"/>
	</node>
	<node id="6578445381" lat="44.3935395" lon="7.549187">
		<tag k="addr:housenumber" v="16"/>
		<tag k="addr:street" v="Via Santa Croce"/>
		<tag k="contact:email" v="ninfeocuneo@gmail.com"/>
		<tag k="contact:mobile" v="+39 391 7655455"/>
		<tag k="delivery" v="yes"/>
		<tag k="name" v="Il ninfeo"/>
		<tag k="shop" v="beauty"/>
	</node>
	<node id="6635193476" lat="44.3926462" lon="7.5510912">
		<tag k="addr:housenumber" v="27"/>
		<tag k="addr:street" v="Via Roma"/>
		<tag k="delivery" v="yes"/>
		<tag k="email" v="dadybooks@libero.it"/>
		<tag k="name" v="Gulliver&#39;s"/>
		<tag k="phone" v="+39 329 4199539"/>
		<tag k="shop" v="books"/>
	</node>
	<node id="6696715650" lat="44.382188" lon="7.5408831">
		<tag k="addr:city" v="Cuneo"/>
		<tag k="addr:housenumber" v="2"/>
		<tag k="addr:postcode" v="12100"/>
		<tag k="addr:street" v="Via Antonio Stoppani"/>
		<tag k="contact:mobile" v="+39 335 7067241"/>
		<tag k="delivery:covid19" v="yes"/>
		<tag k="name" v="Bioprofumeria - Bio e Vegan"/>
		<tag k="opening_hours" v="Mo 15:30-19:30; Tu-Sa 09:00-12:30,15:30-19:30"/>
		<tag k="operator" v="Bio e Vegan di Mikulska Malgorzata Dorota"/>
		<tag k="ref:vatin" v="IT03605590045"/>
		<tag k="shop" v="perfumery"/>
	</node>
	<node id="6854314007" lat="44.3795136" lon="7.5297222">
		<tag k="addr:city" v="Cuneo"/>
		<tag k="addr:housenumber" v="21"/>
		<tag k="addr:postcode" v="12100"/>
		<tag k="addr:street" v="Corso Alcide De Gasperi"/>
		<tag k="delivery" v="yes"/>
		<tag k="name" v="Nutrimind"/>
		<tag k="opening_hours" v="Mo 14:00-19:00; Tu-Sa 10:00-19:00"/>
		<tag k="phone" v="+39 320 6017904"/>
		<tag k="shop" v="nutrition_supplements"/>
	</node>
	<node id="6872671494" lat="44.3874961" lon="7.5408009">
		<tag k="addr:housenumber" v="1"/>
		<tag k="addr:street" v="Via Silvio Pellico"/>
		<tag k="contact:email" v="info@bottegaludica.it"/>
		<tag k="contact:facebook" v="https://www.facebook.com/BottegaLudica/"/>
		<tag k="contact:mobile" v="+39 347 9646610"/>
		<tag k="delivery:covid19" v="yes"/>
		<tag k="name" v="Bottega Ludica"/>
		<tag k="opening_hours" v="Tu 08:30-13:00; Mo-Sa 15:30-20:00; Sa 10:00-13:00"/>
		<tag k="shop" v="toys"/>
	</node>
	<node id="6895003185" lat="44.4169038" lon="7.4261698">
		<tag k="addr:housenumber" v="11"/>
		<tag k="addr:street" v="Via Roma"/>
		<tag k="contact:facebook" v="https://www.facebook.com/libreria.passpartout/"/>
		<tag k="delivery" v="yes"/>
		<tag k="email" v="passpartout.caraglio@libero.it"/>
		<tag k="name" v="Libreria Passpartout"/>
		<tag k="opening_hours" v="Mo-Sa 09:30-12:30,16:00-19:30; Su 09:30-19:30"/>
		<tag k="phone:mobile" v="+39 320 1848224"/>
		<tag k="shop" v="books"/>
	</node>
	<node id="7009189985" lat="44.4180132" lon="7.4301378">
		<tag k="addr:city" v="Caraglio"/>
		<tag k="addr:housenumber" v="153"/>
		<tag k="addr:postcode" v="12023"/>
		<tag k="addr:street" v="Via Roma"/>
		<tag k="delivery" v="yes"/>
		<tag k="name" v="Tabaccheria Mo.Ni.Ca."/>
		<tag k="opening_hours" v="Mo-Sa 07:30-12:30,14:00-19:30"/>
		<tag k="payment:cash" v="yes"/>
		<tag k="payment:satispay" v="yes"/>
		<tag k="phone" v="+39 0171 619409"/>
		<tag k="phone:mobile" v="+39 345 9223238"/>
		<tag k="shop" v="tobacco"/>
	</node>
	<node id="7170633530" lat="44.4184085" lon="7.4308842">
		<tag k="addr:housenumber" v="152"/>
		<tag k="addr:street" v="Via Roma"/>
		<tag k="delivery" v="yes"/>
		<tag k="name" v="Il mondo di Laura"/>
		<tag k="opening_hours" v="Tu-Sa 09:00-12:30,15:30-19:30; Su 09:30-12:30"/>
		<tag k="operator" v="Laura Di Garelli"/>
		<tag k="payment:american_express" v="yes"/>
		<tag k="payment:cash" v="yes"/>
		<tag k="payment:maestro" v="yes"/>
		<tag k="payment:mastercard" v="yes"/>
		<tag k="payment:visa" v="yes"/>
		<tag k="phone" v="+39 0171 619500"/>
		<tag k="phone:mobile" v="+39 347 6828743"/>
		<tag k="shop" v="sewing"/>
	</node>
	<node id="7287719731" lat="44.5145092" lon="7.4732538">
		<tag k="addr:housenumber" v="2"/>
		<tag k="addr:street" v="Piazza Regina Margherita"/>
		<tag k="delivery" v="yes"/>
		<tag k="email" v="info@otticainvista.com"/>
		<tag k="name" v="Ottica in Vista"/>
		<tag k="phone" v="+39 0171 943461"/>
		<tag k="phone:mobile" v="+39 331 9612090"/>
		<tag k="ref:vatin" v="IT03114430048"/>
		<tag k="shop" v="optician"/>
		<tag k="website" v="http://www.otticainvista.com/"/>
	</node>
	<node id="7295079936" lat="44.4179601" lon="7.4290334">
		<tag k="delivery" v="yes"/>
		<tag k="name" v="Casalinghi Ex Parola"/>
		<tag k="phone:mobile" v="+39 339 3104858"/>
		<tag k="shop" v="houseware"/>
	</node>
	<node id="7295160828" lat="44.4170837" lon="7.4273602">
		<tag k="delivery" v="yes"/>
		<tag k="fixme" v="position estimated"/>
		<tag k="name" v="Ferramenta Armando"/>
		<tag k="phone:mobile" v="+39 347 6011705"/>
		<tag k="shop" v="hardware"/>
	</node>
	<node id="7296203101" lat="44.4172274" lon="7.4277439">
		<tag k="delivery" v="yes"/>
		<tag k="fixme" v="adjust position"/>
		<tag k="name" v="La Piramide"/>
		<tag k="phone:mobile" v="+39 393 1829005"/>
		<tag k="shop" v="houseware"/>
	</node>
	<node id="7296207271" lat="44.4178987" lon="7.4295655">
		<tag k="delivery" v="yes"/>
		<tag k="fixme" v="adjust position"/>
		<tag k="name" v="Gioielleria Aretia"/>
		<tag k="phone" v="+39 327 0029130"/>
		<tag k="shop" v="jewelry"/>
	</node>
	<node id="7296208692" lat="44.4168948" lon="7.4283386">
		<tag k="delivery" v="yes"/>
		<tag k="fixme" v="adjust position"/>
		<tag k="name" v="Piemme"/>
		<tag k="phone" v="+39 347 8150625"/>
		<tag k="shop" v="curtain"/>
	</node>
	<node id="7307077948" lat="44.4956691" lon="7.5418681">
		<tag k="addr:city" v="Tarantasca"/>
		<tag k="addr:housenumber" v="3"/>
		<tag k="addr:postcode" v="12020"/>
		<tag k="addr:street" v="Via Alessandro Volta"/>
		<tag k="agrarian" v="feed;seed;pellet"/>
		<tag k="delivery" v="yes"/>
		<tag k="name" v="Daniele Francesco Granatin"/>
		<tag k="phone" v="+39 0171 931941"/>
		<tag k="shop" v="agrarian"/>
	</node>
	<node id="7307086791" lat="44.4938348" lon="7.5449743">
		<tag k="addr:city" v="Tarantasca"/>
		<tag k="addr:housenumber" v="15"/>
		<tag k="addr:postcode" v="12020"/>
		<tag k="addr:street" v="Via Vittorio Veneto"/>
		<tag k="delivery" v="yes"/>
		<tag k="name" v="Tabaccheria Nilva Galfré"/>
		<tag k="phone" v="+39 339 4346606"/>
		<tag k="shop" v="tobacco"/>
	</node>
	<node id="7310315792" lat="44.3917897" lon="7.545306">
		<tag k="addr:housenumber" v="7"/>
		<tag k="addr:street" v="Via Carlo Pascal"/>
		<tag k="delivery" v="yes"/>
		<tag k="description" v="Consegna quotidiano La Stampa"/>
		<tag k="email" v="stampain@nuvolariweb.com"/>
		<tag k="name" v="Stampa In"/>
		<tag k="office" v="delivery"/>
		<tag k="phone" v="+39 0171 695766"/>
	</node>
	<node id="7312852480" lat="44.6475134" lon="7.6550849">
		<tag k="delivery:covid19" v="yes"/>
		<tag k="name" v="Aroma Savigliano"/>
		<tag k="phone" v="+39 0172 373097"/>
		<tag k="shop" v="coffee"/>
		<tag k="website" v="http://www.aromavending.it/home/"/>
	</node>
	<node id="7315542852" lat="44.6504139" lon="7.6534018">
		<tag k="delivery" v="yes"/>
		<tag k="delivery:covid19" v="yes"/>
		<tag k="name" v="Tutto a domicilio"/>
		<tag k="office" v="delivery"/>
		<tag k="phone" v="+39 3711559108"/>
		<tag k="website" v="http://www.tuttoadomiciliocn.it/home/savigliano-2/"/>
	</node>
	<node id="7315542854" lat="44.6459754" lon="7.6479703">
		<tag k="delivery:covid19" v="yes"/>
		<tag k="name" v="Equinord"/>
		<tag k="phone" v="+39 348 7759619"/>
		<tag k="shop" v="sports"/>
		<tag k="sport" v="equestrian"/>
		<tag k="website" v="http://www.equinord.it/"/>
	</node>
	<node id="7315542855" lat="44.6469295" lon="7.6505747">
		<tag k="contact:mobile" v="+39 348 2448481"/>
		<tag k="delivery:covid19" v="yes"/>
		<tag k="name" v="Ci.erre ferramenta"/>
		<tag k="phone" v="+39 347 8830433"/>
		<tag k="shop" v="hardware"/>
		<tag k="website" v="http://www.cierreferramenta.com/"/>
	</node>
	<node id="7323698009" lat="44.5153903" lon="7.4744335">
		<tag k="addr:city" v="Busca"/>
		<tag k="addr:housenumber" v="10"/>
		<tag k="addr:postcode" v="12022"/>
		<tag k="addr:street" v="Via Cesare Battisti"/>
		<tag k="delivery" v="yes"/>
		<tag k="name" v="Lavanderia Giletta Nadia"/>
		<tag k="phone" v="+39 347 3232134"/>
		<tag k="shop" v="dry_cleaning"/>
	</node>
	<node id="7340702212" lat="44.3727716" lon="7.6219819">
		<tag k="addr:city" v="Beinette"/>
		<tag k="addr:country" v="IT"/>
		<tag k="addr:housenumber" v="6"/>
		<tag k="addr:postcode" v="12081"/>
		<tag k="addr:street" v="Via Cuneo"/>
		<tag k="contact:mobile" v="+39 366 2044877"/>
		<tag k="contact:phone" v="+39 0171 384084"/>
		<tag k="delivery" v="yes"/>
		<tag k="description" v="Consegna gratuita da 19,99€, su Beinette per un raggio di 30 km. Consegna in 72 h."/>
		<tag k="name" v="Magazzino Mary JouèClub"/>
		<tag k="payment:cash" v="yes"/>
		<tag k="payment:satispay" v="yes"/>
		<tag k="shop" v="toys"/>
		<tag k="website" v="http://www.magazzinomary.it/"/>
	</node>
	<node id="7373358703" lat="44.391843" lon="7.5498543">
		<tag k="addr:housenumber" v="52"/>
		<tag k="addr:street" v="Via Roma"/>
		<tag k="contact:email" v="info@alferoarredamento.it"/>
		<tag k="contact:mobile" v="+39 335 605563"/>
		<tag k="contact:phone" v="+39 0171 692589"/>
		<tag k="delivery:covid19" v="yes"/>
		<tag k="fixme" v="position estimated"/>
		<tag k="name" v="Alfero Arredamento Interni di Anna Maria Alfero"/>
		<tag k="shop" v="furniture"/>
	</node>
	<node id="7373391658" lat="44.3915161" lon="7.5689128">
		<tag k="addr:housenumber" v="47"/>
		<tag k="addr:street" v="Via Savona"/>
		<tag k="contact:facebook" v="https://www.facebook.com/Green-Grow-Lampade-di-Sale-Himalaya-1289693057753432/"/>
		<tag k="contact:mobile" v="+39 348 7039967"/>
		<tag k="contact:phone" v="+39 0171 401648"/>
		<tag k="contact:website" v="https://www.greenandgrow.it/"/>
		<tag k="delivery:covid19" v="yes"/>
		<tag k="fixme" v="position estimated"/>
		<tag k="name" v="Green &#38; Grow"/>
		<tag k="shop" v="chemist"/>
	</node>
	<node id="7375029744" lat="44.6432608" lon="7.6567894">
		<tag k="contact:mobile" v="+39 340 5823508"/>
		<tag k="delivery:covid19" v="yes"/>
		<tag k="name" v="Cartolibreria Riva"/>
		<tag k="shop" v="stationery"/>
	</node>
	<node id="7375440504" lat="44.6469929" lon="7.6584229">
		<tag k="contact:mobile" v="+39 338 7300493"/>
		<tag k="delivery:covid19" v="yes"/>
		<tag k="name" v="Cartoleria Franco"/>
		<tag k="shop" v="stationery"/>
	</node>
	<node id="7376171298" lat="44.3601403" lon="7.6489052">
		<tag k="addr:housenumber" v="39"/>
		<tag k="addr:street" v="Via Circonvallazione"/>
		<tag k="contact:email" v="fabri.bongio75@gmail.com"/>
		<tag k="contact:facebook" v="https://www.facebook.com/woolstore3bf/"/>
		<tag k="contact:mobile" v="+39 339 1069744"/>
		<tag k="delivery:covid19" v="yes"/>
		<tag k="fixme" v="position estimated"/>
		<tag k="name" v="Wool Store 3BF"/>
		<tag k="operator" v="3BF di Bongiovanni Fabrizio &#38; C. S.N.C."/>
		<tag k="shop" v="sewing"/>
	</node>
	<node id="7402554300" lat="44.3587018" lon="7.5166455">
		<tag k="addr:city" v="Cuneo"/>
		<tag k="addr:country" v="IT"/>
		<tag k="addr:housenumber" v="239"/>
		<tag k="addr:postcode" v="12100"/>
		<tag k="addr:street" v="Corso Francia"/>
		<tag k="brand" v="VeroCaffè"/>
		<tag k="contact:phone" v="+39 0171 344414"/>
		<tag k="contact:website" v="http://www.verocaffe.eu/"/>
		<tag k="delivery:covid19" v="yes"/>
		<tag k="description" v="Consegna a Cuneo, Borgo San Dalmazzo e limitrofi. Prenota lun-sab 9.30-13 e 14.30-18.30 chiamando il numero 0171 344414 La consegna del tuo ordine avverrà nella giornata di VENERDÌ. Ordine minimo 35€ - pagamento in contanti"/>
		<tag k="name" v="VeroCaffè - Cuneo"/>
		<tag k="opening_hours" v="Mo-Sa 09:30-13:00,14:30-19:30; Su 10:00-12:30,14:30-19:00"/>
		<tag k="shop" v="coffee"/>
	</node>
	<node id="7416675736" lat="44.4730835" lon="7.5095714">
		<tag k="addr:city" v="Tarantasca - Frazione San Chiaffredo"/>
		<tag k="addr:housenumber" v="50"/>
		<tag k="addr:postcode" v="12020"/>
		<tag k="addr:street" v="Via Laghi di Avigliana"/>
		<tag k="delivery" v="yes"/>
		<tag k="description" v="Generi alimentari vari (carne, salumi, formaggi, vino, farine, pasta fresca)."/>
		<tag k="email" v="info@zuccoalimentari.it"/>
		<tag k="name" v="Zucco Alimentari di Zucco Antonio"/>
		<tag k="phone" v="+39 0171 411759"/>
		<tag k="shop" v="wholesale"/>
		<tag k="website" v="www.zuccoalimentari.it"/>
		<tag k="wholesale" v="food"/>
	</node>
</osm>
