<?xml version='1.0' encoding='UTF-8'?>
<osm version="0.6" generator="osmfilter 1.4.4">
	<node id="2634940001" lat="44.3899953" lon="7.5474621">
		<tag k="addr:city" v="Cuneo"/>
		<tag k="addr:housenumber" v="6"/>
		<tag k="addr:postcode" v="12100"/>
		<tag k="addr:street" v="Piazza Tancredi Galimberti"/>
		<tag k="amenity" v="bar"/>
		<tag k="brewery" v="yes"/>
		<tag k="contact:email" v="galicuneo@gmail.com"/>
		<tag k="contact:facebook" v="https://www.facebook.com/galicuneo/"/>
		<tag k="contact:mobile" v="+39 392 0339990"/>
		<tag k="contact:phone" v="+39 0171 699698"/>
		<tag k="cuisine" v="burger"/>
		<tag k="delivery:covid19" v="yes"/>
		<tag k="name" v="Galì"/>
		<tag k="opening_hours" v="Mo-Th,Su 07:00-24:00; Fr,Sa 07:00-02:00"/>
		<tag k="outdoor_seating" v="yes"/>
	</node>
	<node id="2634945051" lat="44.3873442" lon="7.5453672">
		<tag k="addr:housenumber" v="16"/>
		<tag k="addr:street" v="Corso Nizza"/>
		<tag k="amenity" v="bar"/>
		<tag k="contact:mobile" v="+39 333 4988405"/>
		<tag k="contact:phone" v="+39 0171 602014"/>
		<tag k="cuisine" v="ice_cream"/>
		<tag k="delivery" v="yes"/>
		<tag k="name" v="Il Corso"/>
		<tag k="operator" v="Bar Corso s.n.c. di Basso Marco Giuseppe &#38; C."/>
		<tag k="outdoor_seating" v="yes"/>
		<tag k="ref:vatin" v="IT02293100042"/>
		<tag k="wheelchair" v="yes"/>
	</node>
	<node id="3884561295" lat="44.3912962" lon="7.5634988">
		<tag k="addr:housenumber" v="10"/>
		<tag k="addr:postcode" v="12100"/>
		<tag k="addr:street" v="Via Savona"/>
		<tag k="amenity" v="cafe"/>
		<tag k="contact:email" v="matteo.gavu@hotmail.it"/>
		<tag k="contact:mobile" v="+39 349 6003543"/>
		<tag k="delivery:covid19" v="yes"/>
		<tag k="name" v="Bar barriera"/>
	</node>
	<node id="5397122034" lat="44.3881856" lon="7.5488399">
		<tag k="addr:housenumber" v="5"/>
		<tag k="addr:street" v="Corso Giuseppe Garibaldi"/>
		<tag k="amenity" v="cafe"/>
		<tag k="cuisine" v="ice_cream"/>
		<tag k="delivery" v="yes"/>
		<tag k="description" v="Consegna per colombe pasquali, uova di cioccolato, pasticceria e gelato, vini. Servizio di prenotazione dalle 10 alle 17"/>
		<tag k="name" v="Bar Gelateria Rondò"/>
		<tag k="opening_hours" v="Mo-Sa 06:00-20:00; Su 07:00-12:30"/>
		<tag k="outdoor_seating" v="yes"/>
		<tag k="phone" v="+39 0171 693900"/>
		<tag k="phone:mobile" v="+39 335 5890688"/>
	</node>
	<node id="6015519457" lat="44.3907096" lon="7.5506688">
		<tag k="addr:housenumber" v="7"/>
		<tag k="addr:street" v="Via Peveragno"/>
		<tag k="alt_name" v="Sottosopra"/>
		<tag k="amenity" v="cafe"/>
		<tag k="contact:email" v="coffeespiritsacademy@gmail.com"/>
		<tag k="contact:mobile" v="+39 392 7158394;+39 345 0847193"/>
		<tag k="delivery:covid19" v="yes"/>
		<tag k="name" v="Coffee and Good Spirits"/>
	</node>
	<node id="6028315708" lat="44.3882781" lon="7.5479339">
		<tag k="addr:housenumber" v="4"/>
		<tag k="addr:street" v="Corso Giuseppe Garibaldi"/>
		<tag k="amenity" v="cafe"/>
		<tag k="contact:email" v="sandiabistrot@gmail.com"/>
		<tag k="contact:facebook" v="https://www.facebook.com/sandiabistrot/"/>
		<tag k="contact:instagram" v="https://www.instagram.com/sandiabistrot/"/>
		<tag k="contact:phone" v="+39 0171 605374"/>
		<tag k="delivery:covid19" v="yes"/>
		<tag k="diet:vegan" v="yes"/>
		<tag k="diet:vegetarian" v="yes"/>
		<tag k="name" v="Sandía"/>
		<tag k="organic" v="yes"/>
	</node>
	<node id="6038593234" lat="44.3869137" lon="7.5449442">
		<tag k="addr:city" v="Cuneo"/>
		<tag k="addr:housenumber" v="22"/>
		<tag k="addr:street" v="Corso Nizza"/>
		<tag k="amenity" v="bar"/>
		<tag k="contact:mobile" v="+39 328 1412090"/>
		<tag k="contact:phone" v="+39 0171 64450"/>
		<tag k="cuisine" v="ice_cream"/>
		<tag k="delivery:covid19" v="yes"/>
		<tag k="name" v="Sillano"/>
	</node>
	<node id="6170776614" lat="44.3840423" lon="7.5411894">
		<tag k="addr:housenumber" v="14"/>
		<tag k="addr:street" v="Piazza Europa"/>
		<tag k="amenity" v="bar"/>
		<tag k="brewery" v="Beck&#39;s;Leffe"/>
		<tag k="cuisine" v="ice_cream"/>
		<tag k="delivery" v="yes"/>
		<tag k="name" v="Cuba"/>
		<tag k="outdoor_seating" v="yes"/>
		<tag k="phone" v="+39 0171 693968"/>
		<tag k="website" v="https://www.relaiscubaonline.com/"/>
	</node>
	<node id="6188040643" lat="44.3878666" lon="7.5450764">
		<tag k="addr:housenumber" v="6"/>
		<tag k="addr:street" v="Via Ventotto Aprile"/>
		<tag k="amenity" v="cafe"/>
		<tag k="contact:email" v="elisabetta.prezia@virgilio.it"/>
		<tag k="contact:mobile" v="+39 392 2836557"/>
		<tag k="delivery:covid19" v="yes"/>
		<tag k="name" v="Il mondo del caffè"/>
	</node>
	<node id="6342641186" lat="44.3904384" lon="7.5500289">
		<tag k="addr:housenumber" v="6"/>
		<tag k="addr:street" v="Piazza Boves"/>
		<tag k="delivery" v="yes"/>
		<tag k="name" v="La cantinetta"/>
		<tag k="shop" v="wine"/>
	</node>
	<node id="6358483961" lat="44.3857052" lon="7.5420549">
		<tag k="amenity" v="cafe"/>
		<tag k="delivery" v="yes"/>
		<tag k="name" v="La coccinella"/>
		<tag k="phone" v="+39 339 2429445"/>
	</node>
	<node id="6433717642" lat="44.388218" lon="7.5378782">
		<tag k="addr:city" v="Cuneo"/>
		<tag k="addr:housenumber" v="38"/>
		<tag k="addr:postcode" v="12100"/>
		<tag k="addr:street" v="Via Sebastiano Grandis"/>
		<tag k="amenity" v="cafe"/>
		<tag k="bar" v="yes"/>
		<tag k="contact:mobile" v="+39 393 4106026"/>
		<tag k="contact:phone" v="+39 0171 1988146"/>
		<tag k="cuisine" v="sandwich;italian"/>
		<tag k="delivery:covid19" v="yes"/>
		<tag k="internet_access" v="wlan"/>
		<tag k="name" v="Dotta Caffè"/>
		<tag k="outdoor_seating" v="yes"/>
	</node>
	<node id="6549851145" lat="44.3910935" lon="7.5703842">
		<tag k="addr:housenumber" v="50"/>
		<tag k="addr:street" v="Via Savona"/>
		<tag k="amenity" v="bar"/>
		<tag k="contact:mobile" v="+39 347 3176965"/>
		<tag k="contact:phone" v="+39 0171 402666"/>
		<tag k="delivery:covid19" v="yes"/>
		<tag k="name" v="Cit Ma Bel"/>
		<tag k="operator" v="Cit Ma Bel Ettore e Margherita Ristorante"/>
	</node>
	<node id="6578471478" lat="44.3917713" lon="7.5488246">
		<tag k="addr:housenumber" v="8"/>
		<tag k="addr:street" v="Via Caraglio"/>
		<tag k="contact:mobile" v="+39 339 1366315;+39 328 0648540"/>
		<tag k="delivery:covid19" v="yes"/>
		<tag k="name" v="Al 37"/>
		<tag k="shop" v="wine"/>
	</node>
	<node id="7168981053" lat="44.4175219" lon="7.4279591">
		<tag k="addr:housenumber" v="82"/>
		<tag k="addr:street" v="Via Roma"/>
		<tag k="contact:facebook" v="https://www.facebook.com/vinerialunallegra/"/>
		<tag k="delivery" v="yes"/>
		<tag k="description" v="Vineria Lunallegra offre una vasta scelta di vini del territorio, una selezione da tutta Italia ed internazionale. Prodotti tipici, aperitivi e degustazioni."/>
		<tag k="name" v="Vineria Lunallegra"/>
		<tag k="opening_hours" v="Tu-Th 09:00-12:30,16:00-19:30; Fr,Sa 09:00-12:30,16:00-21:00; Su 09:00-13:00"/>
		<tag k="phone" v="+39 0171 619876"/>
		<tag k="shop" v="wine"/>
		<tag k="website" v="https://www.vinerialunallegra.com/"/>
	</node>
	<node id="7289025747" lat="44.6452352" lon="7.6569606">
		<tag k="addr:housenumber" v="10"/>
		<tag k="addr:street" v="Via Cravetta"/>
		<tag k="contact:facebook" v="https://www.facebook.com/pelledoca/"/>
		<tag k="cuisine" v="burger"/>
		<tag k="delivery" v="yes"/>
		<tag k="fixme" v="position estimated"/>
		<tag k="name" v="Pelledoca"/>
		<tag k="phone" v="+39 339 440 7053"/>
		<tag k="shop" v="wine"/>
		<tag k="website" v="http://www.pelledoca.net/"/>
	</node>
	<node id="7315542851" lat="44.6509434" lon="7.6554523">
		<tag k="amenity" v="cafe"/>
		<tag k="delivery:covid19" v="yes"/>
		<tag k="name" v="Bar Kursal"/>
		<tag k="phone" v="+39 0172 31744"/>
	</node>
	<node id="7323613773" lat="44.5405794" lon="7.4792321">
		<tag k="addr:city" v="Ceretto"/>
		<tag k="addr:housenumber" v="15"/>
		<tag k="addr:postcode" v="12022"/>
		<tag k="addr:street" v="Strada San Martino"/>
		<tag k="craft" v="winery"/>
		<tag k="delivery" v="yes"/>
		<tag k="description" v="Vini tipici locali e succhi di frutta"/>
		<tag k="name" v="Vini Tomatis Dario e figli"/>
		<tag k="phone" v="+39 339 5489745"/>
		<tag k="shop" v="wine"/>
	</node>
	<node id="7375029746" lat="44.6453781" lon="7.6568457">
		<tag k="amenity" v="bar"/>
		<tag k="contact:mobile" v="+39 373 7571988"/>
		<tag k="delivery:covid19" v="yes"/>
		<tag k="name" v="Pelledoca Wine"/>
		<tag k="website" v="http://www.pelledoca.net/"/>
		<tag k="winery" v="yes"/>
	</node>
	<node id="7375029748" lat="44.6481813" lon="7.65704">
		<tag k="amenity" v="cafe"/>
		<tag k="contact:facebook" v="https://www.facebook.com/labelleepoquesavigliano"/>
		<tag k="contact:mobile" v="+39 393 9464425"/>
		<tag k="contact:phone" v="+39 0172 717242"/>
		<tag k="delivery:covid19" v="yes"/>
		<tag k="name" v="La Belle Epoque"/>
	</node>
	<node id="7415053014" lat="44.4223377" lon="7.5440492">
		<tag k="addr:housenumber" v="99"/>
		<tag k="addr:street" v="Via Valle Po"/>
		<tag k="amenity" v="cafe"/>
		<tag k="contact:mobile" v="+39 335 5430188"/>
		<tag k="contact:phone" v="+39 0171 412294"/>
		<tag k="delivery:covid19" v="yes"/>
		<tag k="name" v="Il Podio Cafè"/>
		<tag k="operator" v="Bertero Mirella"/>
	</node>
</osm>
