<?xml version='1.0' encoding='UTF-8'?>
<osm version="0.6" generator="osmfilter 1.4.4">
	<node id="1537464595" lat="44.4172725" lon="7.4279102">
		<tag k="addr:city" v="Caraglio"/>
		<tag k="addr:housenumber" v="20"/>
		<tag k="addr:postcode" v="12023"/>
		<tag k="addr:street" v="Piazza Cavour"/>
		<tag k="amenity" v="pharmacy"/>
		<tag k="delivery" v="yes"/>
		<tag k="dispensing" v="yes"/>
		<tag k="name" v="Farmacia Cornelio"/>
		<tag k="opening_hours" v="Mo-Sa 08:30-12:30, 15:00-19:30; Su 08:30-12:20"/>
		<tag k="operator" v="Cornelio S.N.C."/>
		<tag k="phone" v="+39 0171 325202"/>
		<tag k="ref:msal" v="1087"/>
		<tag k="ref:vatin" v="IT01126410040"/>
	</node>
	<node id="1893571638" lat="44.4939272" lon="7.5449649">
		<tag k="addr:city" v="Tarantasca"/>
		<tag k="addr:housenumber" v="11"/>
		<tag k="addr:postcode" v="12020"/>
		<tag k="addr:street" v="Via Vittorio Veneto"/>
		<tag k="amenity" v="pharmacy"/>
		<tag k="delivery" v="yes"/>
		<tag k="dispensing" v="yes"/>
		<tag k="name" v="Farmacia Fanizza"/>
		<tag k="operator" v="Fanizza"/>
		<tag k="phone" v="+39 0171 931000"/>
		<tag k="ref:msal" v="1069"/>
		<tag k="ref:vatin" v="IT02034570040"/>
	</node>
	<node id="3441538565" lat="44.5157371" lon="7.4783675">
		<tag k="addr:city" v="Busca"/>
		<tag k="addr:housenumber" v="3"/>
		<tag k="addr:postcode" v="12022"/>
		<tag k="addr:street" v="Corso Papa Giovanni Ventitreesimo"/>
		<tag k="amenity" v="pharmacy"/>
		<tag k="delivery" v="yes"/>
		<tag k="dispensing" v="yes"/>
		<tag k="name" v="Farmacia San Lorenzo"/>
		<tag k="operator" v="S. Lorenzo"/>
		<tag k="phone" v="+39 0171 945255"/>
		<tag k="ref:msal" v="1091"/>
		<tag k="ref:vatin" v="IT02788950042"/>
		<tag k="source" v="Ministero della Salute"/>
		<tag k="source:start_date" v="2005-01-01"/>
	</node>
	<node id="3447242319" lat="44.4793641" lon="7.5054651">
		<tag k="addr:city" v="San Chiaffredo Tarantasca"/>
		<tag k="addr:housenumber" v="2a"/>
		<tag k="addr:postcode" v="12020"/>
		<tag k="addr:street" v="Via Laghi di Avigliana"/>
		<tag k="amenity" v="pharmacy"/>
		<tag k="delivery" v="yes"/>
		<tag k="dispensing" v="no"/>
		<tag k="name" v="Parafarmacia Dott.ssa Molineris"/>
		<tag k="operator" v="Parafarmacia Molineris Dott.ssa Sonia"/>
		<tag k="phone" v="+39 0171 937473"/>
		<tag k="ref:msal" v="006395"/>
		<tag k="ref:vatin" v="IT03330800040"/>
	</node>
	<node id="3499281092" lat="44.418042" lon="7.430316">
		<tag k="addr:city" v="Caraglio"/>
		<tag k="addr:housenumber" v="157"/>
		<tag k="addr:postcode" v="12023"/>
		<tag k="addr:street" v="Via Roma"/>
		<tag k="amenity" v="pharmacy"/>
		<tag k="delivery" v="yes"/>
		<tag k="dispensing" v="yes"/>
		<tag k="name" v="Farmacia Di Marco"/>
		<tag k="operator" v="Farmacia di Di Marco Rosella e C. S.A.S."/>
		<tag k="phone:mobile" v="+39 340 7600326"/>
		<tag k="ref:msal" v="1086"/>
		<tag k="ref:vatin" v="IT02346710045"/>
	</node>
	<node id="4472819040" lat="44.5149929" lon="7.4745175">
		<tag k="addr:city" v="Busca"/>
		<tag k="addr:housenumber" v="114"/>
		<tag k="addr:postcode" v="12022"/>
		<tag k="addr:street" v="Via Umberto Primo"/>
		<tag k="amenity" v="pharmacy"/>
		<tag k="delivery" v="yes"/>
		<tag k="dispensing" v="yes"/>
		<tag k="email" v="farmaciaabratebusca@gmail.com"/>
		<tag k="name" v="Farmacia Abrate"/>
		<tag k="operator" v="Abrate Enrico"/>
		<tag k="phone" v="+39 0171 943923"/>
		<tag k="phone:mobile" v="+39 377 2318251"/>
		<tag k="ref:msal" v="1079"/>
		<tag k="ref:vatin" v="IT00196010045"/>
		<tag k="source" v="Ministero della Salute"/>
		<tag k="start_date" v="2007-04-01"/>
	</node>
	<node id="4473107900" lat="44.5150902" lon="7.4748565">
		<tag k="addr:city" v="Busca"/>
		<tag k="addr:housenumber" v="106"/>
		<tag k="addr:postcode" v="12022"/>
		<tag k="addr:street" v="Via Umberto Primo"/>
		<tag k="amenity" v="pharmacy"/>
		<tag k="delivery" v="yes"/>
		<tag k="dispensing" v="yes"/>
		<tag k="name" v="Farmacia Favro"/>
		<tag k="operator" v="Favro Paolo"/>
		<tag k="phone" v="+39 0171 945290"/>
		<tag k="ref:msal" v="1082"/>
		<tag k="ref:vatin" v="IT02962710048"/>
		<tag k="source" v="Ministero della Salute"/>
		<tag k="start_date" v="2010-09-01"/>
	</node>
	<node id="5402092370" lat="44.3817138" lon="7.5404782">
		<tag k="addr:housenumber" v="1"/>
		<tag k="addr:street" v="Via Luigi Negrelli"/>
		<tag k="delivery" v="yes"/>
		<tag k="email" v="centroacusticocn@libero.it"/>
		<tag k="name" v="Centro Acustico Piemontese"/>
		<tag k="operator" v="Centro Acustico Piemontese Snc"/>
		<tag k="phone" v="+39 0171 603072"/>
		<tag k="shop" v="hearing_aids"/>
	</node>
	<node id="5839763105" lat="44.3825605" lon="7.468369">
		<tag k="addr:housenumber" v="37"/>
		<tag k="addr:street" v="Via Roma"/>
		<tag k="amenity" v="pharmacy"/>
		<tag k="contact:facebook" v="https://www.facebook.com/alessiasottileparafarmacia/"/>
		<tag k="delivery" v="yes"/>
		<tag k="dispensing" v="no"/>
		<tag k="name" v="Parafarmacia Alessia Sottile"/>
		<tag k="operator" v="Parafarmacia Sottile"/>
		<tag k="phone" v="+39 0171 500692"/>
		<tag k="ref:msal" v="014370"/>
		<tag k="ref:vatin" v="IT03525710046"/>
	</node>
	<node id="6109051287" lat="44.4214163" lon="7.5525793">
		<tag k="addr:housenumber" v="8"/>
		<tag k="addr:street" v="Via Guido Martino"/>
		<tag k="amenity" v="pharmacy"/>
		<tag k="delivery:covid19" v="yes"/>
		<tag k="dispensing" v="no"/>
		<tag k="level" v="1"/>
		<tag k="name" v="Parafarmacia della Granda"/>
		<tag k="operator" v="Fda di Donolato Antonio e C. s.n.c."/>
		<tag k="payment:bancomat" v="yes"/>
		<tag k="payment:cash" v="yes"/>
		<tag k="payment:satispay" v="yes"/>
		<tag k="phone" v="+39 0171 411650"/>
		<tag k="ref:msal" v="005799"/>
		<tag k="ref:vatin" v="IT03278350040"/>
	</node>
	<node id="6173050037" lat="44.3852183" lon="7.5417427">
		<tag k="addr:housenumber" v="10"/>
		<tag k="addr:street" v="Corso Giovanni Giolitti"/>
		<tag k="delivery" v="yes"/>
		<tag k="email" v="nettarecuneo@gmail.com"/>
		<tag k="name" v="Il Nettare"/>
		<tag k="phone" v="+39 334 7290501"/>
		<tag k="shop" v="herbalist"/>
	</node>
	<node id="6187982144" lat="44.3917158" lon="7.5497555">
		<tag k="addr:housenumber" v="56"/>
		<tag k="addr:street" v="Via Roma"/>
		<tag k="delivery" v="yes"/>
		<tag k="email" v="robistazio@gmail.com"/>
		<tag k="name" v="L&#39;Erbolario"/>
		<tag k="operator" v="Stazio Roberto"/>
		<tag k="phone" v="+39 338 6191709"/>
		<tag k="shop" v="herbalist"/>
	</node>
	<node id="6269298460" lat="44.3924945" lon="7.550595">
		<tag k="addr:housenumber" v="40"/>
		<tag k="addr:street" v="Via Roma"/>
		<tag k="delivery" v="yes"/>
		<tag k="email" v="ortopediazaccone@libero.it"/>
		<tag k="medical_supply" v="orthopedic"/>
		<tag k="name" v="Ortopedia Zaccone"/>
		<tag k="phone" v="+39 0171 681412"/>
		<tag k="shop" v="medical_supply"/>
	</node>
	<node id="6342617252" lat="44.3887965" lon="7.5502015">
		<tag k="addr:housenumber" v="15bis"/>
		<tag k="addr:street" v="Lungogesso Papa Giovanni Ventitreesimo"/>
		<tag k="delivery" v="yes"/>
		<tag k="medical_supply" v="orthopedic"/>
		<tag k="name" v="Ortopedia I.T.O.S."/>
		<tag k="shop" v="medical_supply"/>
		<tag k="website" v="https://www.itoscuneo.com/"/>
	</node>
	<node id="6579153660" lat="44.3664074" lon="7.5237475">
		<tag k="addr:housenumber" v="102"/>
		<tag k="addr:street" v="Corso Francia"/>
		<tag k="amenity" v="pharmacy"/>
		<tag k="delivery" v="yes"/>
		<tag k="dispensing" v="no"/>
		<tag k="email" v="parafarmacia.invernelli@gmail.com"/>
		<tag k="name" v="Parafarmacia Invernelli"/>
		<tag k="operator" v="Parafarmacia Dottor Invernelli Davide"/>
		<tag k="phone" v="+39 0171 492580"/>
		<tag k="ref:msal" v="011293"/>
		<tag k="ref:vatin" v="IT03517880047"/>
	</node>
	<node id="6854839164" lat="44.3754078" lon="7.5330409">
		<tag k="addr:housenumber" v="14a"/>
		<tag k="addr:street" v="Corso Francia"/>
		<tag k="delivery" v="yes"/>
		<tag k="email" v="ortopediapegaso@libero.it"/>
		<tag k="medical_supply" v="orthopedic"/>
		<tag k="name" v="Ortopedia Pegaso"/>
		<tag k="operator" v="Ortopedia Pegaso Snc"/>
		<tag k="phone" v="+39 0171 480640"/>
		<tag k="shop" v="medical_supply"/>
	</node>
	<node id="7296209432" lat="44.4173091" lon="7.427435">
		<tag k="delivery" v="yes"/>
		<tag k="fixme" v="adjust position"/>
		<tag k="name" v="Acqua di Roccia"/>
		<tag k="phone" v="+39 366 1981316"/>
		<tag k="shop" v="herbalist"/>
	</node>
	<node id="7303941776" lat="44.5109979" lon="7.5936019">
		<tag k="addr:housenumber" v="321"/>
		<tag k="addr:place" v="Regione Madonna dei Prati"/>
		<tag k="amenity" v="pharmacy"/>
		<tag k="delivery" v="yes"/>
		<tag k="dispensing" v="no"/>
		<tag k="email" v="vendite.irma@pavengroup.com"/>
		<tag k="fixme" v="position estimated"/>
		<tag k="name" v="Paven S.R.L."/>
		<tag k="phone" v="+39 0171 211700"/>
		<tag k="ref:msal" v="008568"/>
		<tag k="ref:vatin" v="IT02414610044"/>
		<tag k="website" v="http://www.pavengroup.com/"/>
	</node>
	<node id="7304200571" lat="44.515202" lon="7.4751851">
		<tag k="addr:city" v="Busca"/>
		<tag k="addr:housenumber" v="90"/>
		<tag k="addr:postcode" v="12022"/>
		<tag k="addr:street" v="Via Umberto Primo"/>
		<tag k="amenity" v="pharmacy"/>
		<tag k="delivery" v="yes"/>
		<tag k="dispensing" v="no"/>
		<tag k="fixme" v="position estimated"/>
		<tag k="name" v="Parafarmacia del Consiglio"/>
		<tag k="operator" v="Parafarmacia del Consiglio di Pasquale Dott. Dario"/>
		<tag k="phone" v="+39 0171 944787"/>
		<tag k="ref:msal" v="006155"/>
		<tag k="ref:vatin" v="IT03303720043"/>
	</node>
	<node id="7323607848" lat="44.5154616" lon="7.474472">
		<tag k="addr:city" v="Busca"/>
		<tag k="addr:housenumber" v="17"/>
		<tag k="addr:postcode" v="12022"/>
		<tag k="addr:street" v="Via Roberto d&#39;Azeglio"/>
		<tag k="contact:mobile" v="+39 340 7288196"/>
		<tag k="contact:phone" v="+39 0171 943888"/>
		<tag k="delivery" v="yes"/>
		<tag k="name" v="L&#39;Erbolario - Erboristeria da Mary"/>
		<tag k="shop" v="herbalist"/>
	</node>
	<node id="7404309379" lat="44.3912699" lon="7.5635972">
		<tag k="addr:housenumber" v="12"/>
		<tag k="addr:postcode" v="12100"/>
		<tag k="addr:street" v="Via Savona"/>
		<tag k="contact:email" v="info@erboristeria-artiano.com"/>
		<tag k="contact:phone" v="+39 0171 500638"/>
		<tag k="delivery:covid19" v="yes"/>
		<tag k="fixme" v="adjust position"/>
		<tag k="name" v="Erboristeria Dott.ssa Artiano"/>
		<tag k="shop" v="herbalist"/>
	</node>
</osm>
